{
  "type": "FeatureCollection",
  "features": [
    {
      "type": "Feature",
      "properties": {
        "adm3_name": "Mohammadpur",
        "adm3_name1": null,
        "adm3_name2": null,
        "adm3_name3": null,
        "adm3_pcode": "BD40550066",
        "adm2_name": "Magura",
        "adm2_name1": null,
        "adm2_name2": null,
        "adm2_name3": null,
        "adm2_pcode": "BD4055",
        "adm1_name": "Khulna",
        "adm1_name1": null,
        "adm1_name2": null,
        "adm1_name3": null,
        "adm1_pcode": "BD40",
        "adm0_name": "Bangladesh",
        "adm0_name1": null,
        "adm0_name2": null,
        "adm0_name3": null,
        "adm0_pcode": "BD",
        "valid_on": "2023-05-21",
        "valid_to": null,
        "area_sqkm": 226.41764469,
        "version": "v03",
        "lang": "en",
        "lang1": null,
        "lang2": null,
        "lang3": null,
        "adm3_ref_name": null,
        "center_lat": 23.40009353,
        "center_lon": 89.55069065
      },
      "geometry": {
        "type": "Polygon",
        "coordinates": [
          [
            [
              89.57590221700008,
              23.496052230000146
            ],
            [
              89.5752420980001,
              23.496337613000037
            ],
            [
              89.57281410000007,
              23.497387254000103
            ],
            [
              89.57092948400015,
              23.49820194800003
            ],
            [
              89.56845694100008,
              23.499195492000183
            ],
            [
              89.5676218110001,
              23.49953132400003
            ],
            [
              89.56682285900007,
              23.4998526010001
            ],
            [
              89.56622220400004,
              23.500093561000142
            ],
            [
              89.56415626600017,
              23.500922313000103
            ],
            [
              89.5622750500001,
              23.501700624000136
            ],
            [
              89.56208138800008,
              23.501780895000138
            ],
            [
              89.56162545199999,
              23.5019698750001
            ],
            [
              89.55922299800017,
              23.502965629000073
            ],
            [
              89.55704056600007,
              23.5037763200001
            ],
            [
              89.55691233900006,
              23.50382395000014
            ],
            [
              89.5558559870002,
              23.50421612499997
            ],
            [
              89.55356996100005,
              23.504690277000122
            ],
            [
              89.55190392600014,
              23.50503581100014
            ],
            [
              89.55062225300009,
              23.505434074000107
            ],
            [
              89.54923359300011,
              23.50586677500013
            ],
            [
              89.54708940900014,
              23.50653486200008
            ],
            [
              89.54674924800014,
              23.506655813000066
            ],
            [
              89.5460733170001,
              23.506895132000068
            ],
            [
              89.54153030100008,
              23.508503527000187
            ],
            [
              89.538836392,
              23.509486906000063
            ],
            [
              89.53741923800004,
              23.510004342000116
            ],
            [
              89.53582458300014,
              23.510771888000193
            ],
            [
              89.53506324100005,
              23.511139068000034
            ],
            [
              89.53369793200011,
              23.51179751500007
            ],
            [
              89.5333789300002,
              23.511895701000185
            ],
            [
              89.53305898700012,
              23.511994175000154
            ],
            [
              89.53059150400014,
              23.512753607000093
            ],
            [
              89.53056625400018,
              23.51276137700006
            ],
            [
              89.52860982200013,
              23.51300187100003
            ],
            [
              89.52756219800017,
              23.513130639000053
            ],
            [
              89.52626312400014,
              23.513290303000076
            ],
            [
              89.52568570800014,
              23.513296506000188
            ],
            [
              89.52380630700014,
              23.51331668200004
            ],
            [
              89.52377376000004,
              23.513313683000092
            ],
            [
              89.52360483100017,
              23.5132981160001
            ],
            [
              89.52075824900004,
              23.513035782000088
            ],
            [
              89.52013715000004,
              23.512978536000162
            ],
            [
              89.51949731300016,
              23.51291956100016
            ],
            [
              89.518096093,
              23.511634526000137
            ],
            [
              89.51782107200012,
              23.51138230400005
            ],
            [
              89.5160132260001,
              23.509575435000045
            ],
            [
              89.515042166,
              23.508604870000113
            ],
            [
              89.51491801800006,
              23.50848078400014
            ],
            [
              89.51451446200008,
              23.508033592000118
            ],
            [
              89.51488579400007,
              23.50753291100017
            ],
            [
              89.5151105430001,
              23.50589596400016
            ],
            [
              89.51522477300011,
              23.503917842000078
            ],
            [
              89.51515412200007,
              23.503750329000184
            ],
            [
              89.51499363500017,
              23.50334653200008
            ],
            [
              89.51492320200015,
              23.503119271000173
            ],
            [
              89.5149056050002,
              23.502970499000128
            ],
            [
              89.51489492400009,
              23.50288019200002
            ],
            [
              89.51486620800006,
              23.502760606000095
            ],
            [
              89.51484160700005,
              23.502724031000184
            ],
            [
              89.51476955600003,
              23.50261691100019
            ],
            [
              89.51456319700009,
              23.50235636500014
            ],
            [
              89.51447988500013,
              23.50219165200008
            ],
            [
              89.51440883000004,
              23.502051170000186
            ],
            [
              89.51430926700004,
              23.501817917000153
            ],
            [
              89.51429021600018,
              23.501713225
            ],
            [
              89.51425230900014,
              23.501450216000023
            ],
            [
              89.51423707700013,
              23.50118727800009
            ],
            [
              89.51409922600016,
              23.500795500000038
            ],
            [
              89.51399728000007,
              23.50032914999997
            ],
            [
              89.51397914900008,
              23.499973593000163
            ],
            [
              89.5139641040002,
              23.49965987100012
            ],
            [
              89.513909619,
              23.499501369000143
            ],
            [
              89.51389948100007,
              23.499447429000156
            ],
            [
              89.51381748000011,
              23.49901114900007
            ],
            [
              89.513663882,
              23.498460914000134
            ],
            [
              89.51362751500011,
              23.498331347000146
            ],
            [
              89.51336297300008,
              23.497524997000028
            ],
            [
              89.51311351500004,
              23.4966548860001
            ],
            [
              89.51303672000017,
              23.496397730000126
            ],
            [
              89.51290497200011,
              23.496110529000077
            ],
            [
              89.51281355300011,
              23.495788185000038
            ],
            [
              89.50974729000018,
              23.496236448000104
            ],
            [
              89.50888852000014,
              23.496561175000068
            ],
            [
              89.50838207300006,
              23.49670649400008
            ],
            [
              89.50810349000005,
              23.495705550000082
            ],
            [
              89.50759665800018,
              23.49388446500012
            ],
            [
              89.50788732600012,
              23.493427000000167
            ],
            [
              89.509832807,
              23.49054945600011
            ],
            [
              89.51042224300011,
              23.48947190200016
            ],
            [
              89.5109565190001,
              23.48849579800003
            ],
            [
              89.51245272000017,
              23.486337162000098
            ],
            [
              89.51268454900008,
              23.48595418300016
            ],
            [
              89.5130871950002,
              23.485289006000073
            ],
            [
              89.51314580400015,
              23.485192184000084
            ],
            [
              89.5138003880001,
              23.484110306000048
            ],
            [
              89.51386264700005,
              23.4839646100001
            ],
            [
              89.51440075600004,
              23.48270533599998
            ],
            [
              89.5144077060001,
              23.482585355000083
            ],
            [
              89.51445678800007,
              23.48173800400008
            ],
            [
              89.51448013900017,
              23.48133487900003
            ],
            [
              89.51429747700013,
              23.480406201000108
            ],
            [
              89.51355997200011,
              23.478653824000162
            ],
            [
              89.51340954100004,
              23.478484951000098
            ],
            [
              89.51307699800014,
              23.47811164100017
            ],
            [
              89.51285598000015,
              23.477863525000032
            ],
            [
              89.51238207500012,
              23.477504119000173
            ],
            [
              89.51103814000004,
              23.47648486700018
            ],
            [
              89.51076484800012,
              23.47635804900017
            ],
            [
              89.51052857100007,
              23.47624840499998
            ],
            [
              89.50939523300008,
              23.475720233000175
            ],
            [
              89.5092553340001,
              23.475655035000102
            ],
            [
              89.50831579000004,
              23.475520615000164
            ],
            [
              89.50813252900002,
              23.475494396000045
            ],
            [
              89.5063179980001,
              23.475234773000125
            ],
            [
              89.50627279000008,
              23.475234157000102
            ],
            [
              89.50614137600007,
              23.475232363000146
            ],
            [
              89.50607844600017,
              23.475098156000115
            ],
            [
              89.50599154300016,
              23.47403211400001
            ],
            [
              89.50602433800015,
              23.473359340000115
            ],
            [
              89.50604867900012,
              23.47331053
            ],
            [
              89.50617723700009,
              23.47305273900008
            ],
            [
              89.50639839100006,
              23.472618711000052
            ],
            [
              89.50674447000006,
              23.471994613000106
            ],
            [
              89.50743850700019,
              23.47061797100008
            ],
            [
              89.50729127400018,
              23.47026884400003
            ],
            [
              89.50710179600009,
              23.470121465000034
            ],
            [
              89.50671321300018,
              23.47011346100004
            ],
            [
              89.50658065200014,
              23.469966260000035
            ],
            [
              89.50654607400014,
              23.46955516500003
            ],
            [
              89.50661025900001,
              23.469245999000066
            ],
            [
              89.50705575400019,
              23.469254183000032
            ],
            [
              89.50716426600013,
              23.469037740000147
            ],
            [
              89.50640278700007,
              23.46859047400011
            ],
            [
              89.50627798500005,
              23.467702899000074
            ],
            [
              89.50516340600012,
              23.467682562000107
            ],
            [
              89.50507678700018,
              23.467888496000114
            ],
            [
              89.50387861100012,
              23.467866624000067
            ],
            [
              89.50377193900005,
              23.467672083000025
            ],
            [
              89.50365736500015,
              23.46738041600014
            ],
            [
              89.50443011400006,
              23.467346742000018
            ],
            [
              89.50475055200008,
              23.466507722000074
            ],
            [
              89.50480037800014,
              23.466029148000075
            ],
            [
              89.50410694400011,
              23.465965976000177
            ],
            [
              89.50396582700006,
              23.465926829000068
            ],
            [
              89.50355521600011,
              23.465812920000133
            ],
            [
              89.50340501300002,
              23.46584201100012
            ],
            [
              89.50329372700008,
              23.465670203000116
            ],
            [
              89.50359443600018,
              23.464953062000063
            ],
            [
              89.50377572500014,
              23.464341675000185
            ],
            [
              89.50371681700005,
              23.463810819000116
            ],
            [
              89.50374905900009,
              23.463664149000067
            ],
            [
              89.50380957800019,
              23.46338883300001
            ],
            [
              89.50377966900015,
              23.463290234000112
            ],
            [
              89.50371633200012,
              23.463081426000088
            ],
            [
              89.50326118500004,
              23.463082239000073
            ],
            [
              89.50256236700011,
              23.463807138000107
            ],
            [
              89.50254180900004,
              23.463847608000037
            ],
            [
              89.5020435720001,
              23.464828436
            ],
            [
              89.5013236150001,
              23.464659030000064
            ],
            [
              89.50132529500007,
              23.464050433000068
            ],
            [
              89.50132615200005,
              23.463739964000013
            ],
            [
              89.50094541800019,
              23.463031940000064
            ],
            [
              89.50106258900018,
              23.462467771000036
            ],
            [
              89.50094953600018,
              23.461936739000123
            ],
            [
              89.50064454800014,
              23.461511231000088
            ],
            [
              89.50076145500014,
              23.461017063000043
            ],
            [
              89.5008421070001,
              23.459992108999984
            ],
            [
              89.50092045700018,
              23.459799490000137
            ],
            [
              89.50107144000015,
              23.45942830100006
            ],
            [
              89.50078975000008,
              23.459391271000186
            ],
            [
              89.49795770500015,
              23.458941840000023
            ],
            [
              89.49732641000008,
              23.458316548000028
            ],
            [
              89.49669939500012,
              23.45769353200012
            ],
            [
              89.49622373400013,
              23.45742101700006
            ],
            [
              89.49614038600015,
              23.457373326000095
            ],
            [
              89.49613606300005,
              23.45734395700009
            ],
            [
              89.49596297300013,
              23.45623237600006
            ],
            [
              89.495846706,
              23.455830047000063
            ],
            [
              89.4958153560001,
              23.455721552000057
            ],
            [
              89.4956298730001,
              23.45507963100016
            ],
            [
              89.49525252500018,
              23.454366592000042
            ],
            [
              89.4943382240001,
              23.452638884000066
            ],
            [
              89.492080025,
              23.44922355700004
            ],
            [
              89.49160747900004,
              23.448508847000028
            ],
            [
              89.49129238900008,
              23.44802514700018
            ],
            [
              89.49044797900018,
              23.446728856000107
            ],
            [
              89.4901657910001,
              23.44629565100007
            ],
            [
              89.48993068800007,
              23.44593357500014
            ],
            [
              89.48950245500009,
              23.44455920600018
            ],
            [
              89.48950514500012,
              23.443859181999983
            ],
            [
              89.48950591800013,
              23.44365775
            ],
            [
              89.48950620100004,
              23.443583686000125
            ],
            [
              89.49013430300016,
              23.443100233000166
            ],
            [
              89.49085840700019,
              23.442790969000157
            ],
            [
              89.49182224700019,
              23.44275120400016
            ],
            [
              89.493171556,
              23.442710427000065
            ],
            [
              89.49419617500013,
              23.443082806000064
            ],
            [
              89.49429653000004,
              23.44311927800004
            ],
            [
              89.4953846730001,
              23.44351473300003
            ],
            [
              89.49652961100014,
              23.44376546100017
            ],
            [
              89.49682901200015,
              23.443831025000065
            ],
            [
              89.49701351200014,
              23.443780010000182
            ],
            [
              89.49754748400005,
              23.44363236300012
            ],
            [
              89.49842092000006,
              23.443391287999987
            ],
            [
              89.4989057640002,
              23.442595708000056
            ],
            [
              89.4990648820002,
              23.442098215000044
            ],
            [
              89.49934443900014,
              23.441224145000035
            ],
            [
              89.49896247800007,
              23.440292550000095
            ],
            [
              89.49756733800012,
              23.439757397000164
            ],
            [
              89.49546312100017,
              23.43936301400015
            ],
            [
              89.4949193010001,
              23.439261083000133
            ],
            [
              89.49344879300014,
              23.439383870000086
            ],
            [
              89.49135262100009,
              23.439558875000102
            ],
            [
              89.48884713300004,
              23.43955069200001
            ],
            [
              89.48823115800019,
              23.43939201100011
            ],
            [
              89.48815459300016,
              23.439372287000083
            ],
            [
              89.48798069900016,
              23.439326551000022
            ],
            [
              89.4879333520002,
              23.43889712300006
            ],
            [
              89.48797858200004,
              23.438236306000135
            ],
            [
              89.48812604300008,
              23.437835025000084
            ],
            [
              89.48830059300013,
              23.43739482799998
            ],
            [
              89.48834694200013,
              23.437277941
            ],
            [
              89.48999856,
              23.435267347000092
            ],
            [
              89.49153455300018,
              23.432966904000068
            ],
            [
              89.49225138100019,
              23.431321717000117
            ],
            [
              89.49251815500003,
              23.43035382800008
            ],
            [
              89.49285521000013,
              23.42649795900013
            ],
            [
              89.49285271000008,
              23.426128271000096
            ],
            [
              89.49218734500005,
              23.42445537100008
            ],
            [
              89.49186965700005,
              23.423656599000083
            ],
            [
              89.49169456600004,
              23.423047714000063
            ],
            [
              89.49156584500014,
              23.42260007800013
            ],
            [
              89.4908152220001,
              23.419989672000156
            ],
            [
              89.49078567600014,
              23.419823175000147
            ],
            [
              89.4909807840001,
              23.419468989000165
            ],
            [
              89.49099845300009,
              23.419286709000176
            ],
            [
              89.4913903900001,
              23.419035676000078
            ],
            [
              89.49398782600008,
              23.418086788000096
            ],
            [
              89.49726227100018,
              23.417681141
            ],
            [
              89.49847831000017,
              23.417528843000014
            ],
            [
              89.49905405600003,
              23.417456732000176
            ],
            [
              89.50076442500006,
              23.417323259000057
            ],
            [
              89.50148230100012,
              23.417167514000084
            ],
            [
              89.50307802200007,
              23.416673436000053
            ],
            [
              89.50351292000016,
              23.41606740700007
            ],
            [
              89.50390882100015,
              23.415174098000136
            ],
            [
              89.50392115500011,
              23.415037314000188
            ],
            [
              89.504321677,
              23.415114795000136
            ],
            [
              89.50432107600005,
              23.414735944000142
            ],
            [
              89.50432050900014,
              23.41437862400005
            ],
            [
              89.5040701740001,
              23.413677793999966
            ],
            [
              89.50400741800007,
              23.41349207900015
            ],
            [
              89.50394795000011,
              23.413316097000177
            ],
            [
              89.50302841100012,
              23.41260862300004
            ],
            [
              89.50167462500002,
              23.411614276000137
            ],
            [
              89.50157711000003,
              23.41154265100016
            ],
            [
              89.50059139200005,
              23.409486815000037
            ],
            [
              89.50047607400006,
              23.40916352500011
            ],
            [
              89.50006081100008,
              23.40800148900007
            ],
            [
              89.50006160200007,
              23.407790389000183
            ],
            [
              89.49980933800015,
              23.406978153000125
            ],
            [
              89.49977941200018,
              23.406419197000048
            ],
            [
              89.50001255000012,
              23.405454456000086
            ],
            [
              89.50055937100012,
              23.404865295000093
            ],
            [
              89.50085886500005,
              23.404542611000068
            ],
            [
              89.50251488900011,
              23.40347327300003
            ],
            [
              89.50379465300011,
              23.40264687400014
            ],
            [
              89.5044446230001,
              23.40158188400011
            ],
            [
              89.50448275100001,
              23.401241267000103
            ],
            [
              89.50459743900012,
              23.400983743000097
            ],
            [
              89.50485598000012,
              23.40000142800011
            ],
            [
              89.50488164000006,
              23.399615352000126
            ],
            [
              89.50479055,
              23.398964138000053
            ],
            [
              89.5047560980002,
              23.39871783700005
            ],
            [
              89.50416841200007,
              23.396154620000118
            ],
            [
              89.50413929500002,
              23.395294748000026
            ],
            [
              89.5041688280001,
              23.394662926000024
            ],
            [
              89.5043149600001,
              23.39402178200004
            ],
            [
              89.50447128700017,
              23.39338965600018
            ],
            [
              89.50451747300008,
              23.393202894000183
            ],
            [
              89.50464057500011,
              23.392307039
            ],
            [
              89.50483535000018,
              23.39160190700011
            ],
            [
              89.50488415000012,
              23.391425233000064
            ],
            [
              89.50504671700014,
              23.39114246600002
            ],
            [
              89.50525466800002,
              23.39090367199998
            ],
            [
              89.50576598300017,
              23.390510982000023
            ],
            [
              89.50578750500017,
              23.390525465000053
            ],
            [
              89.50688179400004,
              23.390310101000182
            ],
            [
              89.50784407300017,
              23.390589390000116
            ],
            [
              89.50841712800008,
              23.390733205
            ],
            [
              89.50881504900019,
              23.39083306700013
            ],
            [
              89.51007061600006,
              23.391169021
            ],
            [
              89.51091017300018,
              23.391539516000023
            ],
            [
              89.51132897200011,
              23.391612482000028
            ],
            [
              89.51149688800012,
              23.391641737000043
            ],
            [
              89.51265725400003,
              23.391763125000125
            ],
            [
              89.5140867510001,
              23.39192387100013
            ],
            [
              89.51435296500011,
              23.391953804000025
            ],
            [
              89.51444096,
              23.391936115000078
            ],
            [
              89.51504376100007,
              23.39152308000007
            ],
            [
              89.51508865900007,
              23.39149231600004
            ],
            [
              89.5156246840001,
              23.390573447000122
            ],
            [
              89.51582024800013,
              23.390121022000073
            ],
            [
              89.51664855200005,
              23.388204767000047
            ],
            [
              89.51707886000014,
              23.387521742000104
            ],
            [
              89.517991978,
              23.386072328000125
            ],
            [
              89.5183310490001,
              23.385564348000173
            ],
            [
              89.51878126600013,
              23.38495860100005
            ],
            [
              89.51915800100011,
              23.38464568200004
            ],
            [
              89.51927502500007,
              23.38454848300006
            ],
            [
              89.5215836970001,
              23.38219988900005
            ],
            [
              89.52345335500007,
              23.380107748000057
            ],
            [
              89.52408901700011,
              23.37893328500013
            ],
            [
              89.52418260300004,
              23.378319582000074
            ],
            [
              89.52404251400009,
              23.37774364100011
            ],
            [
              89.523547065,
              23.376620582000044
            ],
            [
              89.52339810500013,
              23.376282924000122
            ],
            [
              89.52302962800013,
              23.375971263000054
            ],
            [
              89.52061347300014,
              23.37392761500007
            ],
            [
              89.51784760200013,
              23.3709277640001
            ],
            [
              89.51668914300012,
              23.369670400000132
            ],
            [
              89.51658472600013,
              23.36946537300014
            ],
            [
              89.51579884600011,
              23.367922236000084
            ],
            [
              89.51539820600016,
              23.367135531000088
            ],
            [
              89.51477573300008,
              23.365433135000103
            ],
            [
              89.51418934900005,
              23.362693364000165
            ],
            [
              89.51406171900015,
              23.36029632800006
            ],
            [
              89.51425828999999,
              23.358958165000104
            ],
            [
              89.51430156200001,
              23.358745281000097
            ],
            [
              89.51451788200018,
              23.35768107500013
            ],
            [
              89.51470565500017,
              23.357386014000156
            ],
            [
              89.51586575500005,
              23.355563043000075
            ],
            [
              89.51716726600017,
              23.353980981000063
            ],
            [
              89.5172160460001,
              23.35389794700012
            ],
            [
              89.51725751200019,
              23.353754985000023
            ],
            [
              89.51779657400004,
              23.35289175500003
            ],
            [
              89.51810533800017,
              23.35221975899998
            ],
            [
              89.51830763800001,
              23.350973854000017
            ],
            [
              89.51835568000007,
              23.350677638000036
            ],
            [
              89.5184577230001,
              23.350048451000134
            ],
            [
              89.51847777300014,
              23.34983024700017
            ],
            [
              89.51851502800014,
              23.349424759000044
            ],
            [
              89.51867696900013,
              23.34766220100005
            ],
            [
              89.51861461900012,
              23.346758883000064
            ],
            [
              89.51847679600019,
              23.344762051000032
            ],
            [
              89.51835723100015,
              23.34386674700005
            ],
            [
              89.51833811100016,
              23.343723589000092
            ],
            [
              89.51820949100016,
              23.342760456000065
            ],
            [
              89.51778741800013,
              23.339599924000083
            ],
            [
              89.5174517710002,
              23.338582696000117
            ],
            [
              89.517252305,
              23.337978633000148
            ],
            [
              89.5172382900002,
              23.337936191000153
            ],
            [
              89.5166106580001,
              23.336766760000103
            ],
            [
              89.51622751300016,
              23.33632578900017
            ],
            [
              89.5160578330001,
              23.33613050000008
            ],
            [
              89.51537639100007,
              23.335710220000124
            ],
            [
              89.5144609460001,
              23.335643288000085
            ],
            [
              89.51407085300002,
              23.335750357000165
            ],
            [
              89.51409289300011,
              23.33583462500019
            ],
            [
              89.509941104,
              23.33763651200013
            ],
            [
              89.50635163000004,
              23.340477759000123
            ],
            [
              89.50502286800003,
              23.341798335000135
            ],
            [
              89.50350681100014,
              23.342514517999973
            ],
            [
              89.50261924700004,
              23.342494673000033
            ],
            [
              89.50222555800008,
              23.342485871
            ],
            [
              89.50140845600015,
              23.342104811000127
            ],
            [
              89.50061753000006,
              23.341514302000178
            ],
            [
              89.50037476400007,
              23.341175006000185
            ],
            [
              89.49925328300009,
              23.339607566000154
            ],
            [
              89.49920139300002,
              23.339535042000023
            ],
            [
              89.4988499590001,
              23.33884465700004
            ],
            [
              89.49844205400018,
              23.338043328000083
            ],
            [
              89.49761078700004,
              23.336410271000034
            ],
            [
              89.49686155200015,
              23.334938333000082
            ],
            [
              89.49640288900014,
              23.333077338000066
            ],
            [
              89.49718341700003,
              23.32976634500011
            ],
            [
              89.49734450300008,
              23.32940997000003
            ],
            [
              89.4979795380001,
              23.32800505700004
            ],
            [
              89.49803467900011,
              23.327883065000037
            ],
            [
              89.49877474900006,
              23.326245734000054
            ],
            [
              89.49892427600014,
              23.325932695000176
            ],
            [
              89.49917089299998,
              23.32541638800018
            ],
            [
              89.49967713400008,
              23.32435653600004
            ],
            [
              89.49987532000011,
              23.323788859000047
            ],
            [
              89.49990279300016,
              23.32314395500015
            ],
            [
              89.49993492300018,
              23.32238968700011
            ],
            [
              89.49988439300006,
              23.322320892
            ],
            [
              89.49964749300017,
              23.32199835200015
            ],
            [
              89.4981739280002,
              23.320978888000184
            ],
            [
              89.49765697400005,
              23.32062123600008
            ],
            [
              89.49591128400004,
              23.31941345600012
            ],
            [
              89.4910590840002,
              23.316258124
            ],
            [
              89.4883891570002,
              23.315094143000067
            ],
            [
              89.48690129699997,
              23.314287323000087
            ],
            [
              89.48618533600018,
              23.31389907100015
            ],
            [
              89.48611930100014,
              23.313844236000136
            ],
            [
              89.48451631600011,
              23.31251311000011
            ],
            [
              89.48366618200009,
              23.310689073000106
            ],
            [
              89.48356973100005,
              23.310590616000013
            ],
            [
              89.48305408900018,
              23.308845486000052
            ],
            [
              89.48277239300012,
              23.307589386000075
            ],
            [
              89.48274849,
              23.30748280100005
            ],
            [
              89.48261247100004,
              23.306876276000025
            ],
            [
              89.48222247100011,
              23.30513718000003
            ],
            [
              89.48212692100003,
              23.304791406
            ],
            [
              89.4819462170002,
              23.303916831000038
            ],
            [
              89.48191585400008,
              23.30376988000006
            ],
            [
              89.48123822800011,
              23.30074803800011
            ],
            [
              89.48116515900006,
              23.300422181000044
            ],
            [
              89.48102841000019,
              23.30010927100011
            ],
            [
              89.48010614800006,
              23.297998906000032
            ],
            [
              89.48009453999998,
              23.297925806000023
            ],
            [
              89.47961598000018,
              23.297296251999967
            ],
            [
              89.4801292790001,
              23.29725751500007
            ],
            [
              89.48032616800015,
              23.29723173200017
            ],
            [
              89.48199602400013,
              23.297013048000167
            ],
            [
              89.48336931600005,
              23.296864881999966
            ],
            [
              89.48430784400011,
              23.296711965000043
            ],
            [
              89.48474015300008,
              23.29675604600004
            ],
            [
              89.48480221900007,
              23.29674704900009
            ],
            [
              89.4854949760001,
              23.29681909300001
            ],
            [
              89.48605610000016,
              23.296877445000064
            ],
            [
              89.48706066800014,
              23.29699544700003
            ],
            [
              89.48731973300016,
              23.296949374000064
            ],
            [
              89.48795452500008,
              23.296836479000035
            ],
            [
              89.48837159800007,
              23.296762303000094
            ],
            [
              89.4889299140001,
              23.296655483000166
            ],
            [
              89.48940857000008,
              23.296630411000024
            ],
            [
              89.48997239000016,
              23.296630496000148
            ],
            [
              89.49048083000014,
              23.296630571000037
            ],
            [
              89.49117013700004,
              23.29645507600003
            ],
            [
              89.49231385100018,
              23.295859120999978
            ],
            [
              89.49266330100016,
              23.295677030000093
            ],
            [
              89.49307958900016,
              23.295567014000085
            ],
            [
              89.49332333600012,
              23.29563213900002
            ],
            [
              89.49349725100006,
              23.295775541000182
            ],
            [
              89.49357624200013,
              23.295840672000168
            ],
            [
              89.49369929000017,
              23.2959126720001
            ],
            [
              89.49374080200005,
              23.295916713000167
            ],
            [
              89.4938639790002,
              23.295992884000157
            ],
            [
              89.49429457800005,
              23.296035755000048
            ],
            [
              89.49469357600003,
              23.296092419000104
            ],
            [
              89.495081335,
              23.29623088000011
            ],
            [
              89.49524657000012,
              23.296162258000095
            ],
            [
              89.49547805800006,
              23.296122356000183
            ],
            [
              89.49618811800019,
              23.295998178000048
            ],
            [
              89.496265124,
              23.29603117100004
            ],
            [
              89.49623777300013,
              23.295662409000045
            ],
            [
              89.49645345500005,
              23.29453114900008
            ],
            [
              89.49663204300009,
              23.293691195
            ],
            [
              89.49765361000016,
              23.29256840400012
            ],
            [
              89.49767821200004,
              23.292529977000072
            ],
            [
              89.49834055900004,
              23.29149540900005
            ],
            [
              89.49858032700018,
              23.29062722200007
            ],
            [
              89.4988298340001,
              23.28938692200012
            ],
            [
              89.49930930400018,
              23.288720037000132
            ],
            [
              89.49961008500009,
              23.288301682000053
            ],
            [
              89.4999052190002,
              23.2880436370001
            ],
            [
              89.50080787500008,
              23.287254404000066
            ],
            [
              89.50115119400016,
              23.286574689000076
            ],
            [
              89.50143572300016,
              23.285771936000174
            ],
            [
              89.50150068700003,
              23.28565882300012
            ],
            [
              89.50164805300017,
              23.285654952000073
            ],
            [
              89.50186857500012,
              23.285817401000145
            ],
            [
              89.50229225600009,
              23.28621351200013
            ],
            [
              89.50342951000005,
              23.286767408000117
            ],
            [
              89.50346321800015,
              23.28678386200005
            ],
            [
              89.5050501840002,
              23.28755847800005
            ],
            [
              89.50621582999997,
              23.287988158000076
            ],
            [
              89.50657512200007,
              23.288120597999978
            ],
            [
              89.50759903800002,
              23.288386873000093
            ],
            [
              89.50804077100008,
              23.288389558000063
            ],
            [
              89.50865442100007,
              23.288338791
            ],
            [
              89.50950090000003,
              23.288301103000094
            ],
            [
              89.50959159900015,
              23.28828153400019
            ],
            [
              89.51002437000017,
              23.288188162000097
            ],
            [
              89.5100909890001,
              23.28813739900005
            ],
            [
              89.51015158800004,
              23.288091221000116
            ],
            [
              89.51127290900018,
              23.287211753
            ],
            [
              89.51150724500019,
              23.28680374600009
            ],
            [
              89.51176549800016,
              23.286289676000024
            ],
            [
              89.51220922100003,
              23.285945546000164
            ],
            [
              89.51253526300019,
              23.28594656000007
            ],
            [
              89.51293947900007,
              23.285988406000172
            ],
            [
              89.51318741500012,
              23.286014072000114
            ],
            [
              89.5133467340001,
              23.28596324800003
            ],
            [
              89.51418994000005,
              23.28569425300003
            ],
            [
              89.51426186500004,
              23.285157021000032
            ],
            [
              89.51496692400019,
              23.284958221000068
            ],
            [
              89.51512265600013,
              23.284904503000064
            ],
            [
              89.51517344400003,
              23.284886595000046
            ],
            [
              89.51633826000017,
              23.284214981000048
            ],
            [
              89.5163558120002,
              23.28397179100017
            ],
            [
              89.51636302900016,
              23.28387180599998
            ],
            [
              89.5158789570001,
              23.282449892000102
            ],
            [
              89.51622852200012,
              23.282365159000108
            ],
            [
              89.51655447500019,
              23.282388745000105
            ],
            [
              89.51660192600013,
              23.282194683000057
            ],
            [
              89.51753009700008,
              23.28100989300009
            ],
            [
              89.51763612700017,
              23.280874546000177
            ],
            [
              89.51771691599998,
              23.280771208000147
            ],
            [
              89.5183335690001,
              23.27998243100012
            ],
            [
              89.51946970700016,
              23.279012695
            ],
            [
              89.5196885960001,
              23.27882586100003
            ],
            [
              89.5199641420001,
              23.27873468700011
            ],
            [
              89.52104106200005,
              23.278378344000032
            ],
            [
              89.52390653900011,
              23.27821318200006
            ],
            [
              89.52396255800005,
              23.27826661
            ],
            [
              89.52398967400012,
              23.2782924710001
            ],
            [
              89.52404128100005,
              23.27967692100009
            ],
            [
              89.52415525100008,
              23.28036602700007
            ],
            [
              89.52462015200007,
              23.28058422500004
            ],
            [
              89.52480532400011,
              23.280928035000045
            ],
            [
              89.52475826900007,
              23.281099519
            ],
            [
              89.52473857500019,
              23.281160662000048
            ],
            [
              89.52449936000005,
              23.281659176000062
            ],
            [
              89.52443097500014,
              23.281801686000108
            ],
            [
              89.52437702300011,
              23.28191411800003
            ],
            [
              89.52442153700008,
              23.28218958499997
            ],
            [
              89.5245195510002,
              23.282394636000163
            ],
            [
              89.52487670300007,
              23.28256963100017
            ],
            [
              89.52506509000011,
              23.28277668400017
            ],
            [
              89.52514833600009,
              23.283053010000117
            ],
            [
              89.52521681200005,
              23.283400612000094
            ],
            [
              89.525468515,
              23.283656806000124
            ],
            [
              89.52553397100013,
              23.283710362000136
            ],
            [
              89.52568413600017,
              23.28383322999997
            ],
            [
              89.52627805900005,
              23.28431918500013
            ],
            [
              89.5270786710002,
              23.28495166199997
            ],
            [
              89.52712000000014,
              23.28506758400016
            ],
            [
              89.52711924200008,
              23.28528211000014
            ],
            [
              89.52691701800006,
              23.288023121000037
            ],
            [
              89.52712039500011,
              23.29018548400012
            ],
            [
              89.52714549700005,
              23.290711133
            ],
            [
              89.5270745430002,
              23.291248182000118
            ],
            [
              89.52717289200007,
              23.291506468000023
            ],
            [
              89.52765459000017,
              23.291954521000036
            ],
            [
              89.52768988800005,
              23.291984626000158
            ],
            [
              89.52774781600004,
              23.292053061000047
            ],
            [
              89.52838175500017,
              23.292801968000106
            ],
            [
              89.52855987800007,
              23.293012394000073
            ],
            [
              89.52902132300017,
              23.2934152630001
            ],
            [
              89.53092173800013,
              23.294255722000116
            ],
            [
              89.53254330800019,
              23.294836431000135
            ],
            [
              89.53257609600001,
              23.294920764000096
            ],
            [
              89.53338917800016,
              23.298105020000094
            ],
            [
              89.5345275700002,
              23.30090860000007
            ],
            [
              89.53470077600014,
              23.301105578000033
            ],
            [
              89.53520214500014,
              23.30167162300006
            ],
            [
              89.53661442200001,
              23.30191969000009
            ],
            [
              89.53698355,
              23.301996363000114
            ],
            [
              89.53719893900018,
              23.302041101999976
            ],
            [
              89.53763673400005,
              23.302171111000177
            ],
            [
              89.53796373900002,
              23.30226805700005
            ],
            [
              89.53802141000011,
              23.30228515500005
            ],
            [
              89.53872948000009,
              23.3030030970001
            ],
            [
              89.53947004700012,
              23.30378210100008
            ],
            [
              89.53982496500004,
              23.303841858000112
            ],
            [
              89.54020487200012,
              23.303757631000167
            ],
            [
              89.54023976400015,
              23.303794334000088
            ],
            [
              89.54059468100013,
              23.30385408899997
            ],
            [
              89.54364172600009,
              23.30317850200015
            ],
            [
              89.54367179700017,
              23.30319595900005
            ],
            [
              89.54395886700013,
              23.30424235100014
            ],
            [
              89.54392424100007,
              23.304897134000043
            ],
            [
              89.54392230100012,
              23.30546620300015
            ],
            [
              89.54405127500013,
              23.30555464800011
            ],
            [
              89.54418936100018,
              23.305570859000113
            ],
            [
              89.5445853720002,
              23.305619531000048
            ],
            [
              89.54593720100019,
              23.305703278000124
            ],
            [
              89.54650725800019,
              23.305773334000094
            ],
            [
              89.54736987800015,
              23.30596173100014
            ],
            [
              89.54818152700011,
              23.30613899100001
            ],
            [
              89.55049995200017,
              23.30641921300014
            ],
            [
              89.55170500700012,
              23.30656068100012
            ],
            [
              89.55260218900008,
              23.306666
            ],
            [
              89.55268221100016,
              23.306662840000115
            ],
            [
              89.55337763600005,
              23.306964468000047
            ],
            [
              89.553717485,
              23.306965435000052
            ],
            [
              89.55399132100013,
              23.306966215999978
            ],
            [
              89.5544637210001,
              23.306944357000077
            ],
            [
              89.55518679000016,
              23.30691089800007
            ],
            [
              89.55533005400014,
              23.30692432400008
            ],
            [
              89.55600858600013,
              23.307439918000114
            ],
            [
              89.55620642100007,
              23.30759024500003
            ],
            [
              89.55662874000012,
              23.308055644000092
            ],
            [
              89.55730700499998,
              23.308803090000083
            ],
            [
              89.55741449300018,
              23.308990715999983
            ],
            [
              89.55813790400009,
              23.310253458000034
            ],
            [
              89.55874853400019,
              23.310624906000044
            ],
            [
              89.55928426700018,
              23.310894457000018
            ],
            [
              89.55955177100009,
              23.311344288000043
            ],
            [
              89.55979012800003,
              23.31172187200019
            ],
            [
              89.5600122530002,
              23.31212774200003
            ],
            [
              89.55992755300014,
              23.313186680000058
            ],
            [
              89.55987503500006,
              23.31384325100015
            ],
            [
              89.55984207500018,
              23.315955642
            ],
            [
              89.56040014800004,
              23.318763591000106
            ],
            [
              89.56046155400014,
              23.319072545999973
            ],
            [
              89.56050896300007,
              23.319059503000062
            ],
            [
              89.56224671400008,
              23.318516639999984
            ],
            [
              89.56428295400013,
              23.31782856400008
            ],
            [
              89.56450176800013,
              23.31775462100012
            ],
            [
              89.56587107300004,
              23.317565233000096
            ],
            [
              89.56613823100008,
              23.317528281000023
            ],
            [
              89.56710828100006,
              23.31739410500012
            ],
            [
              89.56759035800007,
              23.317409088000034
            ],
            [
              89.56841211200003,
              23.317434623999986
            ],
            [
              89.56976863400018,
              23.317452423000134
            ],
            [
              89.57092125600013,
              23.317192328000033
            ],
            [
              89.57242000500008,
              23.316854113000034
            ],
            [
              89.57244835600005,
              23.316880375999972
            ],
            [
              89.57271030000004,
              23.317123024000182
            ],
            [
              89.57294771300008,
              23.31743851300007
            ],
            [
              89.573746019,
              23.31805270300009
            ],
            [
              89.57380646600012,
              23.318135818000144
            ],
            [
              89.57404208700018,
              23.318252244000178
            ],
            [
              89.57428070000014,
              23.318491890000075
            ],
            [
              89.57446727100017,
              23.318821020000144
            ],
            [
              89.57449019000006,
              23.318925140000033
            ],
            [
              89.57455017800004,
              23.31919766700014
            ],
            [
              89.57454420300019,
              23.319446578000054
            ],
            [
              89.57453650600013,
              23.31976715600007
            ],
            [
              89.57453526100011,
              23.319819022000104
            ],
            [
              89.57467926200007,
              23.32026906400006
            ],
            [
              89.57482411500007,
              23.320536800000184
            ],
            [
              89.57510794500007,
              23.320800467000083
            ],
            [
              89.5755732500001,
              23.320963053000185
            ],
            [
              89.57579010000012,
              23.32097881400017
            ],
            [
              89.5761268120001,
              23.321064431000025
            ],
            [
              89.5765442170001,
              23.32109869600015
            ],
            [
              89.57688942400011,
              23.32106925500011
            ],
            [
              89.57713849700008,
              23.3210276640001
            ],
            [
              89.57834291400013,
              23.320826545000102
            ],
            [
              89.58001746600013,
              23.32086654000011
            ],
            [
              89.58022960200009,
              23.320867110000165
            ],
            [
              89.580475482,
              23.32086777100011
            ],
            [
              89.58059303600015,
              23.320999372000074
            ],
            [
              89.58078731200004,
              23.320878585000116
            ],
            [
              89.58101604900008,
              23.320879199
            ],
            [
              89.58108357100014,
              23.32087938000012
            ],
            [
              89.58124532900001,
              23.320879813000033
            ],
            [
              89.58141315800015,
              23.321067695000124
            ],
            [
              89.58143468400016,
              23.321148204000167
            ],
            [
              89.58147962300006,
              23.321316274000026
            ],
            [
              89.58184987700014,
              23.321380493999982
            ],
            [
              89.58215336400013,
              23.321193869000126
            ],
            [
              89.5823182490002,
              23.321085513000185
            ],
            [
              89.58238950900005,
              23.32103868300004
            ],
            [
              89.58279358200014,
              23.321039757000165
            ],
            [
              89.58323627200019,
              23.321126622000122
            ],
            [
              89.58413191300014,
              23.321302360000118
            ],
            [
              89.58424028300004,
              23.321323623000183
            ],
            [
              89.5848315930001,
              23.321365839000123
            ],
            [
              89.5850157110001,
              23.321230832000026
            ],
            [
              89.58511225300009,
              23.320951069000103
            ],
            [
              89.58514614800009,
              23.32076372600011
            ],
            [
              89.58533167000019,
              23.320570010000097
            ],
            [
              89.58584979100016,
              23.320361361000153
            ],
            [
              89.5862248250001,
              23.32026299000006
            ],
            [
              89.58692928400006,
              23.32021854600015
            ],
            [
              89.58756476400004,
              23.320178451000118
            ],
            [
              89.58793455900019,
              23.32032184999997
            ],
            [
              89.5881632940002,
              23.320410547000108
            ],
            [
              89.58839148800007,
              23.320499035000182
            ],
            [
              89.58879162700003,
              23.320287815000086
            ],
            [
              89.58945859800008,
              23.320276014000115
            ],
            [
              89.58969003000004,
              23.32015919100013
            ],
            [
              89.59020015500005,
              23.318667834999985
            ],
            [
              89.59183505100015,
              23.31828934100014
            ],
            [
              89.59223538600014,
              23.3181966570001
            ],
            [
              89.59290968600016,
              23.318191292000108
            ],
            [
              89.59296594000017,
              23.318191124000066
            ],
            [
              89.59329750100017,
              23.318620756000087
            ],
            [
              89.59403153500017,
              23.318661722000115
            ],
            [
              89.59611670200013,
              23.318778074000136
            ],
            [
              89.5962721160002,
              23.318786745000068
            ],
            [
              89.59631039200013,
              23.31878888000017
            ],
            [
              89.6001120300001,
              23.3191080040001
            ],
            [
              89.60070509400015,
              23.31910511300009
            ],
            [
              89.60088188100013,
              23.319119950000186
            ],
            [
              89.60216621000006,
              23.319113678
            ],
            [
              89.60335973100013,
              23.319107841000175
            ],
            [
              89.60353224300019,
              23.319106996000187
            ],
            [
              89.60530035000005,
              23.319433574000016
            ],
            [
              89.60552243300003,
              23.31934735100009
            ],
            [
              89.60573748200017,
              23.319263859000102
            ],
            [
              89.60590591400006,
              23.319198465
            ],
            [
              89.60656781500018,
              23.318413693000082
            ],
            [
              89.60786712400017,
              23.316873152000085
            ],
            [
              89.60753571900017,
              23.316083060000096
            ],
            [
              89.6072998910002,
              23.315627050000046
            ],
            [
              89.60698832300017,
              23.315024580000113
            ],
            [
              89.60547031000004,
              23.312089170000036
            ],
            [
              89.6053711190001,
              23.31189735800018
            ],
            [
              89.60540323300012,
              23.311771896000096
            ],
            [
              89.60809184400006,
              23.310213570000087
            ],
            [
              89.60861116000007,
              23.309912564000058
            ],
            [
              89.61082931200008,
              23.309155843999974
            ],
            [
              89.61101685100004,
              23.309090824000123
            ],
            [
              89.61134537300006,
              23.308979088000115
            ],
            [
              89.61267131800008,
              23.308528102000082
            ],
            [
              89.61381365400013,
              23.30813798800017
            ],
            [
              89.61435022800009,
              23.30796316500016
            ],
            [
              89.6162494290001,
              23.307841363000023
            ],
            [
              89.61659581499998,
              23.307880381000075
            ],
            [
              89.61701922700001,
              23.307853222
            ],
            [
              89.61811161600008,
              23.307976261000192
            ],
            [
              89.61864856400013,
              23.3079578710001
            ],
            [
              89.61911522999998,
              23.30796578000013
            ],
            [
              89.61928347600008,
              23.307974338000122
            ],
            [
              89.61941836500012,
              23.307969718000095
            ],
            [
              89.61988503200013,
              23.307977624000046
            ],
            [
              89.62052835600002,
              23.30801034400008
            ],
            [
              89.62040462100003,
              23.308188898000083
            ],
            [
              89.61948272200004,
              23.309523542000022
            ],
            [
              89.61870288600016,
              23.31097820800011
            ],
            [
              89.61839045700015,
              23.311645889000033
            ],
            [
              89.61823490100011,
              23.312284588000068
            ],
            [
              89.61820105300012,
              23.312363547000075
            ],
            [
              89.61766486900018,
              23.313360378000084
            ],
            [
              89.6169762470002,
              23.31443362100015
            ],
            [
              89.61649528700019,
              23.315351545000055
            ],
            [
              89.61639095600003,
              23.31555228600007
            ],
            [
              89.61609205400015,
              23.3161273930001
            ],
            [
              89.61600048100013,
              23.31629879200017
            ],
            [
              89.61572790900016,
              23.316808487000173
            ],
            [
              89.61463539400006,
              23.31844528400012
            ],
            [
              89.61290409300005,
              23.322126324000067
            ],
            [
              89.61232264500012,
              23.323362530000054
            ],
            [
              89.61156717500012,
              23.325422427000035
            ],
            [
              89.61082290000007,
              23.3267878960001
            ],
            [
              89.61067769100009,
              23.327054297000075
            ],
            [
              89.60994457100014,
              23.32839926100013
            ],
            [
              89.60847166400009,
              23.330337666000048
            ],
            [
              89.60650789500005,
              23.332861960000173
            ],
            [
              89.60477741200009,
              23.334598794000158
            ],
            [
              89.60497383,
              23.33518633700004
            ],
            [
              89.60520352300011,
              23.335873412000126
            ],
            [
              89.60539769700017,
              23.33637071300012
            ],
            [
              89.60571404900008,
              23.336486680000064
            ],
            [
              89.60585954200013,
              23.337320333000036
            ],
            [
              89.60619925300006,
              23.338224478000143
            ],
            [
              89.60675780300011,
              23.339558235000084
            ],
            [
              89.60717142300007,
              23.34028190600003
            ],
            [
              89.60775584100008,
              23.34114149800007
            ],
            [
              89.6093177840001,
              23.342251933
            ],
            [
              89.61119690100003,
              23.343634128000076
            ],
            [
              89.61210299200013,
              23.344162553
            ],
            [
              89.6120233740001,
              23.34420751700003
            ],
            [
              89.61197437600015,
              23.34423675200003
            ],
            [
              89.6115859470001,
              23.34440289500003
            ],
            [
              89.61036213300008,
              23.344738594000148
            ],
            [
              89.60952974700012,
              23.345030084000143
            ],
            [
              89.60828172900005,
              23.34527537600019
            ],
            [
              89.6080856550002,
              23.34541038600014
            ],
            [
              89.60732058700012,
              23.347757022000167
            ],
            [
              89.60717209600017,
              23.348118273000125
            ],
            [
              89.60715831300018,
              23.34815180400011
            ],
            [
              89.6056947410001,
              23.351704829000028
            ],
            [
              89.605587818,
              23.351966624000113
            ],
            [
              89.60456145000018,
              23.354479587000128
            ],
            [
              89.60378665800005,
              23.355435104000037
            ],
            [
              89.60379953,
              23.355527726000048
            ],
            [
              89.60386807700013,
              23.3557941520001
            ],
            [
              89.60437439300006,
              23.357762145000095
            ],
            [
              89.60452100700013,
              23.358332002999987
            ],
            [
              89.60452843000013,
              23.358360810000192
            ],
            [
              89.60471839600001,
              23.35909803800007
            ],
            [
              89.60491181600003,
              23.360068590000083
            ],
            [
              89.604927771,
              23.360148642000127
            ],
            [
              89.60534724600018,
              23.362253604000045
            ],
            [
              89.60535499900004,
              23.362292514000046
            ],
            [
              89.60553784700005,
              23.363210071000026
            ],
            [
              89.60563029500008,
              23.36369568000015
            ],
            [
              89.60601957900013,
              23.365740492000043
            ],
            [
              89.60640561100007,
              23.367548038000052
            ],
            [
              89.60635055800009,
              23.369625461000055
            ],
            [
              89.60627682500012,
              23.370158215000117
            ],
            [
              89.60615060100014,
              23.371070219000046
            ],
            [
              89.60555951400016,
              23.372423660000038
            ],
            [
              89.60482379500013,
              23.37305410500005
            ],
            [
              89.60398954300001,
              23.37391012000012
            ],
            [
              89.60312593000009,
              23.374702995000064
            ],
            [
              89.6030605380002,
              23.374763032000146
            ],
            [
              89.60251778700012,
              23.37526131599998
            ],
            [
              89.60114493300006,
              23.3762514390001
            ],
            [
              89.60058843500019,
              23.37687836700013
            ],
            [
              89.60006492800011,
              23.37746811100004
            ],
            [
              89.5989342150001,
              23.379271793999976
            ],
            [
              89.59853994300016,
              23.38022121000006
            ],
            [
              89.59853900300004,
              23.380533122000088
            ],
            [
              89.59853831700019,
              23.38076120000011
            ],
            [
              89.59922084200008,
              23.381575905000147
            ],
            [
              89.60068580400014,
              23.38252810900002
            ],
            [
              89.60273858300008,
              23.383255960000156
            ],
            [
              89.60441463000012,
              23.38338568200004
            ],
            [
              89.60454849200016,
              23.383396041000083
            ],
            [
              89.60728842600003,
              23.383402944000068
            ],
            [
              89.6101273380001,
              23.38331191400016
            ],
            [
              89.61036310100013,
              23.383304351000163
            ],
            [
              89.610685553,
              23.383294008000064
            ],
            [
              89.61071733900013,
              23.383300864000148
            ],
            [
              89.61091914100018,
              23.383308145000115
            ],
            [
              89.61282528400005,
              23.38338061500008
            ],
            [
              89.61253730600004,
              23.384195118000036
            ],
            [
              89.61238813800009,
              23.384666983999978
            ],
            [
              89.61228806300011,
              23.384983550000072
            ],
            [
              89.61220489900012,
              23.385246623000114
            ],
            [
              89.61213236600008,
              23.385476782000012
            ],
            [
              89.61174769900015,
              23.386514606000105
            ],
            [
              89.61158926299998,
              23.387047941000105
            ],
            [
              89.6110558950001,
              23.38884336600006
            ],
            [
              89.61088665200003,
              23.389261333000093
            ],
            [
              89.6106320400001,
              23.389890123000043
            ],
            [
              89.61031989100013,
              23.390731453000058
            ],
            [
              89.61026707900004,
              23.390873794000186
            ],
            [
              89.61008495100003,
              23.391453699000124
            ],
            [
              89.61004170400014,
              23.39159169600009
            ],
            [
              89.60980279700016,
              23.39235402200012
            ],
            [
              89.60954639700009,
              23.39302181400012
            ],
            [
              89.60929079100009,
              23.394148022000024
            ],
            [
              89.60916102300018,
              23.39459934000007
            ],
            [
              89.60914748800019,
              23.394646211000122
            ],
            [
              89.60901179300009,
              23.39511609900012
            ],
            [
              89.60849780300003,
              23.39684911700016
            ],
            [
              89.6084400970002,
              23.39706717900009
            ],
            [
              89.60822070000006,
              23.39789623400003
            ],
            [
              89.607706818,
              23.399586347000138
            ],
            [
              89.60764381300004,
              23.399793941999974
            ],
            [
              89.60762775700016,
              23.399845841000115
            ],
            [
              89.60758482900013,
              23.399950715000102
            ],
            [
              89.60725747400016,
              23.400750454000104
            ],
            [
              89.60720721700017,
              23.400872960000072
            ],
            [
              89.60703628900006,
              23.401289610000106
            ],
            [
              89.6066407620001,
              23.402661606000095
            ],
            [
              89.6063641660001,
              23.40352806200002
            ],
            [
              89.60604713300012,
              23.40482799400013
            ],
            [
              89.60573052400008,
              23.40598339800016
            ],
            [
              89.60533464600002,
              23.407463784000072
            ],
            [
              89.60493843800009,
              23.4090525580001
            ],
            [
              89.6048065970001,
              23.40967548900005
            ],
            [
              89.60478094500013,
              23.409796685000117
            ],
            [
              89.60458541600002,
              23.41072048100017
            ],
            [
              89.60454136100003,
              23.410930383000107
            ],
            [
              89.60406672200008,
              23.412555090000183
            ],
            [
              89.6036702670001,
              23.414216122000084
            ],
            [
              89.60335350700018,
              23.41540765400009
            ],
            [
              89.6030904970001,
              23.416509545000054
            ],
            [
              89.60295703400016,
              23.417068685000118
            ],
            [
              89.602832165,
              23.418271511
            ],
            [
              89.60279578700005,
              23.418621918000156
            ],
            [
              89.60255655400005,
              23.420066560000123
            ],
            [
              89.60247403900007,
              23.42147547000019
            ],
            [
              89.6024309190002,
              23.421881838000047
            ],
            [
              89.60223231200001,
              23.423751124000148
            ],
            [
              89.6021463030001,
              23.42479193500003
            ],
            [
              89.60214010000004,
              23.42486691700003
            ],
            [
              89.60202919500017,
              23.42620753
            ],
            [
              89.60188365600015,
              23.42914733700013
            ],
            [
              89.60188318200011,
              23.42920379100002
            ],
            [
              89.60185537400008,
              23.43195195100003
            ],
            [
              89.60185115400009,
              23.433361057000127
            ],
            [
              89.60164681600008,
              23.43621489800006
            ],
            [
              89.60152501100004,
              23.437659837000183
            ],
            [
              89.60124606100004,
              23.43896797600013
            ],
            [
              89.60123776800015,
              23.43904611500011
            ],
            [
              89.60116641300004,
              23.43971840000006
            ],
            [
              89.601047198,
              23.440296190000083
            ],
            [
              89.60084988700015,
              23.440801521000026
            ],
            [
              89.6007796880001,
              23.441492767000057
            ],
            [
              89.60076918400011,
              23.44159620199997
            ],
            [
              89.6008440280001,
              23.44275258900018
            ],
            [
              89.60091434000003,
              23.443059485000163
            ],
            [
              89.6010759470002,
              23.443764855000097
            ],
            [
              89.60134767900013,
              23.444560435000028
            ],
            [
              89.60138245600007,
              23.444899255000166
            ],
            [
              89.60139726200003,
              23.445043375000182
            ],
            [
              89.60149987600016,
              23.44604220100007
            ],
            [
              89.60161443000004,
              23.447018032000074
            ],
            [
              89.60190134800018,
              23.44775267900019
            ],
            [
              89.60192533500015,
              23.447813713000073
            ],
            [
              89.60225073400011,
              23.448600772000077
            ],
            [
              89.60250853000014,
              23.449224309999977
            ],
            [
              89.60297468700008,
              23.450490091000177
            ],
            [
              89.60315774500015,
              23.450830213000074
            ],
            [
              89.60336414600005,
              23.45121370100003
            ],
            [
              89.60392811100007,
              23.452208739000127
            ],
            [
              89.60414329200006,
              23.452588661999982
            ],
            [
              89.60488839300012,
              23.45443721800018
            ],
            [
              89.60530956800011,
              23.455482105000044
            ],
            [
              89.60616322800018,
              23.45815796700009
            ],
            [
              89.60625733100011,
              23.45830724400014
            ],
            [
              89.60668733800003,
              23.459548557000062
            ],
            [
              89.60677094800002,
              23.459789913000122
            ],
            [
              89.60681372800019,
              23.45991196300014
            ],
            [
              89.60715005800012,
              23.460924481000063
            ],
            [
              89.60711810100008,
              23.461372422000068
            ],
            [
              89.60711031500011,
              23.461481565000156
            ],
            [
              89.6070798290001,
              23.46190887800003
            ],
            [
              89.60695435800011,
              23.463672208000105
            ],
            [
              89.606863,
              23.465146118
            ],
            [
              89.60682196600015,
              23.465808122000112
            ],
            [
              89.60678357100011,
              23.465998176000028
            ],
            [
              89.60677802200007,
              23.466025642000147
            ],
            [
              89.60658440100013,
              23.466984042000036
            ],
            [
              89.6063369090001,
              23.467997347000107
            ],
            [
              89.60640324200017,
              23.46832946800015
            ],
            [
              89.60640281400015,
              23.468473990000064
            ],
            [
              89.6063988630001,
              23.469806312000117
            ],
            [
              89.60592291900014,
              23.47211298000002
            ],
            [
              89.60586110500014,
              23.472259668999982
            ],
            [
              89.60535567900007,
              23.47345907100015
            ],
            [
              89.60505693400017,
              23.474167998999974
            ],
            [
              89.60461879700006,
              23.47455755800013
            ],
            [
              89.60254834100016,
              23.476397232000124
            ],
            [
              89.60204726200016,
              23.47686791000018
            ],
            [
              89.60175475700004,
              23.477142667000066
            ],
            [
              89.59909836900016,
              23.4796334130001
            ],
            [
              89.59770222700013,
              23.480652033000183
            ],
            [
              89.59525845400015,
              23.482434932
            ],
            [
              89.5939516310001,
              23.483693128000027
            ],
            [
              89.59310409200009,
              23.484509111000136
            ],
            [
              89.59262078700016,
              23.484974610000165
            ],
            [
              89.59208229000006,
              23.485493263000023
            ],
            [
              89.589175,
              23.487657999000078
            ],
            [
              89.58875169100008,
              23.487973031000024
            ],
            [
              89.58863391600005,
              23.48805741000018
            ],
            [
              89.58806709000004,
              23.48846350700012
            ],
            [
              89.58804378100012,
              23.48847925300015
            ],
            [
              89.58553844300013,
              23.490272379000032
            ],
            [
              89.58299512700006,
              23.491857614000025
            ],
            [
              89.58087677000003,
              23.493179737000048
            ],
            [
              89.57640017200015,
              23.49576453900005
            ],
            [
              89.57590221700008,
              23.496052230000146
            ]
          ]
        ]
      }
    }
  ]
}