{
  "type": "FeatureCollection",
  "features": [
    {
      "type": "Feature",
      "properties": {
        "adm3_name": "Bheramara",
        "adm3_name1": null,
        "adm3_name2": null,
        "adm3_name3": null,
        "adm3_pcode": "BD40500015",
        "adm2_name": "Kushtia",
        "adm2_name1": null,
        "adm2_name2": null,
        "adm2_name3": null,
        "adm2_pcode": "BD4050",
        "adm1_name": "Khulna",
        "adm1_name1": null,
        "adm1_name2": null,
        "adm1_name3": null,
        "adm1_pcode": "BD40",
        "adm0_name": "Bangladesh",
        "adm0_name1": null,
        "adm0_name2": null,
        "adm0_name3": null,
        "adm0_pcode": "BD",
        "valid_on": "2023-05-21",
        "valid_to": null,
        "area_sqkm": 151.15622724,
        "version": "v03",
        "lang": "en",
        "lang1": null,
        "lang2": null,
        "lang3": null,
        "adm3_ref_name": null,
        "center_lat": 24.0562809,
        "center_lon": 88.98115536
      },
      "geometry": {
        "type": "Polygon",
        "coordinates": [
          [
            [
              88.97449517100017,
              24.121561873000076
            ],
            [
              88.96978131700007,
              24.121970420000025
            ],
            [
              88.96737692300007,
              24.12213029100002
            ],
            [
              88.96721195800018,
              24.122145385000067
            ],
            [
              88.96717012400012,
              24.122149213
            ],
            [
              88.96275928000017,
              24.12253927000006
            ],
            [
              88.96122583100004,
              24.122730523000143
            ],
            [
              88.96117990000005,
              24.122736251000106
            ],
            [
              88.95939121000004,
              24.12295888500006
            ],
            [
              88.95458277100016,
              24.123190210000075
            ],
            [
              88.95198369100007,
              24.12361492300016
            ],
            [
              88.95164098700013,
              24.123720135000156
            ],
            [
              88.95159526300006,
              24.12373417500004
            ],
            [
              88.94832169600005,
              24.12473670200012
            ],
            [
              88.94695054800007,
              24.12517775700013
            ],
            [
              88.94691298999999,
              24.125189838000153
            ],
            [
              88.94591187900005,
              24.125512569000136
            ],
            [
              88.94373585300013,
              24.126833159000114
            ],
            [
              88.93972835000011,
              24.129265082000188
            ],
            [
              88.93670249800005,
              24.131227704000025
            ],
            [
              88.93668275500005,
              24.13120931900005
            ],
            [
              88.93485582700009,
              24.12960711500017
            ],
            [
              88.93340777499998,
              24.12800753600004
            ],
            [
              88.93284506500015,
              24.127632685000037
            ],
            [
              88.93190069300016,
              24.1270035820001
            ],
            [
              88.93028746300013,
              24.125750515999982
            ],
            [
              88.9295304420001,
              24.124744374000045
            ],
            [
              88.92846441500006,
              24.12370122699997
            ],
            [
              88.92652407400004,
              24.12274385300003
            ],
            [
              88.92485185400005,
              24.122086369000158
            ],
            [
              88.92378984800013,
              24.121844138000085
            ],
            [
              88.92413776000012,
              24.12139944200004
            ],
            [
              88.92501024600017,
              24.120538599000156
            ],
            [
              88.92524699800003,
              24.11991486100004
            ],
            [
              88.9253494960002,
              24.119019251000054
            ],
            [
              88.92557445200015,
              24.118334469000047
            ],
            [
              88.92575268400014,
              24.117833766000103
            ],
            [
              88.92581816100017,
              24.117649821000043
            ],
            [
              88.92614849500012,
              24.117049322000184
            ],
            [
              88.92619087600019,
              24.116910529000165
            ],
            [
              88.92643743200011,
              24.11610308700017
            ],
            [
              88.92657772200005,
              24.115614138000126
            ],
            [
              88.92649448700013,
              24.114755600000137
            ],
            [
              88.92647867199997,
              24.11464034700009
            ],
            [
              88.92641013700012,
              24.114140893000183
            ],
            [
              88.92579438900015,
              24.112393563000182
            ],
            [
              88.92552845300014,
              24.111542772000064
            ],
            [
              88.92604906100007,
              24.110467216000018
            ],
            [
              88.92652911900018,
              24.10987179300008
            ],
            [
              88.9265714710001,
              24.10981618900007
            ],
            [
              88.92657041000012,
              24.109003033000135
            ],
            [
              88.92656976600006,
              24.108508926000184
            ],
            [
              88.92603683800002,
              24.106750890000058
            ],
            [
              88.9258732890001,
              24.106185626000183
            ],
            [
              88.9257651900001,
              24.105812003999972
            ],
            [
              88.92576858100011,
              24.105405629000188
            ],
            [
              88.92550091800013,
              24.104810001000146
            ],
            [
              88.92544288200008,
              24.104680850000022
            ],
            [
              88.92535111700005,
              24.10437146800018
            ],
            [
              88.92524491600005,
              24.10401341500011
            ],
            [
              88.92507394600011,
              24.103206186000023
            ],
            [
              88.92517782700008,
              24.102547647000165
            ],
            [
              88.92523663000009,
              24.101764609000043
            ],
            [
              88.92525461400015,
              24.10152541500014
            ],
            [
              88.92530129300019,
              24.10076329500015
            ],
            [
              88.92531146700014,
              24.100597173999972
            ],
            [
              88.92528166800008,
              24.100272671000027
            ],
            [
              88.92526954800013,
              24.100138763000132
            ],
            [
              88.92524200600019,
              24.10014711500014
            ],
            [
              88.92523831900013,
              24.100106927000184
            ],
            [
              88.9251593140001,
              24.100033284000062
            ],
            [
              88.92513012700005,
              24.099996985000132
            ],
            [
              88.9251134660002,
              24.099928313000134
            ],
            [
              88.9251038920001,
              24.099827886000128
            ],
            [
              88.92509463700014,
              24.099689230000024
            ],
            [
              88.92509580200016,
              24.09954974900012
            ],
            [
              88.92509740500003,
              24.09934689800008
            ],
            [
              88.92500982300004,
              24.098918063000042
            ],
            [
              88.9248868580001,
              24.098056977000056
            ],
            [
              88.924823742,
              24.097529711000107
            ],
            [
              88.9248138580001,
              24.097447139000053
            ],
            [
              88.92468840300012,
              24.096884723000016
            ],
            [
              88.92453400200003,
              24.096298725000054
            ],
            [
              88.92449917500011,
              24.096166540000013
            ],
            [
              88.92446392300019,
              24.095712287000026
            ],
            [
              88.9244383750002,
              24.09503109800005
            ],
            [
              88.92439230400004,
              24.094313922000026
            ],
            [
              88.9243654920001,
              24.09378682400012
            ],
            [
              88.92439673200005,
              24.093272198000022
            ],
            [
              88.92440493600003,
              24.09313741700015
            ],
            [
              88.92441372800005,
              24.092992970000182
            ],
            [
              88.92440844200013,
              24.092380926000146
            ],
            [
              88.9243277870001,
              24.09206494400013
            ],
            [
              88.92429930000014,
              24.091740144000084
            ],
            [
              88.92432714300008,
              24.091203032000067
            ],
            [
              88.92436126100006,
              24.09054611800002
            ],
            [
              88.92433487200009,
              24.089972242000158
            ],
            [
              88.92436085700018,
              24.089350697000157
            ],
            [
              88.92440656900004,
              24.088863560000107
            ],
            [
              88.92450616800005,
              24.088156966999975
            ],
            [
              88.92456117300009,
              24.08780370600016
            ],
            [
              88.92456347600017,
              24.087527736000084
            ],
            [
              88.92452239400012,
              24.087349456000027
            ],
            [
              88.92447346000017,
              24.08708623700005
            ],
            [
              88.92445527000007,
              24.08677069500004
            ],
            [
              88.92441769700008,
              24.086282971000173
            ],
            [
              88.92438979200017,
              24.08589168500015
            ],
            [
              88.92443361000005,
              24.08562357800008
            ],
            [
              88.92458073000017,
              24.084692322000137
            ],
            [
              88.9246081440001,
              24.084518796000168
            ],
            [
              88.92467540600018,
              24.084131497000158
            ],
            [
              88.92468222700012,
              24.08400458600005
            ],
            [
              88.92470864600011,
              24.083977269
            ],
            [
              88.92471302300004,
              24.083895841000015
            ],
            [
              88.9246559130001,
              24.08357325600008
            ],
            [
              88.92464376700013,
              24.083157397000036
            ],
            [
              88.92456862000006,
              24.08280561000015
            ],
            [
              88.92453221300013,
              24.082489939000027
            ],
            [
              88.92452655900001,
              24.082231832000105
            ],
            [
              88.9245293100002,
              24.081902099000104
            ],
            [
              88.92447758700007,
              24.081550478000054
            ],
            [
              88.92446538100012,
              24.08114178600016
            ],
            [
              88.92446001200011,
              24.081083997000064
            ],
            [
              88.92443672200017,
              24.080833338000048
            ],
            [
              88.92442314100003,
              24.08058951200013
            ],
            [
              88.92448377400012,
              24.079873085000088
            ],
            [
              88.92445445800018,
              24.079643487000055
            ],
            [
              88.92441709500002,
              24.079442505000145
            ],
            [
              88.924395227,
              24.079255970000077
            ],
            [
              88.92438933000017,
              24.079199409000125
            ],
            [
              88.92437353900016,
              24.079047930000115
            ],
            [
              88.92432086100007,
              24.07881099800005
            ],
            [
              88.92428415700005,
              24.07853116700005
            ],
            [
              88.924247315,
              24.078368712000042
            ],
            [
              88.92422391100007,
              24.078265508000186
            ],
            [
              88.92411963100011,
              24.077662618000033
            ],
            [
              88.92408276300011,
              24.077423196000154
            ],
            [
              88.92406638200009,
              24.077351895
            ],
            [
              88.92402232300009,
              24.077160136000032
            ],
            [
              88.9240086420001,
              24.076942332000158
            ],
            [
              88.92401780600011,
              24.076765835
            ],
            [
              88.92396560800006,
              24.076471558000094
            ],
            [
              88.92388247900004,
              24.076141221
            ],
            [
              88.92381568400009,
              24.075724976000117
            ],
            [
              88.92372480900013,
              24.07538741600007
            ],
            [
              88.92335135300016,
              24.074295171000074
            ],
            [
              88.92324349000017,
              24.074122367000143
            ],
            [
              88.92311292300013,
              24.073863381000024
            ],
            [
              88.92295899499999,
              24.07359706200009
            ],
            [
              88.92286001800011,
              24.07329528600019
            ],
            [
              88.92278062600008,
              24.073023464000073
            ],
            [
              88.92274988400004,
              24.07291821000007
            ],
            [
              88.92262798400009,
              24.07257121300006
            ],
            [
              88.92275284400012,
              24.07241237900007
            ],
            [
              88.92282743900012,
              24.072317488000124
            ],
            [
              88.92174537700015,
              24.07060658600011
            ],
            [
              88.92161973600014,
              24.070407927000133
            ],
            [
              88.92136716300013,
              24.06999297300007
            ],
            [
              88.92063856700003,
              24.06879572400004
            ],
            [
              88.92040585600006,
              24.068508543000178
            ],
            [
              88.91953453300016,
              24.06743326100019
            ],
            [
              88.91923362000006,
              24.066990530000055
            ],
            [
              88.91857585500009,
              24.066022753000027
            ],
            [
              88.91836264700004,
              24.06570905400008
            ],
            [
              88.91761020200005,
              24.06460194700003
            ],
            [
              88.91738505800004,
              24.064291038000192
            ],
            [
              88.91711509600009,
              24.063917981000145
            ],
            [
              88.91699584600019,
              24.063753190000057
            ],
            [
              88.91661764200018,
              24.063189399000066
            ],
            [
              88.91619081599998,
              24.06255312200011
            ],
            [
              88.91592705700015,
              24.06193713900018
            ],
            [
              88.91562397100012,
              24.06142924900007
            ],
            [
              88.91538783900012,
              24.06118373400011
            ],
            [
              88.91515030200009,
              24.060922404000166
            ],
            [
              88.91499904200015,
              24.06059846900007
            ],
            [
              88.91485184300018,
              24.060356155000136
            ],
            [
              88.91476349400006,
              24.060210719000168
            ],
            [
              88.91487236000017,
              24.05997238500015
            ],
            [
              88.91525878300007,
              24.059852212000067
            ],
            [
              88.9152952770001,
              24.059507801999985
            ],
            [
              88.91493538500015,
              24.059040915000026
            ],
            [
              88.9143853180002,
              24.058327304000045
            ],
            [
              88.91433968400014,
              24.058097384000177
            ],
            [
              88.91421165300011,
              24.05745230900004
            ],
            [
              88.91422350300002,
              24.057305754000083
            ],
            [
              88.91425179200013,
              24.056955882000068
            ],
            [
              88.91426518200018,
              24.056788902000108
            ],
            [
              88.91401298000011,
              24.05611655000007
            ],
            [
              88.91366901700019,
              24.055538375000083
            ],
            [
              88.91337237200003,
              24.055254047
            ],
            [
              88.91283986800005,
              24.05527735800007
            ],
            [
              88.91247707500014,
              24.055220593000115
            ],
            [
              88.91223805200013,
              24.054954734000034
            ],
            [
              88.91204421200013,
              24.054689197000187
            ],
            [
              88.91208465500017,
              24.054339527000025
            ],
            [
              88.91199960100005,
              24.053914223
            ],
            [
              88.91185478600005,
              24.05338962600007
            ],
            [
              88.91182459100014,
              24.052736648
            ],
            [
              88.91181969400003,
              24.052630760000113
            ],
            [
              88.91191579500003,
              24.05198571700015
            ],
            [
              88.91185257700016,
              24.051391470999988
            ],
            [
              88.91159599200017,
              24.050877131000107
            ],
            [
              88.9112451100001,
              24.050989044
            ],
            [
              88.91078829000008,
              24.051456279000035
            ],
            [
              88.91043324600003,
              24.051620700000058
            ],
            [
              88.91018877100015,
              24.051747652000074
            ],
            [
              88.9099039780001,
              24.051844967000022
            ],
            [
              88.90956928400016,
              24.05166421900003
            ],
            [
              88.90921603100014,
              24.05095275800005
            ],
            [
              88.90914477000018,
              24.05042427600017
            ],
            [
              88.90973059700008,
              24.050125506000143
            ],
            [
              88.90987133900018,
              24.050054258000102
            ],
            [
              88.91015448700017,
              24.049831057000063
            ],
            [
              88.91017134700013,
              24.048918473000015
            ],
            [
              88.91034775600008,
              24.048390547000054
            ],
            [
              88.91112904400006,
              24.04781231800007
            ],
            [
              88.91189525400006,
              24.046980939000093
            ],
            [
              88.91324851500019,
              24.046842866000134
            ],
            [
              88.91329215800016,
              24.046842105000167
            ],
            [
              88.91435225400011,
              24.046823603000064
            ],
            [
              88.91548706500015,
              24.046800037000082
            ],
            [
              88.9160402230001,
              24.04713133500013
            ],
            [
              88.91683531200005,
              24.04756368300019
            ],
            [
              88.91704910900006,
              24.04741450500012
            ],
            [
              88.91721028900008,
              24.04719154300011
            ],
            [
              88.91742297399998,
              24.04696952600017
            ],
            [
              88.91733739900013,
              24.046729596000034
            ],
            [
              88.91692110600002,
              24.046238971000037
            ],
            [
              88.9163950030001,
              24.045503725000117
            ],
            [
              88.9162383600002,
              24.04496340100019
            ],
            [
              88.91622775100012,
              24.04492680500016
            ],
            [
              88.91619311,
              24.04480689700017
            ],
            [
              88.91616054700006,
              24.044219641000097
            ],
            [
              88.91647676800005,
              24.04378916400009
            ],
            [
              88.91659300600008,
              24.043771145000107
            ],
            [
              88.91669604500015,
              24.04376058400004
            ],
            [
              88.91704899400014,
              24.043723571999976
            ],
            [
              88.918222991,
              24.043586243000107
            ],
            [
              88.91915942000014,
              24.043432553000173
            ],
            [
              88.92039771300017,
              24.043195191000052
            ],
            [
              88.92149288000013,
              24.04298390200006
            ],
            [
              88.92192564200002,
              24.042835156000024
            ],
            [
              88.92195934799997,
              24.042317951000143
            ],
            [
              88.92196413700015,
              24.04224446400019
            ],
            [
              88.92204774600003,
              24.04180026800003
            ],
            [
              88.9222395380001,
              24.041492505000065
            ],
            [
              88.92259655400011,
              24.041273759000035
            ],
            [
              88.92290198400019,
              24.040946005000137
            ],
            [
              88.92314799100018,
              24.04045489400005
            ],
            [
              88.923211508,
              24.039979589000097
            ],
            [
              88.92309800200007,
              24.039513687000067
            ],
            [
              88.92319894900015,
              24.039200564000055
            ],
            [
              88.9232861500002,
              24.038803805000157
            ],
            [
              88.92346179600014,
              24.03856119700015
            ],
            [
              88.9234883220002,
              24.038143695000088
            ],
            [
              88.92359165700015,
              24.037543846000062
            ],
            [
              88.9237241260002,
              24.036955073000115
            ],
            [
              88.92435554400004,
              24.036664159000054
            ],
            [
              88.92494357300006,
              24.036530685
            ],
            [
              88.92488195700014,
              24.03610792300003
            ],
            [
              88.9246945270001,
              24.035293800999966
            ],
            [
              88.92427764700005,
              24.03450516300012
            ],
            [
              88.92399744400007,
              24.033688128999984
            ],
            [
              88.9231574910001,
              24.03326086600009
            ],
            [
              88.9225454430001,
              24.03329183900007
            ],
            [
              88.92165711900014,
              24.03369199000008
            ],
            [
              88.92100681600004,
              24.033628707000048
            ],
            [
              88.92062471300017,
              24.033131558000036
            ],
            [
              88.92029074800013,
              24.032463156000176
            ],
            [
              88.92005021800014,
              24.031829277000043
            ],
            [
              88.92003309700004,
              24.03171866200006
            ],
            [
              88.9199102820001,
              24.030925173000185
            ],
            [
              88.91967089100007,
              24.030155836000063
            ],
            [
              88.91949523600005,
              24.029681669000183
            ],
            [
              88.91902350800007,
              24.02840825800007
            ],
            [
              88.9189497110001,
              24.028209044000107
            ],
            [
              88.91886444000005,
              24.02801896600016
            ],
            [
              88.9187594350002,
              24.027784896000185
            ],
            [
              88.91856360300011,
              24.027348358000097
            ],
            [
              88.91852048800001,
              24.026625560000184
            ],
            [
              88.9188627040001,
              24.026227778000134
            ],
            [
              88.918934622,
              24.02619272800007
            ],
            [
              88.91926280200016,
              24.02604377200015
            ],
            [
              88.91980544700004,
              24.02582182000009
            ],
            [
              88.92082498100018,
              24.02525201000003
            ],
            [
              88.92107345500017,
              24.024853185000154
            ],
            [
              88.92123348400014,
              24.02430877000012
            ],
            [
              88.92142284700009,
              24.024223463000112
            ],
            [
              88.9218168760001,
              24.02413592500011
            ],
            [
              88.922013456,
              24.024043657000163
            ],
            [
              88.921871684,
              24.023458971000082
            ],
            [
              88.92223099100016,
              24.022956856000178
            ],
            [
              88.92272996700007,
              24.022952435000093
            ],
            [
              88.92331949800007,
              24.02300173400016
            ],
            [
              88.92386062200012,
              24.02296038100002
            ],
            [
              88.92464791800006,
              24.02287559700011
            ],
            [
              88.92528623200008,
              24.022970387000157
            ],
            [
              88.92572385100016,
              24.023215758000106
            ],
            [
              88.92602023800009,
              24.023381939000103
            ],
            [
              88.92616734000018,
              24.023428126000113
            ],
            [
              88.92712187300003,
              24.023628983000094
            ],
            [
              88.92767121100019,
              24.023560580000037
            ],
            [
              88.92826149400008,
              24.02351955500012
            ],
            [
              88.92931614100019,
              24.023134071000186
            ],
            [
              88.93010679700006,
              24.02264288000015
            ],
            [
              88.9301456680002,
              24.02262059100019
            ],
            [
              88.93054633500003,
              24.022391704000142
            ],
            [
              88.93104529700008,
              24.022107558000073
            ],
            [
              88.93190458900017,
              24.02193518500013
            ],
            [
              88.93252731300015,
              24.021648268000092
            ],
            [
              88.9334049790001,
              24.021557295000093
            ],
            [
              88.9336110660002,
              24.021482940000112
            ],
            [
              88.93411100999998,
              24.021302561000027
            ],
            [
              88.93565755600008,
              24.020877556000073
            ],
            [
              88.93629371600014,
              24.020674255000074
            ],
            [
              88.93689382600002,
              24.020407483000042
            ],
            [
              88.93761460100006,
              24.020114454
            ],
            [
              88.9383963320002,
              24.01973152900007
            ],
            [
              88.93926177500015,
              24.01940562599998
            ],
            [
              88.94025653500017,
              24.01893385400001
            ],
            [
              88.94073244900011,
              24.01870853100013
            ],
            [
              88.94074162600009,
              24.01862670600019
            ],
            [
              88.9407591100001,
              24.01847262100017
            ],
            [
              88.94079307200008,
              24.018171756000015
            ],
            [
              88.94065726600002,
              24.017740043000117
            ],
            [
              88.9404613270001,
              24.016679776000046
            ],
            [
              88.94040120800014,
              24.016111862000116
            ],
            [
              88.94058009700012,
              24.015656019000176
            ],
            [
              88.9406814460001,
              24.01558001000018
            ],
            [
              88.94086813100017,
              24.01544079500013
            ],
            [
              88.941285149,
              24.01543012900015
            ],
            [
              88.94180408700015,
              24.015354690000038
            ],
            [
              88.94219373800013,
              24.015384473999973
            ],
            [
              88.94283119000016,
              24.01543177200017
            ],
            [
              88.94326661800011,
              24.015875046000076
            ],
            [
              88.94379007600008,
              24.015746044000082
            ],
            [
              88.94396752000017,
              24.015214739000044
            ],
            [
              88.94427812900005,
              24.015062380000188
            ],
            [
              88.94472007400009,
              24.015121867
            ],
            [
              88.94521106400003,
              24.01519524100007
            ],
            [
              88.945919146,
              24.01547330700015
            ],
            [
              88.94651614600019,
              24.01558353000013
            ],
            [
              88.94709094100006,
              24.01566650400008
            ],
            [
              88.94779309300009,
              24.015730030000157
            ],
            [
              88.9486564680002,
              24.015652416000137
            ],
            [
              88.94957029400013,
              24.01579415300006
            ],
            [
              88.9505080720001,
              24.015710265000052
            ],
            [
              88.95101932800014,
              24.01563474300019
            ],
            [
              88.95205227300005,
              24.01556052799998
            ],
            [
              88.95275187500005,
              24.01579910600003
            ],
            [
              88.95286778700006,
              24.015132602000108
            ],
            [
              88.95287254100009,
              24.014545604000034
            ],
            [
              88.95302586000008,
              24.01382415
            ],
            [
              88.95322760100015,
              24.013193341000147
            ],
            [
              88.95338018200005,
              24.012562194000054
            ],
            [
              88.9535815530001,
              24.01197653700018
            ],
            [
              88.95354441900008,
              24.011312457000145
            ],
            [
              88.95501455400012,
              24.011361329000067
            ],
            [
              88.95816155000006,
              24.01146589900003
            ],
            [
              88.95986270000014,
              24.01147745300011
            ],
            [
              88.96013470700018,
              24.011467681
            ],
            [
              88.96053402700016,
              24.011453333000077
            ],
            [
              88.96148604800015,
              24.01145978600016
            ],
            [
              88.96287398800007,
              24.011548647000154
            ],
            [
              88.9629234590002,
              24.010452844000156
            ],
            [
              88.96294231500013,
              24.009940447000133
            ],
            [
              88.96294784600013,
              24.009786954000106
            ],
            [
              88.9629931990001,
              24.009035404000088
            ],
            [
              88.96299926500006,
              24.008998514999973
            ],
            [
              88.96301124500013,
              24.009016081000027
            ],
            [
              88.96353994500004,
              24.009319074000132
            ],
            [
              88.96359096100014,
              24.009355543000027
            ],
            [
              88.96380440300004,
              24.009327634000158
            ],
            [
              88.96477746,
              24.009359046000043
            ],
            [
              88.96593936600004,
              24.009441397000046
            ],
            [
              88.9662525080002,
              24.009470604000057
            ],
            [
              88.96653373600003,
              24.009495079000033
            ],
            [
              88.96697657600009,
              24.00943612800006
            ],
            [
              88.96696730700012,
              24.00940994700011
            ],
            [
              88.9669245070001,
              24.009075498000072
            ],
            [
              88.96685745600018,
              24.008541474000083
            ],
            [
              88.96738774300007,
              24.00821124000015
            ],
            [
              88.96722378200008,
              24.007892966999975
            ],
            [
              88.96816041200015,
              24.007738162000066
            ],
            [
              88.96845360700013,
              24.007956887000148
            ],
            [
              88.96892260600015,
              24.007820057000174
            ],
            [
              88.96899227600005,
              24.007760884000163
            ],
            [
              88.96946855800019,
              24.007356360000074
            ],
            [
              88.96961511100017,
              24.006777084000134
            ],
            [
              88.96995428500014,
              24.006738721999966
            ],
            [
              88.97017126500015,
              24.00711498000004
            ],
            [
              88.97086462500016,
              24.006889338000178
            ],
            [
              88.97155798400007,
              24.006663693000064
            ],
            [
              88.97231455100007,
              24.006409116000043
            ],
            [
              88.97269524500012,
              24.00597816600009
            ],
            [
              88.9729216250002,
              24.005171381000082
            ],
            [
              88.97303515000004,
              24.00485340700004
            ],
            [
              88.97317896000004,
              24.004450601000087
            ],
            [
              88.97371915100007,
              24.003702363
            ],
            [
              88.97398019900004,
              24.003442202000087
            ],
            [
              88.9743530230001,
              24.003072155000098
            ],
            [
              88.97504453200008,
              24.003076780000015
            ],
            [
              88.9754067680002,
              24.003177011000048
            ],
            [
              88.9754950860002,
              24.00320144900013
            ],
            [
              88.97579710200017,
              24.003285016
            ],
            [
              88.97629702600011,
              24.003663154000037
            ],
            [
              88.97727123600009,
              24.003699008000183
            ],
            [
              88.97824659500003,
              24.00359036000009
            ],
            [
              88.97906838700004,
              24.003047185000185
            ],
            [
              88.97998259500014,
              24.00270556300012
            ],
            [
              88.98055141200007,
              24.002334546999975
            ],
            [
              88.98061652600012,
              24.00195415100012
            ],
            [
              88.98014939500013,
              24.00150734900012
            ],
            [
              88.98003166800004,
              24.001272352000115
            ],
            [
              88.97990346800009,
              24.001016448000087
            ],
            [
              88.97991645600013,
              24.00097030600017
            ],
            [
              88.97999857700006,
              24.00072513300006
            ],
            [
              88.98022034200005,
              24.000496312000053
            ],
            [
              88.98063209700007,
              24.000094898000043
            ],
            [
              88.98157267700009,
              24.00041950300016
            ],
            [
              88.981982846,
              24.000219023000113
            ],
            [
              88.98202209400006,
              24.00003573500004
            ],
            [
              88.9822111970002,
              23.99915258500016
            ],
            [
              88.98240730400016,
              23.998201079000125
            ],
            [
              88.98275841900016,
              23.99753960700008
            ],
            [
              88.98317198200016,
              23.996905642000115
            ],
            [
              88.98361618100006,
              23.99635993400011
            ],
            [
              88.98399748000008,
              23.995843158000127
            ],
            [
              88.98456762100011,
              23.99529828100009
            ],
            [
              88.98466442300014,
              23.994980568000187
            ],
            [
              88.98480338600018,
              23.994567212000106
            ],
            [
              88.98485670400015,
              23.994408612000143
            ],
            [
              88.98474089700005,
              23.99331443300008
            ],
            [
              88.98491658700004,
              23.99298856700011
            ],
            [
              88.98522081000004,
              23.99281898600003
            ],
            [
              88.98569708600019,
              23.992214780000154
            ],
            [
              88.9859544320002,
              23.991242639000063
            ],
            [
              88.98643093700008,
              23.99080622500003
            ],
            [
              88.98722097900009,
              23.990262790000088
            ],
            [
              88.9879137800001,
              23.990093512000158
            ],
            [
              88.98904765600014,
              23.98981198600012
            ],
            [
              88.98996444000016,
              23.98912486800009
            ],
            [
              88.99044291300004,
              23.988233915000023
            ],
            [
              88.99063512400005,
              23.987772324000105
            ],
            [
              88.99103172400015,
              23.987492704000033
            ],
            [
              88.99109567200014,
              23.98746721200007
            ],
            [
              88.99123754300007,
              23.987412776000042
            ],
            [
              88.99176456900017,
              23.98734624700012
            ],
            [
              88.99197361400013,
              23.98734762000015
            ],
            [
              88.99277053400016,
              23.987352855000097
            ],
            [
              88.99412242099999,
              23.987275929000134
            ],
            [
              88.99474941100004,
              23.98729088400006
            ],
            [
              88.99550295400013,
              23.98730885300006
            ],
            [
              88.99581958700008,
              23.987316403000136
            ],
            [
              88.99729630900009,
              23.987382511000078
            ],
            [
              88.9986726350001,
              23.987329924000107
            ],
            [
              88.9992139950001,
              23.987309236000158
            ],
            [
              89.0002414700001,
              23.987352850000036
            ],
            [
              89.0016021620001,
              23.9874105990001
            ],
            [
              89.00238952500013,
              23.98745250200011
            ],
            [
              89.0030292290001,
              23.987486544999967
            ],
            [
              89.00348717600008,
              23.98751091300005
            ],
            [
              89.00448884600019,
              23.988036722000118
            ],
            [
              89.00498968600004,
              23.98829962500014
            ],
            [
              89.00513566200004,
              23.988273934000063
            ],
            [
              89.0051627470001,
              23.988269167000112
            ],
            [
              89.00548464500008,
              23.988212515000043
            ],
            [
              89.00577653400018,
              23.988160223000136
            ],
            [
              89.00632691100014,
              23.98813545300004
            ],
            [
              89.00744296400018,
              23.988085220000073
            ],
            [
              89.00846900500011,
              23.98800480000017
            ],
            [
              89.00882673500018,
              23.98797676000015
            ],
            [
              89.01069461300006,
              23.987551946000167
            ],
            [
              89.01099996500005,
              23.987385685000163
            ],
            [
              89.01135002100006,
              23.986839283999984
            ],
            [
              89.01198025899998,
              23.98661078700019
            ],
            [
              89.0128209930001,
              23.986616199000082
            ],
            [
              89.01301755600014,
              23.98661746400012
            ],
            [
              89.01433677600005,
              23.986714004000135
            ],
            [
              89.01485057700017,
              23.987092107000024
            ],
            [
              89.01493061000014,
              23.987151327000163
            ],
            [
              89.01592990600005,
              23.987995403000184
            ],
            [
              89.01667794900004,
              23.98883786500005
            ],
            [
              89.01792842000003,
              23.98973998700012
            ],
            [
              89.0187054050001,
              23.990900978000127
            ],
            [
              89.01979521300018,
              23.992255895000085
            ],
            [
              89.01982623900011,
              23.992294469000058
            ],
            [
              89.02010521900007,
              23.992815556000096
            ],
            [
              89.02058055400005,
              23.99276839700002
            ],
            [
              89.02067149000015,
              23.992760470000178
            ],
            [
              89.02215177500011,
              23.99236576000004
            ],
            [
              89.02363183000011,
              23.992000385999972
            ],
            [
              89.02495470500008,
              23.99166109300006
            ],
            [
              89.02502298600012,
              23.99164243500013
            ],
            [
              89.0254735810002,
              23.991519305000054
            ],
            [
              89.02648869600006,
              23.99124190600014
            ],
            [
              89.02681271100016,
              23.991153596000117
            ],
            [
              89.02901605099999,
              23.990763406000156
            ],
            [
              89.03036893100005,
              23.990598111000054
            ],
            [
              89.03090671200005,
              23.99056768200012
            ],
            [
              89.03124941300007,
              23.990547227000093
            ],
            [
              89.0340046,
              23.990426958
            ],
            [
              89.03414197300009,
              23.99042096000005
            ],
            [
              89.03621462100017,
              23.990664301000038
            ],
            [
              89.03847501300015,
              23.99102620000002
            ],
            [
              89.04110987400014,
              23.99176295400008
            ],
            [
              89.0442469730001,
              23.992590851000102
            ],
            [
              89.04708333100012,
              23.99345219300011
            ],
            [
              89.04728833900003,
              23.993522420000147
            ],
            [
              89.049104913,
              23.994427809
            ],
            [
              89.05198433300006,
              23.995976470000187
            ],
            [
              89.05317370100005,
              23.996792134000145
            ],
            [
              89.05342106400019,
              23.997371674000135
            ],
            [
              89.05429611100004,
              23.99807023900013
            ],
            [
              89.0549883270001,
              23.997988684000063
            ],
            [
              89.05506080800018,
              23.997970066999983
            ],
            [
              89.05515929200016,
              23.99794477100005
            ],
            [
              89.05561507700008,
              23.997827530000052
            ],
            [
              89.05575481700009,
              23.997776780000095
            ],
            [
              89.0559296460001,
              23.99773201400012
            ],
            [
              89.05609104000013,
              23.99769068700016
            ],
            [
              89.05687916600016,
              23.99737717800008
            ],
            [
              89.05826452600019,
              23.99774489700002
            ],
            [
              89.05818560800009,
              23.997881492000033
            ],
            [
              89.05781627300013,
              23.998520748000033
            ],
            [
              89.05742390000012,
              23.999258728000143
            ],
            [
              89.05738996200012,
              23.999321916000042
            ],
            [
              89.05723774400013,
              23.99959722400007
            ],
            [
              89.05716939799998,
              23.999666334000096
            ],
            [
              89.05669222600011,
              24.000148856000067
            ],
            [
              89.05620522700008,
              24.001004028000125
            ],
            [
              89.05618718200009,
              24.00103453800017
            ],
            [
              89.05574889600007,
              24.001775621000093
            ],
            [
              89.05529288500009,
              24.002492904000064
            ],
            [
              89.05480703800009,
              24.003153465000082
            ],
            [
              89.05431934400008,
              24.004119500000172
            ],
            [
              89.05421532399998,
              24.00451950200005
            ],
            [
              89.05401104400016,
              24.005308211
            ],
            [
              89.05357382400007,
              24.006057200999976
            ],
            [
              89.0534631540001,
              24.006246784000155
            ],
            [
              89.05297577800013,
              24.007156243000168
            ],
            [
              89.05267096900002,
              24.007763406000038
            ],
            [
              89.05252090200014,
              24.008016210000164
            ],
            [
              89.05224509400006,
              24.008480833000135
            ],
            [
              89.05208827300015,
              24.00874931300018
            ],
            [
              89.05202636899998,
              24.00885535400016
            ],
            [
              89.05181252500006,
              24.009222883000064
            ],
            [
              89.05166667700007,
              24.00947355000011
            ],
            [
              89.0513621840002,
              24.01002640200005
            ],
            [
              89.05121009400006,
              24.010363814000073
            ],
            [
              89.05113790600012,
              24.010523963000082
            ],
            [
              89.05102635100019,
              24.010771440000042
            ],
            [
              89.050539942,
              24.01151570500008
            ],
            [
              89.0504842790001,
              24.011619822000057
            ],
            [
              89.05005251300008,
              24.012427417000026
            ],
            [
              89.04950369900018,
              24.01355831400008
            ],
            [
              89.04907678600011,
              24.014440914999966
            ],
            [
              89.0487099120001,
              24.015323823000017
            ],
            [
              89.04851435500018,
              24.01573194600013
            ],
            [
              89.0484048880001,
              24.01596039200001
            ],
            [
              89.04825630200008,
              24.016221405000067
            ],
            [
              89.0478872610002,
              24.016869680000127
            ],
            [
              89.04767229900017,
              24.017531601000087
            ],
            [
              89.04736642000017,
              24.018306200000154
            ],
            [
              89.04699901300006,
              24.01927282400004
            ],
            [
              89.04669365000012,
              24.019961435000084
            ],
            [
              89.04651062700015,
              24.020332136000093
            ],
            [
              89.04617544900015,
              24.02101101100004
            ],
            [
              89.04605227800016,
              24.021363384000153
            ],
            [
              89.04583820400018,
              24.021977788000186
            ],
            [
              89.0456842540001,
              24.02252913700005
            ],
            [
              89.04553014500004,
              24.023055595000073
            ],
            [
              89.04522509700018,
              24.023689892999982
            ],
            [
              89.04494870500002,
              24.024573256000167
            ],
            [
              89.04437011200002,
              24.025622512000098
            ],
            [
              89.04427241900004,
              24.026264575000027
            ],
            [
              89.04333013600018,
              24.02819003400009
            ],
            [
              89.04302404900017,
              24.02898951500009
            ],
            [
              89.0428397180001,
              24.029570124000088
            ],
            [
              89.04247224400007,
              24.030536735000055
            ],
            [
              89.04210642900006,
              24.031281591000038
            ],
            [
              89.041738775,
              24.03227535600007
            ],
            [
              89.04137111600005,
              24.033269116000042
            ],
            [
              89.04112620300015,
              24.033933133
            ],
            [
              89.04103311800014,
              24.034346758000083
            ],
            [
              89.04051123800014,
              24.035977848000186
            ],
            [
              89.04032638300004,
              24.03663991100018
            ],
            [
              89.04016982900004,
              24.03760761
            ],
            [
              89.04013832000004,
              24.03843224800005
            ],
            [
              89.04013386300011,
              24.03854877800012
            ],
            [
              89.04006754600005,
              24.039516943000024
            ],
            [
              89.0398814850002,
              24.04037360400008
            ],
            [
              89.03957450000007,
              24.041311104000044
            ],
            [
              89.03951053100002,
              24.041946639000116
            ],
            [
              89.03924653500007,
              24.042608923000046
            ],
            [
              89.03895963700012,
              24.04332865599997
            ],
            [
              89.03877509900013,
              24.043936407000103
            ],
            [
              89.03858970900006,
              24.044682191000163
            ],
            [
              89.03840431300017,
              24.045427975000052
            ],
            [
              89.03815646900011,
              24.04656038400003
            ],
            [
              89.03794105600014,
              24.047278854000183
            ],
            [
              89.03778668800015,
              24.0478867650001
            ],
            [
              89.03748050500013,
              24.04868848900003
            ],
            [
              89.03711276200016,
              24.049682235000148
            ],
            [
              89.03661961900013,
              24.05147864500009
            ],
            [
              89.03649611300006,
              24.05197583100005
            ],
            [
              89.03616024300015,
              24.05269367300008
            ],
            [
              89.0358252370001,
              24.05327122
            ],
            [
              89.0356405,
              24.053906121000068
            ],
            [
              89.03539177600004,
              24.054776027000116
            ],
            [
              89.03533258100003,
              24.05498390000014
            ],
            [
              89.03508639900008,
              24.055840240000123
            ],
            [
              89.03485175700007,
              24.05642283500009
            ],
            [
              89.03484144700008,
              24.056447673000037
            ],
            [
              89.03461206400004,
              24.056912021000073
            ],
            [
              89.03447406500004,
              24.057191376
            ],
            [
              89.03432299100018,
              24.057497195000167
            ],
            [
              89.03398436100002,
              24.05865627600008
            ],
            [
              89.03373075900004,
              24.059158185000115
            ],
            [
              89.03256215400006,
              24.059134672000027
            ],
            [
              89.03231624900002,
              24.05912972300007
            ],
            [
              89.03230592900007,
              24.059154494999973
            ],
            [
              89.03178725200007,
              24.06020110800017
            ],
            [
              89.03144786000007,
              24.06135723400007
            ],
            [
              89.03095960600012,
              24.06232049600004
            ],
            [
              89.03065342500014,
              24.06306364200003
            ],
            [
              89.0304051060001,
              24.063733383000113
            ],
            [
              89.03028511300005,
              24.06405701300008
            ],
            [
              89.03009993100017,
              24.06469029100009
            ],
            [
              89.02995108300013,
              24.065350160000037
            ],
            [
              89.02991328200011,
              24.065517735000128
            ],
            [
              89.02978833400005,
              24.066151394000087
            ],
            [
              89.02960251600012,
              24.06686820699997
            ],
            [
              89.02929548200012,
              24.06772197800018
            ],
            [
              89.02926563000017,
              24.067822437000075
            ],
            [
              89.02889433700005,
              24.069071875000077
            ],
            [
              89.02861658000006,
              24.070036466000033
            ],
            [
              89.0282486750001,
              24.070971128999986
            ],
            [
              89.0279723540001,
              24.071743811000147
            ],
            [
              89.02767255600014,
              24.072570532999976
            ],
            [
              89.0275733650002,
              24.072845354000094
            ],
            [
              89.02738898600012,
              24.073367999000084
            ],
            [
              89.02684269400004,
              24.074028324000096
            ],
            [
              89.02675234300011,
              24.07437372000004
            ],
            [
              89.02653313200017,
              24.075211719000038
            ],
            [
              89.02634373700005,
              24.07639813300017
            ],
            [
              89.02630923100003,
              24.07697817600007
            ],
            [
              89.02635112600007,
              24.077373561
            ],
            [
              89.0263935660002,
              24.077777984000193
            ],
            [
              89.02644808200006,
              24.078496320000113
            ],
            [
              89.02644182699999,
              24.079324902999986
            ],
            [
              89.02655315000004,
              24.080540323000037
            ],
            [
              89.02657822000003,
              24.08104939100008
            ],
            [
              89.02633404600004,
              24.081670101999975
            ],
            [
              89.02611868800017,
              24.082303181000043
            ],
            [
              89.02575101500003,
              24.0832400970001
            ],
            [
              89.02550426500005,
              24.084040054000127
            ],
            [
              89.02522895600009,
              24.084672748000116
            ],
            [
              89.0252137670002,
              24.08469894900003
            ],
            [
              89.02502631100015,
              24.085022305000166
            ],
            [
              89.02489380499998,
              24.085250873000064
            ],
            [
              89.02434327500009,
              24.086462072000188
            ],
            [
              89.0239167960001,
              24.087204434000114
            ],
            [
              89.02360883400019,
              24.088168816000177
            ],
            [
              89.02348495100011,
              24.08910050700007
            ],
            [
              89.02347301300006,
              24.089858485000093
            ],
            [
              89.02347250600008,
              24.089890665999974
            ],
            [
              89.02339127300019,
              24.090508793000083
            ],
            [
              89.02337176100019,
              24.091176983000082
            ],
            [
              89.02328916,
              24.091772520000063
            ],
            [
              89.02320025100005,
              24.09247558200019
            ],
            [
              89.02316830400014,
              24.092733612000018
            ],
            [
              89.02315063800012,
              24.093417591000048
            ],
            [
              89.02289805700008,
              24.094292011999983
            ],
            [
              89.02285699700002,
              24.094436249000125
            ],
            [
              89.0226765450002,
              24.094843707999985
            ],
            [
              89.02259675400012,
              24.095023877000074
            ],
            [
              89.02239654500016,
              24.095398762000116
            ],
            [
              89.02238405300017,
              24.09542215400006
            ],
            [
              89.02193337800009,
              24.09578277900016
            ],
            [
              89.02154800500011,
              24.096247682000183
            ],
            [
              89.02116672500017,
              24.096780347000106
            ],
            [
              89.02040081300004,
              24.09780048800002
            ],
            [
              89.02001735900012,
              24.098377155000037
            ],
            [
              89.01996727400012,
              24.09845247700008
            ],
            [
              89.01954234300007,
              24.099221964000037
            ],
            [
              89.01921579600014,
              24.09971430000013
            ],
            [
              89.01877652600018,
              24.10026916200019
            ],
            [
              89.01819106700015,
              24.10084340100019
            ],
            [
              89.01795417200003,
              24.101122560000135
            ],
            [
              89.01772228700008,
              24.101395813000067
            ],
            [
              89.0173843880001,
              24.101587963000156
            ],
            [
              89.01698026100019,
              24.101817770000082
            ],
            [
              89.01664212600019,
              24.102091048000148
            ],
            [
              89.0158032810001,
              24.10286911000003
            ],
            [
              89.0154172660001,
              24.10333173700019
            ],
            [
              89.01524831800015,
              24.10351896400016
            ],
            [
              89.01510532400005,
              24.103677429000015
            ],
            [
              89.0150848560001,
              24.103699871000117
            ],
            [
              89.01481913000015,
              24.104192625
            ],
            [
              89.01459193300008,
              24.10456993700018
            ],
            [
              89.01449681200012,
              24.104727906000164
            ],
            [
              89.01398855600019,
              24.105614209000066
            ],
            [
              89.01374826000017,
              24.106037127000036
            ],
            [
              89.01350044700018,
              24.106839311000158
            ],
            [
              89.01336906300014,
              24.107734815000185
            ],
            [
              89.01333373600016,
              24.107939444000124
            ],
            [
              89.01327639800002,
              24.108271576000107
            ],
            [
              89.01312640800006,
              24.108826031000035
            ],
            [
              89.01291907000012,
              24.109400437000147
            ],
            [
              89.01267003400017,
              24.109678794
            ],
            [
              89.01242101600013,
              24.109954892000133
            ],
            [
              89.01210583900007,
              24.110718257000144
            ],
            [
              89.011999801,
              24.11089677100017
            ],
            [
              89.01175446300016,
              24.11130979500001
            ],
            [
              89.0113107740001,
              24.111790092000092
            ],
            [
              89.0108673530001,
              24.11227490900012
            ],
            [
              89.01025149200007,
              24.11279247700014
            ],
            [
              89.01001679600017,
              24.112989612000035
            ],
            [
              89.00957929900011,
              24.113357089000147
            ],
            [
              89.00918532800011,
              24.113648050000165
            ],
            [
              89.0084615880001,
              24.11435682200016
            ],
            [
              89.00796134100017,
              24.114911255000152
            ],
            [
              89.00714418800015,
              24.115490718000046
            ],
            [
              89.00626791000013,
              24.116040443000145
            ],
            [
              89.0050566610002,
              24.11652475900007
            ],
            [
              89.0050426470001,
              24.116556292000098
            ],
            [
              89.00501127700016,
              24.116535086000113
            ],
            [
              89.00454367700019,
              24.116686356000173
            ],
            [
              89.0044996060002,
              24.116700629000036
            ],
            [
              89.0018234260001,
              24.117573402000062
            ],
            [
              89.00068029700009,
              24.117946189000065
            ],
            [
              89.00061046900004,
              24.1179689600001
            ],
            [
              88.9998548160001,
              24.118232590000048
            ],
            [
              88.99883033100019,
              24.118590002000133
            ],
            [
              88.99750248900006,
              24.119054918000074
            ],
            [
              88.99570749100008,
              24.119575221000048
            ],
            [
              88.99180520000004,
              24.120706258000098
            ],
            [
              88.99140803600005,
              24.120770570000047
            ],
            [
              88.98814777400014,
              24.121298451000143
            ],
            [
              88.98573352,
              24.121370497000044
            ],
            [
              88.98567951700011,
              24.121370135
            ],
            [
              88.97989277400012,
              24.121246546
            ],
            [
              88.97968860499998,
              24.121242181000127
            ],
            [
              88.97449517100017,
              24.121561873000076
            ]
          ]
        ]
      }
    }
  ]
}