{
  "type": "FeatureCollection",
  "features": [
    {
      "type": "Feature",
      "properties": {
        "adm3_name": "Khoksa",
        "adm3_name1": null,
        "adm3_name2": null,
        "adm3_name3": null,
        "adm3_pcode": "BD40500063",
        "adm2_name": "Kushtia",
        "adm2_name1": null,
        "adm2_name2": null,
        "adm2_name3": null,
        "adm2_pcode": "BD4050",
        "adm1_name": "Khulna",
        "adm1_name1": null,
        "adm1_name2": null,
        "adm1_name3": null,
        "adm1_pcode": "BD40",
        "adm0_name": "Bangladesh",
        "adm0_name1": null,
        "adm0_name2": null,
        "adm0_name3": null,
        "adm0_pcode": "BD",
        "valid_on": "2023-05-21",
        "valid_to": null,
        "area_sqkm": 106.58067179,
        "version": "v03",
        "lang": "en",
        "lang1": null,
        "lang2": null,
        "lang3": null,
        "adm3_ref_name": null,
        "center_lat": 23.8108428,
        "center_lon": 89.30040417
      },
      "geometry": {
        "type": "Polygon",
        "coordinates": [
          [
            [
              89.35215042800007,
              23.88600558800016
            ],
            [
              89.35014132700019,
              23.88612245700017
            ],
            [
              89.34994891900004,
              23.886837883
            ],
            [
              89.34957073800012,
              23.887742086000117
            ],
            [
              89.34944827800012,
              23.888021569000102
            ],
            [
              89.35020184500002,
              23.8900753800001
            ],
            [
              89.3501673780001,
              23.89025426400019
            ],
            [
              89.35013908900015,
              23.890401087000157
            ],
            [
              89.3499858580002,
              23.89096494400019
            ],
            [
              89.34972852900012,
              23.891289004000157
            ],
            [
              89.34905734500018,
              23.891685835000033
            ],
            [
              89.3485718020001,
              23.891975064000064
            ],
            [
              89.34766276599998,
              23.89248152100015
            ],
            [
              89.34646526600005,
              23.89309061500012
            ],
            [
              89.34573846800015,
              23.893493967999973
            ],
            [
              89.34277254900013,
              23.89106959100002
            ],
            [
              89.34227885500013,
              23.89066602500003
            ],
            [
              89.339679645,
              23.88854125900008
            ],
            [
              89.33704356200013,
              23.887092454000026
            ],
            [
              89.33258684300006,
              23.884642842000062
            ],
            [
              89.33244883500004,
              23.88456698300007
            ],
            [
              89.33206258000013,
              23.88443995400013
            ],
            [
              89.32085159500002,
              23.88075239900013
            ],
            [
              89.31670615100006,
              23.879936710000038
            ],
            [
              89.31714472300013,
              23.87793396700016
            ],
            [
              89.3173462220002,
              23.8767494920001
            ],
            [
              89.31735133800004,
              23.87577406100013
            ],
            [
              89.31735445000015,
              23.87518247500003
            ],
            [
              89.3172423330002,
              23.875191021000035
            ],
            [
              89.31680319700007,
              23.875282816000094
            ],
            [
              89.31654426700015,
              23.875336941
            ],
            [
              89.31584693100018,
              23.875333840000053
            ],
            [
              89.31525754300009,
              23.875231867000025
            ],
            [
              89.31429351300011,
              23.874931777000086
            ],
            [
              89.31316237000004,
              23.87469056800012
            ],
            [
              89.31311468500007,
              23.874680399000056
            ],
            [
              89.31220307500013,
              23.874626656000146
            ],
            [
              89.312122047,
              23.87462629200013
            ],
            [
              89.3113446100001,
              23.874622817000102
            ],
            [
              89.31125585800004,
              23.874609430000135
            ],
            [
              89.31032641300015,
              23.874469230999978
            ],
            [
              89.30997654900011,
              23.8743360900001
            ],
            [
              89.30964793100014,
              23.87421103400004
            ],
            [
              89.30952407299998,
              23.874163987000145
            ],
            [
              89.30914864200014,
              23.87402138000016
            ],
            [
              89.3083649470002,
              23.873923143000127
            ],
            [
              89.30791560500012,
              23.873866816000145
            ],
            [
              89.30775962300004,
              23.873855701000025
            ],
            [
              89.3059646800001,
              23.873727796000026
            ],
            [
              89.30571698600005,
              23.873710143999972
            ],
            [
              89.30410859400018,
              23.87355385300009
            ],
            [
              89.30331550200009,
              23.87358219400005
            ],
            [
              89.30320981200009,
              23.873585971000125
            ],
            [
              89.3016407240001,
              23.873642028
            ],
            [
              89.30094984300007,
              23.873662585000034
            ],
            [
              89.30047962500004,
              23.873676574000058
            ],
            [
              89.30025804000007,
              23.87368316500016
            ],
            [
              89.30019209900007,
              23.873685127000158
            ],
            [
              89.29852841000013,
              23.873824324
            ],
            [
              89.29670410900013,
              23.87386567500016
            ],
            [
              89.29625627700017,
              23.873900138000067
            ],
            [
              89.29437754000008,
              23.874044700000127
            ],
            [
              89.29415699900005,
              23.87396240099997
            ],
            [
              89.29411286900012,
              23.87386666800012
            ],
            [
              89.29406416700016,
              23.873761016000117
            ],
            [
              89.29402594900006,
              23.873677293000185
            ],
            [
              89.29402837300006,
              23.873230222000075
            ],
            [
              89.2940312390001,
              23.872701865000124
            ],
            [
              89.29376804600008,
              23.872334863000162
            ],
            [
              89.29359413200012,
              23.871805695000035
            ],
            [
              89.29390746899998,
              23.87107554100004
            ],
            [
              89.29407149300005,
              23.870995007000147
            ],
            [
              89.29423988200006,
              23.87091114200001
            ],
            [
              89.29489694300014,
              23.870981329000074
            ],
            [
              89.29564717100004,
              23.871187983000084
            ],
            [
              89.29588585500011,
              23.87134156200011
            ],
            [
              89.29622106700009,
              23.871556364000128
            ],
            [
              89.2969291710001,
              23.871518992000063
            ],
            [
              89.29794463700006,
              23.871523628999967
            ],
            [
              89.29814381100005,
              23.871524536000152
            ],
            [
              89.2987401640001,
              23.87152725200019
            ],
            [
              89.29997846800006,
              23.87157353300006
            ],
            [
              89.3010812870001,
              23.871578543000112
            ],
            [
              89.30126311800012,
              23.871515543000044
            ],
            [
              89.30137540400017,
              23.87151605300005
            ],
            [
              89.30167011100013,
              23.871413714000028
            ],
            [
              89.30195207800011,
              23.871315448000075
            ],
            [
              89.30207712700008,
              23.870931468000094
            ],
            [
              89.30217676400002,
              23.870625520000033
            ],
            [
              89.30213430800006,
              23.870300176000114
            ],
            [
              89.30196057699999,
              23.869730373000095
            ],
            [
              89.30186873300005,
              23.869267600000114
            ],
            [
              89.30165666000016,
              23.868712897000137
            ],
            [
              89.30108539700007,
              23.868100645000084
            ],
            [
              89.30102815900011,
              23.867921984000134
            ],
            [
              89.30095499600003,
              23.867693612000096
            ],
            [
              89.30073751300006,
              23.86704232200003
            ],
            [
              89.30047824100012,
              23.86594375800007
            ],
            [
              89.29977660400004,
              23.86492447100005
            ],
            [
              89.2992082080001,
              23.863783853000143
            ],
            [
              89.29903471600011,
              23.86317340400018
            ],
            [
              89.29868314400017,
              23.862806008000177
            ],
            [
              89.2986155260001,
              23.862798856000097
            ],
            [
              89.29828453000005,
              23.862763647000122
            ],
            [
              89.29784236700016,
              23.86280215200003
            ],
            [
              89.29717918000006,
              23.862758536000115
            ],
            [
              89.29633883800017,
              23.86279531300005
            ],
            [
              89.29575000700004,
              23.862831008000114
            ],
            [
              89.295720824,
              23.86283306500019
            ],
            [
              89.29569329200007,
              23.862819457000114
            ],
            [
              89.2954792700001,
              23.862708770000097
            ],
            [
              89.2953232820002,
              23.862628095000105
            ],
            [
              89.29487793300018,
              23.862136296000187
            ],
            [
              89.29478942100013,
              23.86210623700009
            ],
            [
              89.29439875600008,
              23.86197355900009
            ],
            [
              89.29428318200007,
              23.862096320000035
            ],
            [
              89.2941320590001,
              23.862256840000043
            ],
            [
              89.2937325600002,
              23.86258016100004
            ],
            [
              89.2932073240001,
              23.862947914000188
            ],
            [
              89.29315585000006,
              23.86298395400013
            ],
            [
              89.2925795750001,
              23.86330646
            ],
            [
              89.29200351900005,
              23.863588321000123
            ],
            [
              89.29111625600007,
              23.863786251000192
            ],
            [
              89.29082548600019,
              23.86384994700012
            ],
            [
              89.29051702200007,
              23.86368595000016
            ],
            [
              89.29003444100016,
              23.86303342200017
            ],
            [
              89.289685776,
              23.862137649000033
            ],
            [
              89.28964455400018,
              23.862041479000027
            ],
            [
              89.28933666700016,
              23.86132316000004
            ],
            [
              89.2887666060002,
              23.86050764900017
            ],
            [
              89.2879327350002,
              23.859447054000043
            ],
            [
              89.28745240600017,
              23.858388093000087
            ],
            [
              89.28746542200014,
              23.858252671000116
            ],
            [
              89.2875461220001,
              23.85741306799997
            ],
            [
              89.28783304100011,
              23.857414395000035
            ],
            [
              89.28825317800016,
              23.857416338000064
            ],
            [
              89.28837844000003,
              23.857353091000107
            ],
            [
              89.28865200600012,
              23.857214960000135
            ],
            [
              89.28944899500004,
              23.856934136000177
            ],
            [
              89.28967127900017,
              23.856691296000122
            ],
            [
              89.29024708700018,
              23.856450086000052
            ],
            [
              89.2913978140001,
              23.856130234999966
            ],
            [
              89.29149995400019,
              23.856120821000104
            ],
            [
              89.29169086000019,
              23.85606775700012
            ],
            [
              89.29236203900001,
              23.85600589500018
            ],
            [
              89.29276926600005,
              23.85585202900006
            ],
            [
              89.29338881400014,
              23.855692296000086
            ],
            [
              89.2942737250001,
              23.855493135000017
            ],
            [
              89.2948932700001,
              23.855333393000137
            ],
            [
              89.29551369400014,
              23.855011083000136
            ],
            [
              89.29591360100005,
              23.854606472000114
            ],
            [
              89.29640166800004,
              23.85424290300017
            ],
            [
              89.29652402000005,
              23.854089920000035
            ],
            [
              89.29675760100008,
              23.853797448000137
            ],
            [
              89.29662678600005,
              23.85347169700009
            ],
            [
              89.29535675900019,
              23.853616521
            ],
            [
              89.29525602500019,
              23.853628008000157
            ],
            [
              89.29418403200003,
              23.853827615000057
            ],
            [
              89.29322153400017,
              23.853943839000067
            ],
            [
              89.29304697900005,
              23.85353659700013
            ],
            [
              89.29242920700005,
              23.853371185000128
            ],
            [
              89.29234369600005,
              23.852842423000084
            ],
            [
              89.29172725200016,
              23.85243315000008
            ],
            [
              89.2913302130001,
              23.852309389000027
            ],
            [
              89.29066759200009,
              23.852265698000053
            ],
            [
              89.29043705300012,
              23.851715940000076
            ],
            [
              89.29027498099998,
              23.851329076000184
            ],
            [
              89.2902785230001,
              23.850678787000106
            ],
            [
              89.2907237280001,
              23.850071181000146
            ],
            [
              89.29103481600009,
              23.84974746000006
            ],
            [
              89.29106060800007,
              23.849575973000185
            ],
            [
              89.29106805400016,
              23.84952651800006
            ],
            [
              89.29112651100013,
              23.849138224000114
            ],
            [
              89.29148156200011,
              23.84885534700004
            ],
            [
              89.2921474740001,
              23.848289392000027
            ],
            [
              89.2927689710001,
              23.8477638760001
            ],
            [
              89.29308049200006,
              23.847358865000047
            ],
            [
              89.29308357700006,
              23.84678986400013
            ],
            [
              89.29343795800014,
              23.84662891400012
            ],
            [
              89.29352963600007,
              23.846019673000114
            ],
            [
              89.29358536100017,
              23.84557842700019
            ],
            [
              89.29362197400008,
              23.84528850400011
            ],
            [
              89.2940203170001,
              23.845168398000112
            ],
            [
              89.2940397110001,
              23.845188417000088
            ],
            [
              89.29431333800011,
              23.845105914999976
            ],
            [
              89.29453328400018,
              23.845332962000043
            ],
            [
              89.29470882100003,
              23.84551416400012
            ],
            [
              89.29502164700017,
              23.84486529300017
            ],
            [
              89.295100236,
              23.844710700000064
            ],
            [
              89.29528962500012,
              23.84433814500005
            ],
            [
              89.29554861300005,
              23.844023788000072
            ],
            [
              89.29591233300016,
              23.843582303000062
            ],
            [
              89.29591459900018,
              23.843162325000094
            ],
            [
              89.29587217000011,
              23.842836981
            ],
            [
              89.29605155100012,
              23.842350069000076
            ],
            [
              89.29604207700004,
              23.842230440000037
            ],
            [
              89.29601021600018,
              23.84182150700019
            ],
            [
              89.29610122400004,
              23.841334194000126
            ],
            [
              89.29583808400014,
              23.8409671980001
            ],
            [
              89.29513067500011,
              23.841045252000185
            ],
            [
              89.29486791100004,
              23.84110440000012
            ],
            [
              89.29483766400011,
              23.84110773700013
            ],
            [
              89.29412981700011,
              23.841267071000175
            ],
            [
              89.29399572000011,
              23.84155096699999
            ],
            [
              89.29364179400011,
              23.841630632000147
            ],
            [
              89.2933076490001,
              23.841768495000053
            ],
            [
              89.29282906300011,
              23.841766299000085
            ],
            [
              89.29225508800016,
              23.84168237400013
            ],
            [
              89.2915483380001,
              23.841638485000146
            ],
            [
              89.29110781000009,
              23.84139259300008
            ],
            [
              89.29097879000005,
              23.84074169500019
            ],
            [
              89.2909816630002,
              23.840213334999987
            ],
            [
              89.29067479700007,
              23.839764841000033
            ],
            [
              89.29019186000016,
              23.8391936000001
            ],
            [
              89.28988433800009,
              23.838867030000074
            ],
            [
              89.28979973300011,
              23.83817569200005
            ],
            [
              89.28976433100001,
              23.83809493700005
            ],
            [
              89.28942760100006,
              23.837326833000077
            ],
            [
              89.28940694400006,
              23.837279712
            ],
            [
              89.28923330700013,
              23.836709894000137
            ],
            [
              89.28919377600016,
              23.835856189000083
            ],
            [
              89.28862094100009,
              23.83556903700014
            ],
            [
              89.2882701330002,
              23.835079689000167
            ],
            [
              89.28774459300007,
              23.83422373400009
            ],
            [
              89.28774814600013,
              23.833573448000152
            ],
            [
              89.28727035200018,
              23.832067408000057
            ],
            [
              89.28722794300012,
              23.831742062000103
            ],
            [
              89.28767132100006,
              23.831459600000017
            ],
            [
              89.28749836600002,
              23.830767853000054
            ],
            [
              89.28732541300019,
              23.830076105000046
            ],
            [
              89.2872401570001,
              23.82950669500019
            ],
            [
              89.28689115200007,
              23.828692198
            ],
            [
              89.28681304399998,
              23.828443458000038
            ],
            [
              89.2864568940002,
              23.82730828900003
            ],
            [
              89.28629591200018,
              23.827178841000148
            ],
            [
              89.28579707900008,
              23.8267768610001
            ],
            [
              89.28475432800019,
              23.82681041500001
            ],
            [
              89.28469233800001,
              23.826812384999982
            ],
            [
              89.2845665960001,
              23.82686949600003
            ],
            [
              89.28445159900008,
              23.82687319300004
            ],
            [
              89.28439935500006,
              23.826874852000117
            ],
            [
              89.2842221890001,
              23.826955318000046
            ],
            [
              89.28417494200005,
              23.82698851700019
            ],
            [
              89.2840003930001,
              23.827116865000164
            ],
            [
              89.28369001200008,
              23.82731864200008
            ],
            [
              89.28337985300004,
              23.827479778000054
            ],
            [
              89.28306969400006,
              23.827640911000174
            ],
            [
              89.28275819500016,
              23.82804590300009
            ],
            [
              89.28275596000003,
              23.828452334000076
            ],
            [
              89.28275327900008,
              23.828940048000106
            ],
            [
              89.28236023600016,
              23.829138530000023
            ],
            [
              89.2820724930001,
              23.829198207000047
            ],
            [
              89.28136523299997,
              23.829036851000012
            ],
            [
              89.28075836500005,
              23.828864668999984
            ],
            [
              89.28061652300005,
              23.828825622000068
            ],
            [
              89.27973312300014,
              23.82878085400006
            ],
            [
              89.27880576800004,
              23.828695230000108
            ],
            [
              89.2779219210002,
              23.828731736000123
            ],
            [
              89.27725920000017,
              23.828728629000125
            ],
            [
              89.27673374700015,
              23.828483431000052
            ],
            [
              89.27655636000009,
              23.827993740000124
            ],
            [
              89.27598245700011,
              23.827909759000022
            ],
            [
              89.27581840800013,
              23.827991078000082
            ],
            [
              89.27549511500013,
              23.82815133200006
            ],
            [
              89.27522845100009,
              23.828434589000096
            ],
            [
              89.27478338600014,
              23.82863120000013
            ],
            [
              89.27464973400009,
              23.828623259000096
            ],
            [
              89.27412302000005,
              23.828591964000054
            ],
            [
              89.27372697200013,
              23.828305590000184
            ],
            [
              89.27314583900011,
              23.82822607800017
            ],
            [
              89.27299503200015,
              23.828307977000122
            ],
            [
              89.27293148900014,
              23.82834248500012
            ],
            [
              89.27284108800018,
              23.82870785299997
            ],
            [
              89.27283882300009,
              23.82911428200015
            ],
            [
              89.27270310800014,
              23.82968265800008
            ],
            [
              89.2725909560001,
              23.82971148100006
            ],
            [
              89.27239338300018,
              23.829762485
            ],
            [
              89.27235743700004,
              23.82975863900009
            ],
            [
              89.27199597800006,
              23.829719965000038
            ],
            [
              89.27142343500003,
              23.829392107000103
            ],
            [
              89.27124966200012,
              23.828862913000023
            ],
            [
              89.27120843000012,
              23.828334348000055
            ],
            [
              89.27112279400012,
              23.827846217000115
            ],
            [
              89.27094089200017,
              23.827816903000155
            ],
            [
              89.27081468300014,
              23.827798731000087
            ],
            [
              89.27033340500009,
              23.827829820999966
            ],
            [
              89.2701508200002,
              23.827841617000104
            ],
            [
              89.27003909500007,
              23.82789234500018
            ],
            [
              89.26985782800011,
              23.82790405500009
            ],
            [
              89.269237701,
              23.828185625000117
            ],
            [
              89.2688992890001,
              23.82843205400019
            ],
            [
              89.268868205,
              23.82845468800008
            ],
            [
              89.26879406900008,
              23.828508673000044
            ],
            [
              89.26830579800009,
              23.828912796000168
            ],
            [
              89.26815201500006,
              23.82903399900016
            ],
            [
              89.26799516000017,
              23.829155184000115
            ],
            [
              89.26793253200015,
              23.82938068800013
            ],
            [
              89.26785988000017,
              23.829642270000136
            ],
            [
              89.26754741700017,
              23.830209799999977
            ],
            [
              89.26719145300018,
              23.83065519200011
            ],
            [
              89.26688103800018,
              23.83085693600009
            ],
            [
              89.2664827160001,
              23.830976973000134
            ],
            [
              89.26608348000008,
              23.831259578000186
            ],
            [
              89.26559541900014,
              23.831623051000122
            ],
            [
              89.26506340300017,
              23.831945667000184
            ],
            [
              89.264575568,
              23.832268489000057
            ],
            [
              89.26395518100009,
              23.83259068300009
            ],
            [
              89.26373017900016,
              23.832674654000186
            ],
            [
              89.26320247700016,
              23.83287159100007
            ],
            [
              89.26284860600015,
              23.832994853000116
            ],
            [
              89.26262695600008,
              23.83307205900013
            ],
            [
              89.26231705100008,
              23.83316544000013
            ],
            [
              89.26163797800012,
              23.8331254310001
            ],
            [
              89.26102080600003,
              23.83287860900009
            ],
            [
              89.26094160900016,
              23.832633679000082
            ],
            [
              89.26093305600006,
              23.83260723000012
            ],
            [
              89.26071682900005,
              23.831942342
            ],
            [
              89.26049983600012,
              23.831250356000112
            ],
            [
              89.26014776300019,
              23.831004803000155
            ],
            [
              89.2595310640001,
              23.83067669100018
            ],
            [
              89.25926758800011,
              23.83039091500018
            ],
            [
              89.25904876100003,
              23.830024070000093
            ],
            [
              89.25900873400019,
              23.829292289000023
            ],
            [
              89.25891501100017,
              23.82902906300012
            ],
            [
              89.2588347790001,
              23.82880372400018
            ],
            [
              89.2585301310001,
              23.827989382000112
            ],
            [
              89.25818246600005,
              23.826971613000012
            ],
            [
              89.25809872500014,
              23.82615833000017
            ],
            [
              89.25791018600006,
              23.825484541000094
            ],
            [
              89.25788221800008,
              23.82538505600013
            ],
            [
              89.25768467100016,
              23.82474962800012
            ],
            [
              89.25757850800017,
              23.824408139000013
            ],
            [
              89.25744805000005,
              23.824041715000078
            ],
            [
              89.25731736500012,
              23.82371593300013
            ],
            [
              89.25718737100004,
              23.823268226000152
            ],
            [
              89.25710288700014,
              23.822748931000035
            ],
            [
              89.25707381300009,
              23.82264800100006
            ],
            [
              89.25706497900006,
              23.822617332000107
            ],
            [
              89.25692854600004,
              23.822169594000172
            ],
            [
              89.25688644900004,
              23.821803595000176
            ],
            [
              89.25706640500016,
              23.82123544700005
            ],
            [
              89.25724681700018,
              23.82058601400007
            ],
            [
              89.257249365,
              23.82013894300013
            ],
            [
              89.25725283100013,
              23.819529300000056
            ],
            [
              89.25730117300003,
              23.818797941000184
            ],
            [
              89.25708236700007,
              23.818431093000015
            ],
            [
              89.25681938600007,
              23.818064029000027
            ],
            [
              89.25678933400008,
              23.81802489000006
            ],
            [
              89.25660012000003,
              23.817778465
            ],
            [
              89.25638108700014,
              23.817452258000117
            ],
            [
              89.25611810900006,
              23.817085193000025
            ],
            [
              89.25567888800003,
              23.8166359920001
            ],
            [
              89.255415911,
              23.816268926000077
            ],
            [
              89.2550220330001,
              23.81561672000015
            ],
            [
              89.2548041660001,
              23.815087297000105
            ],
            [
              89.25436519000004,
              23.814597447999972
            ],
            [
              89.25401549700013,
              23.813945455000123
            ],
            [
              89.2537113750002,
              23.813049817000092
            ],
            [
              89.2534989090002,
              23.812693559000138
            ],
            [
              89.25314476800014,
              23.811705823000125
            ],
            [
              89.2525763050001,
              23.8106869720001
            ],
            [
              89.25213688500014,
              23.81027840200005
            ],
            [
              89.25178488500018,
              23.81003283200016
            ],
            [
              89.25155794700004,
              23.809955145
            ],
            [
              89.2513505610001,
              23.81004684300018
            ],
            [
              89.25126443700009,
              23.810017361
            ],
            [
              89.25100693900009,
              23.809930306000183
            ],
            [
              89.25034549100008,
              23.809723873000053
            ],
            [
              89.24968333900017,
              23.809639366000113
            ],
            [
              89.24946410100017,
              23.809353790000102
            ],
            [
              89.24928973900012,
              23.808946503000072
            ],
            [
              89.24893868400011,
              23.808538355000053
            ],
            [
              89.24854416100004,
              23.808008063000045
            ],
            [
              89.24819380900004,
              23.807477984000172
            ],
            [
              89.24793642400016,
              23.80669953200004
            ],
            [
              89.24833263600004,
              23.806381278000174
            ],
            [
              89.24908615500016,
              23.8059378640001
            ],
            [
              89.24931000300018,
              23.805792390000136
            ],
            [
              89.24970691200008,
              23.805534444000102
            ],
            [
              89.25024001300005,
              23.805223177000187
            ],
            [
              89.25019678300004,
              23.80484588000013
            ],
            [
              89.25019801800005,
              23.80463077500019
            ],
            [
              89.25020005100009,
              23.804276879000042
            ],
            [
              89.25020331700006,
              23.803707879000058
            ],
            [
              89.25038397300005,
              23.803017810000085
            ],
            [
              89.2503895700001,
              23.802042382000025
            ],
            [
              89.25043830100009,
              23.801393840000173
            ],
            [
              89.25043257300018,
              23.801314719000118
            ],
            [
              89.25040425600002,
              23.80085922300009
            ],
            [
              89.25039695800018,
              23.800741831000153
            ],
            [
              89.25040045600008,
              23.80013218800002
            ],
            [
              89.25032868900013,
              23.79986199300015
            ],
            [
              89.250270742,
              23.79964383000015
            ],
            [
              89.25000932400008,
              23.799491721000095
            ],
            [
              89.24992772800005,
              23.79944424300004
            ],
            [
              89.24980102200004,
              23.799462324000046
            ],
            [
              89.24952058300005,
              23.799518241000158
            ],
            [
              89.24924835000013,
              23.79965962300014
            ],
            [
              89.24921044900015,
              23.79967930300012
            ],
            [
              89.24850303200014,
              23.799797792000106
            ],
            [
              89.24775282400003,
              23.799672201000078
            ],
            [
              89.2470042600001,
              23.799262111000075
            ],
            [
              89.24660953300003,
              23.798772456000165
            ],
            [
              89.24634779100006,
              23.798202162000052
            ],
            [
              89.24617533200006,
              23.797469727000134
            ],
            [
              89.24622043800008,
              23.797307370999988
            ],
            [
              89.2463557640001,
              23.796820303
            ],
            [
              89.24675421100011,
              23.79665968300003
            ],
            [
              89.24692588900012,
              23.796646164000094
            ],
            [
              89.24724031500017,
              23.796621408000192
            ],
            [
              89.24812418300013,
              23.79654442700013
            ],
            [
              89.24831323000006,
              23.796491079000134
            ],
            [
              89.24883207000016,
              23.79634465999999
            ],
            [
              89.2493628090001,
              23.796225306999986
            ],
            [
              89.24976150600014,
              23.79602403100006
            ],
            [
              89.24980871000014,
              23.79549588900005
            ],
            [
              89.24936750000006,
              23.79541244600017
            ],
            [
              89.24817489000014,
              23.79540664800004
            ],
            [
              89.24767935900007,
              23.795489646000135
            ],
            [
              89.24763950200008,
              23.795496317000072
            ],
            [
              89.24746749500014,
              23.795525126000086
            ],
            [
              89.24697245700003,
              23.795662645000164
            ],
            [
              89.24689235000011,
              23.795684897000058
            ],
            [
              89.24605219300014,
              23.795843368000078
            ],
            [
              89.24552309600011,
              23.795678209000016
            ],
            [
              89.24534899800011,
              23.795230272000026
            ],
            [
              89.24504380100018,
              23.79453783200006
            ],
            [
              89.24531892100003,
              23.7941313770001
            ],
            [
              89.24566499600013,
              23.794053134000137
            ],
            [
              89.24610833200006,
              23.79377080000006
            ],
            [
              89.24663953000015,
              23.793570173000035
            ],
            [
              89.24681880300011,
              23.79312395700009
            ],
            [
              89.24664423900009,
              23.792757308000034
            ],
            [
              89.24642620300017,
              23.79226851500016
            ],
            [
              89.24629604400013,
              23.79186144000016
            ],
            [
              89.24616635200005,
              23.791373079000152
            ],
            [
              89.24612546700013,
              23.790803865000157
            ],
            [
              89.24599577500004,
              23.790315502000112
            ],
            [
              89.24578033500018,
              23.78937963400017
            ],
            [
              89.24565181500003,
              23.78868806000014
            ],
            [
              89.24547819800011,
              23.78815883900012
            ],
            [
              89.24526276100016,
              23.78722297400003
            ],
            [
              89.24495828800013,
              23.786408603999973
            ],
            [
              89.24478631800008,
              23.7855948830001
            ],
            [
              89.24461364600018,
              23.784903088000135
            ],
            [
              89.24439633800017,
              23.784292365000113
            ],
            [
              89.2441790360001,
              23.783681641000044
            ],
            [
              89.24396220200009,
              23.78298962800011
            ],
            [
              89.24361170100013,
              23.782500186999982
            ],
            [
              89.24365704299998,
              23.782297187000097
            ],
            [
              89.24383487700015,
              23.782094839000024
            ],
            [
              89.24392508800008,
              23.781770127000186
            ],
            [
              89.2438828060001,
              23.78144476799997
            ],
            [
              89.2437965900001,
              23.781078550000075
            ],
            [
              89.24379870600006,
              23.780712764000157
            ],
            [
              89.24388891700016,
              23.780388053000024
            ],
            [
              89.24406768800014,
              23.78002313200011
            ],
            [
              89.24402681100003,
              23.779453912000122
            ],
            [
              89.24473506200013,
              23.779172879000043
            ],
            [
              89.24472166100014,
              23.77913939500013
            ],
            [
              89.24460447000013,
              23.778847081000094
            ],
            [
              89.24447385500008,
              23.77852128900014
            ],
            [
              89.24438787800017,
              23.778114429000027
            ],
            [
              89.2444783160002,
              23.777749073000166
            ],
            [
              89.24461245000009,
              23.777465222000046
            ],
            [
              89.24482995700004,
              23.777234188000136
            ],
            [
              89.24487907400015,
              23.77718201600004
            ],
            [
              89.24492628700006,
              23.776653874999965
            ],
            [
              89.2448414530001,
              23.776428867
            ],
            [
              89.24466530100011,
              23.77596165000017
            ],
            [
              89.24479870800008,
              23.77563191200005
            ],
            [
              89.24488408200017,
              23.775615001000176
            ],
            [
              89.24559571900016,
              23.775437838000187
            ],
            [
              89.24564929500019,
              23.775435017
            ],
            [
              89.24588860200015,
              23.775375442000154
            ],
            [
              89.24659544100012,
              23.775338248000082
            ],
            [
              89.24712039100001,
              23.77526036000006
            ],
            [
              89.24739107100004,
              23.77522019500003
            ],
            [
              89.24752172600012,
              23.775089330000128
            ],
            [
              89.24761706100008,
              23.77499384100014
            ],
            [
              89.24783527200015,
              23.77477527800005
            ],
            [
              89.24782501900006,
              23.774739125000167
            ],
            [
              89.24777024100018,
              23.774545978000106
            ],
            [
              89.24775007500011,
              23.774474872999974
            ],
            [
              89.2476621290001,
              23.774164771000073
            ],
            [
              89.24779672100004,
              23.773799628000177
            ],
            [
              89.2479743020001,
              23.77363792200009
            ],
            [
              89.24807034400004,
              23.773096463000172
            ],
            [
              89.24811123100011,
              23.772866346000058
            ],
            [
              89.24789322500004,
              23.772377556000095
            ],
            [
              89.24758759900016,
              23.77176640500005
            ],
            [
              89.24750161400004,
              23.77135954300013
            ],
            [
              89.24723968800004,
              23.77082989300004
            ],
            [
              89.24680135,
              23.770258740000088
            ],
            [
              89.24636535600018,
              23.769281155000158
            ],
            [
              89.24627983700015,
              23.769063979000123
            ],
            [
              89.24605662800002,
              23.768496585000037
            ],
            [
              89.24575624400006,
              23.76769305900018
            ],
            [
              89.24543993300006,
              23.767036846000167
            ],
            [
              89.24536349200008,
              23.766878259000066
            ],
            [
              89.24523570100007,
              23.766064752000034
            ],
            [
              89.2453695850001,
              23.765821541000037
            ],
            [
              89.24563712400015,
              23.765375766000034
            ],
            [
              89.24612133200009,
              23.76513573700015
            ],
            [
              89.24640668500012,
              23.76507574500016
            ],
            [
              89.24649637300007,
              23.764752837000117
            ],
            [
              89.24650111700015,
              23.76470351500012
            ],
            [
              89.24674118100012,
              23.76451515500014
            ],
            [
              89.24680766199998,
              23.76447572300009
            ],
            [
              89.24707349800013,
              23.764318075000176
            ],
            [
              89.24726150800007,
              23.764208353000186
            ],
            [
              89.2483537330001,
              23.764123349000045
            ],
            [
              89.25030577400008,
              23.764214122
            ],
            [
              89.25145045700003,
              23.764343856000096
            ],
            [
              89.2520269370001,
              23.76440761700013
            ],
            [
              89.2520652610001,
              23.764396663000127
            ],
            [
              89.25271838000003,
              23.764209999000116
            ],
            [
              89.25301857600016,
              23.76340985700017
            ],
            [
              89.25307338400012,
              23.763263350000045
            ],
            [
              89.25367004100019,
              23.762385725000172
            ],
            [
              89.2538904490001,
              23.76206152300017
            ],
            [
              89.25493626100013,
              23.760969176000117
            ],
            [
              89.25626905000018,
              23.760045297000147
            ],
            [
              89.25656432200009,
              23.759751969000035
            ],
            [
              89.25692274699998,
              23.759395902000165
            ],
            [
              89.2573706450001,
              23.758950946000084
            ],
            [
              89.25876951900005,
              23.757072220999987
            ],
            [
              89.26008065400009,
              23.75540982800004
            ],
            [
              89.26016713900003,
              23.75529960000017
            ],
            [
              89.2614517930001,
              23.752943862999985
            ],
            [
              89.26183384799998,
              23.75218699400017
            ],
            [
              89.26230495800007,
              23.75125258200012
            ],
            [
              89.26320333700005,
              23.74947066800013
            ],
            [
              89.26409725100012,
              23.74769755799997
            ],
            [
              89.26424426500006,
              23.747437099000024
            ],
            [
              89.26428029100003,
              23.74737327300005
            ],
            [
              89.26569224600001,
              23.7448713280001
            ],
            [
              89.26643977400005,
              23.74350651600014
            ],
            [
              89.26719112500018,
              23.743044926000152
            ],
            [
              89.2683441100001,
              23.74264394400018
            ],
            [
              89.26882031600002,
              23.74248666800014
            ],
            [
              89.26913812200007,
              23.74238170700005
            ],
            [
              89.26938183100003,
              23.742292087000124
            ],
            [
              89.27032753900016,
              23.742219779000152
            ],
            [
              89.27053699700008,
              23.74220358100007
            ],
            [
              89.27156589000003,
              23.742124009000065
            ],
            [
              89.27271326800008,
              23.742145522000158
            ],
            [
              89.2731739350001,
              23.742154157000073
            ],
            [
              89.27403333200004,
              23.742329807000033
            ],
            [
              89.27501009900016,
              23.742296006000174
            ],
            [
              89.27691526400014,
              23.741381395000076
            ],
            [
              89.27733506200008,
              23.741128740000022
            ],
            [
              89.27750137100003,
              23.74102864600013
            ],
            [
              89.27925656300016,
              23.739972261
            ],
            [
              89.28032538600019,
              23.73932895600018
            ],
            [
              89.28072463100011,
              23.738984016000018
            ],
            [
              89.28206444400001,
              23.737826422000182
            ],
            [
              89.28221058700012,
              23.737771710000118
            ],
            [
              89.28335598900003,
              23.737342905000048
            ],
            [
              89.2836789750001,
              23.737221986000065
            ],
            [
              89.28517495400018,
              23.736933105000105
            ],
            [
              89.28747447200004,
              23.73671340100003
            ],
            [
              89.29049508300011,
              23.736840194000138
            ],
            [
              89.29219892200013,
              23.73692110700017
            ],
            [
              89.29291604100001,
              23.736955156000022
            ],
            [
              89.29651970600003,
              23.738025597000046
            ],
            [
              89.296777168,
              23.738997388000087
            ],
            [
              89.29701159300015,
              23.738998454000182
            ],
            [
              89.29718727300013,
              23.738999251000166
            ],
            [
              89.29755182700006,
              23.740545404999978
            ],
            [
              89.2988565190002,
              23.740422618000082
            ],
            [
              89.29936136700007,
              23.741883597000083
            ],
            [
              89.29986958699999,
              23.742658147000043
            ],
            [
              89.30007883500008,
              23.742968435000137
            ],
            [
              89.30010358499999,
              23.743005136000022
            ],
            [
              89.30028621800011,
              23.743129705000115
            ],
            [
              89.30051924500015,
              23.74313075800012
            ],
            [
              89.30084517500006,
              23.743132233000154
            ],
            [
              89.30112343600013,
              23.743390907000048
            ],
            [
              89.30116699200016,
              23.743905936000147
            ],
            [
              89.30140001600006,
              23.74390698800005
            ],
            [
              89.30233060100005,
              23.744082800000058
            ],
            [
              89.30312236500004,
              23.744129276000137
            ],
            [
              89.30381577900005,
              23.744218203000116
            ],
            [
              89.30410563800012,
              23.745027929000173
            ],
            [
              89.3046926040002,
              23.746667604000038
            ],
            [
              89.30870278900011,
              23.745956247000038
            ],
            [
              89.30884192700006,
              23.746085575999984
            ],
            [
              89.30910515000005,
              23.74677263199999
            ],
            [
              89.30912443000005,
              23.74682295800011
            ],
            [
              89.30971487000005,
              23.748361062000185
            ],
            [
              89.31022701400019,
              23.748406249000084
            ],
            [
              89.31415623100008,
              23.748581798000146
            ],
            [
              89.31432754100007,
              23.748600620000104
            ],
            [
              89.31506541100003,
              23.74980257500016
            ],
            [
              89.31543396600006,
              23.750402925000117
            ],
            [
              89.31546197000006,
              23.750499267000066
            ],
            [
              89.31584604200003,
              23.75182053700013
            ],
            [
              89.3158456810001,
              23.751889632000086
            ],
            [
              89.31583887800014,
              23.753191134000133
            ],
            [
              89.31564885400007,
              23.75387673500012
            ],
            [
              89.31574005500005,
              23.75426326100012
            ],
            [
              89.31606332500019,
              23.754779524000128
            ],
            [
              89.31646731000012,
              23.755235076000133
            ],
            [
              89.31708104100016,
              23.755927138
            ],
            [
              89.31720318500015,
              23.756064870000046
            ],
            [
              89.31800862400007,
              23.756973901000038
            ],
            [
              89.31860978800012,
              23.757834607
            ],
            [
              89.31860822300007,
              23.758134922000067
            ],
            [
              89.31846772400007,
              23.75826300300014
            ],
            [
              89.31864992300012,
              23.759078959000135
            ],
            [
              89.31895858700011,
              23.759680269000114
            ],
            [
              89.320171808,
              23.76204368900011
            ],
            [
              89.32067488500019,
              23.763847812999984
            ],
            [
              89.3208747380001,
              23.76498899900008
            ],
            [
              89.32083618299998,
              23.76509044000005
            ],
            [
              89.32076361600014,
              23.765245924000112
            ],
            [
              89.32076055000005,
              23.76530462200003
            ],
            [
              89.32085132700018,
              23.7657769490001
            ],
            [
              89.3210821730001,
              23.766206989000125
            ],
            [
              89.32131492899998,
              23.76620801300004
            ],
            [
              89.32177973600017,
              23.766467470000123
            ],
            [
              89.3218679860002,
              23.767368812000086
            ],
            [
              89.32184424000019,
              23.767693602000122
            ],
            [
              89.32183927100004,
              23.767761584000084
            ],
            [
              89.32180682700005,
              23.767926275000093
            ],
            [
              89.32102665100012,
              23.767922850000105
            ],
            [
              89.3206901320001,
              23.767921371000057
            ],
            [
              89.32030614400014,
              23.76791968100008
            ],
            [
              89.31999978400017,
              23.767918333000182
            ],
            [
              89.31944237500016,
              23.76791587700012
            ],
            [
              89.31767194900004,
              23.767908066000132
            ],
            [
              89.31730001000005,
              23.76777771500008
            ],
            [
              89.31613616600004,
              23.76760095900005
            ],
            [
              89.31585768300005,
              23.767428112
            ],
            [
              89.31562618100003,
              23.767126767000036
            ],
            [
              89.31525402800008,
              23.76703931700007
            ],
            [
              89.31375310900017,
              23.767341895000072
            ],
            [
              89.31340187200016,
              23.767412699999966
            ],
            [
              89.31296838100008,
              23.767501093000135
            ],
            [
              89.31142855100018,
              23.76796616600012
            ],
            [
              89.31075286500004,
              23.768273426000178
            ],
            [
              89.31040509600018,
              23.768431570000075
            ],
            [
              89.31035166599997,
              23.768455866000124
            ],
            [
              89.31030770700016,
              23.768475996000063
            ],
            [
              89.31012056900016,
              23.768603863000067
            ],
            [
              89.31007237100005,
              23.76890397000011
            ],
            [
              89.31058054200008,
              23.769719129000123
            ],
            [
              89.31252166800016,
              23.772730959000114
            ],
            [
              89.31242730700006,
              23.772945052000125
            ],
            [
              89.31200334100015,
              23.773841858000083
            ],
            [
              89.31172183500013,
              23.774183824000147
            ],
            [
              89.31120394000015,
              23.77521117400005
            ],
            [
              89.31096799599999,
              23.77581075800009
            ],
            [
              89.31104865600014,
              23.775811117000046
            ],
            [
              89.31121204400011,
              23.775811845000135
            ],
            [
              89.31134062600012,
              23.775812418999976
            ],
            [
              89.31264709600003,
              23.775475020000044
            ],
            [
              89.31362566700011,
              23.77543647100015
            ],
            [
              89.31390447000013,
              23.77560931900007
            ],
            [
              89.31413567200008,
              23.775910666000016
            ],
            [
              89.31455298100008,
              23.77634154599997
            ],
            [
              89.31473891700017,
              23.776385269000116
            ],
            [
              89.31637214900013,
              23.77596348700007
            ],
            [
              89.31763146500003,
              23.775668737
            ],
            [
              89.31805213700005,
              23.775456084000098
            ],
            [
              89.3181690040002,
              23.775314109000135
            ],
            [
              89.3182483400002,
              23.77527400300005
            ],
            [
              89.31861257800017,
              23.77520114300006
            ],
            [
              89.31884535400002,
              23.775202167000145
            ],
            [
              89.31907710100012,
              23.77546060600008
            ],
            [
              89.31936351200011,
              23.7762375640001
            ],
            [
              89.31953649100012,
              23.776706806
            ],
            [
              89.31972206900019,
              23.776879234000035
            ],
            [
              89.32042057900009,
              23.776968112000134
            ],
            [
              89.32326494300008,
              23.776551583000014
            ],
            [
              89.32363757400009,
              23.77655321300017
            ],
            [
              89.32433586600013,
              23.776684978000162
            ],
            [
              89.32484791000019,
              23.776773022000157
            ],
            [
              89.32497997000013,
              23.776773599000137
            ],
            [
              89.32536039200016,
              23.77677526200017
            ],
            [
              89.32619699500003,
              23.77720793800006
            ],
            [
              89.32684955899998,
              23.777167887000076
            ],
            [
              89.32777954000011,
              23.777515161
            ],
            [
              89.32829136600003,
              23.77764609100018
            ],
            [
              89.32857107300015,
              23.77764730800004
            ],
            [
              89.32870960700006,
              23.77790532800003
            ],
            [
              89.32884771300013,
              23.77824689100015
            ],
            [
              89.32917373000004,
              23.778248308000173
            ],
            [
              89.32982467300013,
              23.77846564200007
            ],
            [
              89.32968385500004,
              23.779822365000143
            ],
            [
              89.32962882800018,
              23.78035251
            ],
            [
              89.32948391100018,
              23.781338645000176
            ],
            [
              89.32940494400015,
              23.781422711
            ],
            [
              89.32920296000015,
              23.78163773700004
            ],
            [
              89.32850331800012,
              23.781763405000163
            ],
            [
              89.32796827600009,
              23.781831407000084
            ],
            [
              89.32785051300004,
              23.781846373000064
            ],
            [
              89.32766345900018,
              23.782017162000102
            ],
            [
              89.32775440500006,
              23.78240368500019
            ],
            [
              89.32779728600019,
              23.78313095900012
            ],
            [
              89.3280275190001,
              23.78368969400009
            ],
            [
              89.32905320700007,
              23.783565447000058
            ],
            [
              89.32942594600007,
              23.78360996700019
            ],
            [
              89.32946984199998,
              23.784082088000048
            ],
            [
              89.32946632200009,
              23.78476851500011
            ],
            [
              89.3295567020001,
              23.78532664
            ],
            [
              89.33000576800009,
              23.78867273100019
            ],
            [
              89.33000071000004,
              23.789659468000025
            ],
            [
              89.32999960800015,
              23.789795245000164
            ],
            [
              89.32999559400014,
              23.790289725000036
            ],
            [
              89.32999488100018,
              23.790377494000097
            ],
            [
              89.32997246000019,
              23.790442883000082
            ],
            [
              89.32980981900016,
              23.790516689000185
            ],
            [
              89.32716542700018,
              23.79062894600014
            ],
            [
              89.32705965800005,
              23.790633435000075
            ],
            [
              89.32687236800018,
              23.790847123000162
            ],
            [
              89.326849895,
              23.791146817000083
            ],
            [
              89.32682988100015,
              23.79141370800005
            ],
            [
              89.32667218500006,
              23.79350395200015
            ],
            [
              89.32690088200007,
              23.794363
            ],
            [
              89.32713104800013,
              23.794878836000066
            ],
            [
              89.3273250690001,
              23.794879680000122
            ],
            [
              89.32745741300005,
              23.794880255000066
            ],
            [
              89.32769066600002,
              23.794795466000096
            ],
            [
              89.32779871600013,
              23.794631529000128
            ],
            [
              89.32783164400018,
              23.79458156900006
            ],
            [
              89.328004899,
              23.79453331600007
            ],
            [
              89.3284383310002,
              23.794412600000044
            ],
            [
              89.32862262200007,
              23.794842427000162
            ],
            [
              89.32875743700009,
              23.795827514000052
            ],
            [
              89.32861558000019,
              23.796213018000117
            ],
            [
              89.32851703900013,
              23.79724225000001
            ],
            [
              89.32865838200019,
              23.799722191000114
            ],
            [
              89.32868811800017,
              23.800243911000166
            ],
            [
              89.32946010500018,
              23.804151394000087
            ],
            [
              89.33088995300017,
              23.807467539000072
            ],
            [
              89.33099908800006,
              23.80772064100006
            ],
            [
              89.33116419900011,
              23.808103560000063
            ],
            [
              89.33118014600012,
              23.80813610300015
            ],
            [
              89.33310154000009,
              23.812056714999983
            ],
            [
              89.33300630800005,
              23.812442425000143
            ],
            [
              89.3331884590001,
              23.813299004000044
            ],
            [
              89.3341103940001,
              23.815276499000163
            ],
            [
              89.33416317300009,
              23.81540673400019
            ],
            [
              89.3342298840002,
              23.815571347
            ],
            [
              89.33424260100008,
              23.815602725000133
            ],
            [
              89.33475483400014,
              23.816866669999968
            ],
            [
              89.33521190300019,
              23.818625383000096
            ],
            [
              89.33544419500004,
              23.81879799400008
            ],
            [
              89.33577062100005,
              23.818799400000046
            ],
            [
              89.33605697800004,
              23.81889772400018
            ],
            [
              89.33623467800015,
              23.81918751900008
            ],
            [
              89.33623249600015,
              23.81961653500008
            ],
            [
              89.33604552600013,
              23.819701534000046
            ],
            [
              89.33608007000015,
              23.820177781000154
            ],
            [
              89.33608910600003,
              23.820302355000138
            ],
            [
              89.3354114220001,
              23.820541544000093
            ],
            [
              89.33531430300013,
              23.820575822000137
            ],
            [
              89.33524848600013,
              23.82059905200009
            ],
            [
              89.33501453300005,
              23.82081254999997
            ],
            [
              89.33501389400004,
              23.82093782200002
            ],
            [
              89.33501306900007,
              23.821099317000176
            ],
            [
              89.33501169100015,
              23.821370273000014
            ],
            [
              89.33611894500012,
              23.82360371100009
            ],
            [
              89.33657091600008,
              23.82515773200015
            ],
            [
              89.33662239800009,
              23.825334738000038
            ],
            [
              89.3366686550001,
              23.825493783000127
            ],
            [
              89.33666754000012,
              23.825712349000128
            ],
            [
              89.33666734300016,
              23.825751195000123
            ],
            [
              89.3364799310001,
              23.825921993000065
            ],
            [
              89.33516599400019,
              23.826192482000124
            ],
            [
              89.3348468710002,
              23.826258176000067
            ],
            [
              89.3349370910002,
              23.826856943000166
            ],
            [
              89.3350715310001,
              23.82793008100009
            ],
            [
              89.3352172110001,
              23.828743561000124
            ],
            [
              89.33524635500004,
              23.828906298000163
            ],
            [
              89.33547936700012,
              23.830205665000108
            ],
            [
              89.33547740000006,
              23.830591777000052
            ],
            [
              89.33570819100004,
              23.83106244000004
            ],
            [
              89.33603325500013,
              23.831278353000016
            ],
            [
              89.33659171900013,
              23.83145236600012
            ],
            [
              89.33775660000015,
              23.831543179000107
            ],
            [
              89.3386350520002,
              23.83148372800008
            ],
            [
              89.33890713400012,
              23.831464953000022
            ],
            [
              89.33952854800003,
              23.831422074000102
            ],
            [
              89.33966637700019,
              23.831592016000172
            ],
            [
              89.33980424700019,
              23.832238401000097
            ],
            [
              89.33984784400019,
              23.83283921900005
            ],
            [
              89.33989004900019,
              23.83365454699998
            ],
            [
              89.3400724760001,
              23.834470474000113
            ],
            [
              89.34074784400019,
              23.835620439000138
            ],
            [
              89.34145911300016,
              23.83683377900013
            ],
            [
              89.34173820500018,
              23.836920772000155
            ],
            [
              89.3427635270001,
              23.83701095100008
            ],
            [
              89.34294869900015,
              23.837226255000132
            ],
            [
              89.34304024800014,
              23.837569867000127
            ],
            [
              89.34280627700008,
              23.837783375000015
            ],
            [
              89.34266484500012,
              23.838083092000034
            ],
            [
              89.34372918200012,
              23.839629854000123
            ],
            [
              89.34410027000013,
              23.83997465400006
            ],
            [
              89.34489048000012,
              23.840449943000067
            ],
            [
              89.34791564300008,
              23.841449523000165
            ],
            [
              89.34824096400007,
              23.84162251000015
            ],
            [
              89.34837938800013,
              23.841923414000178
            ],
            [
              89.34856423600019,
              23.84226741500015
            ],
            [
              89.3487033020001,
              23.84243961300018
            ],
            [
              89.35052941400005,
              23.842279685000108
            ],
            [
              89.35075450500011,
              23.842405367000026
            ],
            [
              89.35089336000016,
              23.842620462000127
            ],
            [
              89.3508895170001,
              23.843392689000154
            ],
            [
              89.35092869400006,
              23.84489217800018
            ],
            [
              89.35092500600007,
              23.845632795000085
            ],
            [
              89.3509231380001,
              23.846007616000065
            ],
            [
              89.35082697100006,
              23.84714509600002
            ],
            [
              89.35080672900017,
              23.847384518000126
            ],
            [
              89.35077445100018,
              23.847765987000173
            ],
            [
              89.3507214060001,
              23.84905057700007
            ],
            [
              89.3505774140001,
              23.849865113000135
            ],
            [
              89.35038879400014,
              23.85033624400012
            ],
            [
              89.35010593200019,
              23.850935683000046
            ],
            [
              89.35010664300017,
              23.85119837000002
            ],
            [
              89.35038087900011,
              23.851923597999985
            ],
            [
              89.35060996000016,
              23.852694547000112
            ],
            [
              89.35097286400014,
              23.853483763000042
            ],
            [
              89.35116340900004,
              23.853898143000038
            ],
            [
              89.35117508500008,
              23.854004944999986
            ],
            [
              89.35119921800003,
              23.85422570600008
            ],
            [
              89.35134187800014,
              23.85552918400009
            ],
            [
              89.35136083700019,
              23.856717859000128
            ],
            [
              89.35136713000009,
              23.857112405000066
            ],
            [
              89.35137742700016,
              23.85775799400011
            ],
            [
              89.35126746999998,
              23.86110390900012
            ],
            [
              89.35120198300018,
              23.861311113
            ],
            [
              89.35117268000016,
              23.861403828000164
            ],
            [
              89.35114650600013,
              23.861543715000096
            ],
            [
              89.35107682800003,
              23.861915992000036
            ],
            [
              89.35102877600013,
              23.86225900700009
            ],
            [
              89.35107362100007,
              23.862559514
            ],
            [
              89.35122682400004,
              23.862661132000085
            ],
            [
              89.35139909300017,
              23.86277539500003
            ],
            [
              89.35163032100007,
              23.863119587000085
            ],
            [
              89.35162797400017,
              23.863591506000148
            ],
            [
              89.35251249800018,
              23.863895537000133
            ],
            [
              89.35321001000017,
              23.864284591
            ],
            [
              89.35348896000016,
              23.864414470000042
            ],
            [
              89.35358098000012,
              23.864672270000028
            ],
            [
              89.35367278900014,
              23.864972975000114
            ],
            [
              89.35390561000014,
              23.865059755
            ],
            [
              89.35420515800007,
              23.865070484000114
            ],
            [
              89.35424036200016,
              23.86507063200014
            ],
            [
              89.35428907300019,
              23.865070842000137
            ],
            [
              89.35456557100014,
              23.865072006000048
            ],
            [
              89.35522707500013,
              23.865359287000103
            ],
            [
              89.35542789700008,
              23.865528749000134
            ],
            [
              89.35550600700014,
              23.865594651000038
            ],
            [
              89.35571118100006,
              23.865767760999972
            ],
            [
              89.3561065190001,
              23.86625714700017
            ],
            [
              89.35622837100004,
              23.866384402000108
            ],
            [
              89.35645824800014,
              23.866624420999983
            ],
            [
              89.35683665900012,
              23.866765459000135
            ],
            [
              89.35689024700008,
              23.866785445000176
            ],
            [
              89.35694137600018,
              23.866813676000106
            ],
            [
              89.3573841110001,
              23.867075380000074
            ],
            [
              89.35733630600015,
              23.867806777000112
            ],
            [
              89.357335895,
              23.86788994799997
            ],
            [
              89.35732971800013,
              23.869137465000108
            ],
            [
              89.35732942500005,
              23.86919663800012
            ],
            [
              89.35732839000019,
              23.869406399000127
            ],
            [
              89.35732806100009,
              23.86947316300018
            ],
            [
              89.35772281400017,
              23.870084474
            ],
            [
              89.35792043800018,
              23.870313742000178
            ],
            [
              89.35794604200015,
              23.87034342100003
            ],
            [
              89.358249318,
              23.870873013000164
            ],
            [
              89.35881835000004,
              23.871039189000044
            ],
            [
              89.35923842300008,
              23.870998036000117
            ],
            [
              89.3594255660002,
              23.870827210000186
            ],
            [
              89.35945479800012,
              23.870774047000168
            ],
            [
              89.35951971500003,
              23.870655988000067
            ],
            [
              89.35962030200011,
              23.870702026000117
            ],
            [
              89.36023982700016,
              23.870542030000024
            ],
            [
              89.36068158900008,
              23.870584509000082
            ],
            [
              89.36073491600013,
              23.870614236000165
            ],
            [
              89.36084977200005,
              23.870678260000147
            ],
            [
              89.36088602500013,
              23.870698469000104
            ],
            [
              89.361015507,
              23.870770646000153
            ],
            [
              89.36112232700015,
              23.87083019900018
            ],
            [
              89.3611721490002,
              23.870870662000073
            ],
            [
              89.36124233100014,
              23.870927651000045
            ],
            [
              89.36136134800012,
              23.87102429500004
            ],
            [
              89.36147447900015,
              23.871116183000026
            ],
            [
              89.36165488300014,
              23.87110418200018
            ],
            [
              89.36194184100009,
              23.87118087300007
            ],
            [
              89.36226819300009,
              23.871225129000152
            ],
            [
              89.36278063500004,
              23.871313055000144
            ],
            [
              89.36342048200015,
              23.871399867000036
            ],
            [
              89.36375907600006,
              23.87144580500012
            ],
            [
              89.36384052500017,
              23.8716742040001
            ],
            [
              89.36366304600011,
              23.871973208000156
            ],
            [
              89.36364862300007,
              23.871997506000014
            ],
            [
              89.36356911200016,
              23.872131458000126
            ],
            [
              89.36310185500014,
              23.87234403900004
            ],
            [
              89.36268166000013,
              23.872471009000037
            ],
            [
              89.36257803400008,
              23.872511342999985
            ],
            [
              89.36235446600006,
              23.872598359999984
            ],
            [
              89.3621662700001,
              23.87298370100018
            ],
            [
              89.36211751500008,
              23.873412520000045
            ],
            [
              89.36206813300004,
              23.87397004600018
            ],
            [
              89.36198314600006,
              23.874464200000034
            ],
            [
              89.36197209400018,
              23.874527377
            ],
            [
              89.36190904100005,
              23.874618622000185
            ],
            [
              89.36186179100002,
              23.874686999000062
            ],
            [
              89.36173715600012,
              23.8748673610001
            ],
            [
              89.36145712300015,
              23.87495200900014
            ],
            [
              89.35958833600012,
              23.87567358100017
            ],
            [
              89.359074825,
              23.875800151000135
            ],
            [
              89.35860859700017,
              23.875798207000173
            ],
            [
              89.35842240500006,
              23.875711632000048
            ],
            [
              89.35835959600007,
              23.87574976000019
            ],
            [
              89.35814164300007,
              23.875882068000124
            ],
            [
              89.35781326000017,
              23.87630972000011
            ],
            [
              89.35771910500011,
              23.87648093500019
            ],
            [
              89.3588623060001,
              23.87795685100008
            ],
            [
              89.35902614200018,
              23.878168366000068
            ],
            [
              89.35938713700011,
              23.878634643000055
            ],
            [
              89.35968300600018,
              23.879355131000125
            ],
            [
              89.35975596800017,
              23.87953322200002
            ],
            [
              89.36027235500018,
              23.880864292000012
            ],
            [
              89.36072288100013,
              23.88202556900012
            ],
            [
              89.36090507800003,
              23.88292727300012
            ],
            [
              89.36091350700008,
              23.883034136000163
            ],
            [
              89.36099292199998,
              23.88404083900008
            ],
            [
              89.36081529200004,
              23.88442790500011
            ],
            [
              89.36075711100011,
              23.884554686
            ],
            [
              89.35902329600009,
              23.885324723000053
            ],
            [
              89.35874736300008,
              23.885447270000157
            ],
            [
              89.35865108800004,
              23.886047502999986
            ],
            [
              89.35854723100005,
              23.886142225000185
            ],
            [
              89.35850377800011,
              23.886159151000186
            ],
            [
              89.35845456500005,
              23.88617832100016
            ],
            [
              89.35845701200014,
              23.88622450800017
            ],
            [
              89.35848383200005,
              23.886730688000114
            ],
            [
              89.35839204400008,
              23.886751381000124
            ],
            [
              89.35817831600019,
              23.886812462000137
            ],
            [
              89.35755101000012,
              23.886991738000063
            ],
            [
              89.35679897800009,
              23.88711052900004
            ],
            [
              89.35609034300018,
              23.88739207400016
            ],
            [
              89.355471116,
              23.887470769000174
            ],
            [
              89.35538012500001,
              23.887198711000053
            ],
            [
              89.35533943900003,
              23.887077102000035
            ],
            [
              89.35525330900003,
              23.886819556000034
            ],
            [
              89.35473213300008,
              23.886131917000057
            ],
            [
              89.35344811400012,
              23.886003533000064
            ],
            [
              89.35298378800007,
              23.885957104000056
            ],
            [
              89.35215042800007,
              23.88600558800016
            ]
          ]
        ]
      }
    }
  ]
}