{
  "type": "FeatureCollection",
  "features": [
    {
      "type": "Feature",
      "properties": {
        "adm3_name": "Sreepur",
        "adm3_name1": null,
        "adm3_name2": null,
        "adm3_name3": null,
        "adm3_pcode": "BD40550095",
        "adm2_name": "Magura",
        "adm2_name1": null,
        "adm2_name2": null,
        "adm2_name3": null,
        "adm2_pcode": "BD4055",
        "adm1_name": "Khulna",
        "adm1_name1": null,
        "adm1_name2": null,
        "adm1_name3": null,
        "adm1_pcode": "BD40",
        "adm0_name": "Bangladesh",
        "adm0_name1": null,
        "adm0_name2": null,
        "adm0_name3": null,
        "adm0_pcode": "BD",
        "valid_on": "2023-05-21",
        "valid_to": null,
        "area_sqkm": 185.09843159,
        "version": "v03",
        "lang": "en",
        "lang1": null,
        "lang2": null,
        "lang3": null,
        "adm3_ref_name": null,
        "center_lat": 23.59766202,
        "center_lon": 89.42412163
      },
      "geometry": {
        "type": "Polygon",
        "coordinates": [
          [
            [
              89.4299818390001,
              23.667415591
            ],
            [
              89.4275654540001,
              23.668628691000038
            ],
            [
              89.42667376400004,
              23.669108632000018
            ],
            [
              89.42508623900005,
              23.669963077000148
            ],
            [
              89.42482721900012,
              23.67011827099998
            ],
            [
              89.42235738300008,
              23.67159806000012
            ],
            [
              89.42213096000006,
              23.671733717000052
            ],
            [
              89.4216847880001,
              23.672005281000168
            ],
            [
              89.41978795500006,
              23.673149814000112
            ],
            [
              89.41943411400001,
              23.67348839100015
            ],
            [
              89.41842454900006,
              23.67445439200003
            ],
            [
              89.41728246999998,
              23.675671723000107
            ],
            [
              89.41666139700004,
              23.67659414700006
            ],
            [
              89.41645311600013,
              23.676903486000185
            ],
            [
              89.41605052,
              23.677501413000186
            ],
            [
              89.41566126700008,
              23.678079518000118
            ],
            [
              89.41552918600007,
              23.67824371500012
            ],
            [
              89.41529954500015,
              23.678529192000042
            ],
            [
              89.41421207300004,
              23.67988105600017
            ],
            [
              89.41416904800013,
              23.679934541000023
            ],
            [
              89.41312716500016,
              23.681001486000127
            ],
            [
              89.41128225500012,
              23.682890716000145
            ],
            [
              89.41007886800008,
              23.683669694000116
            ],
            [
              89.40936045100011,
              23.683950113000094
            ],
            [
              89.40921950200004,
              23.68400512900007
            ],
            [
              89.40864438900019,
              23.684104547000118
            ],
            [
              89.40766624900004,
              23.684134682000035
            ],
            [
              89.4068048900001,
              23.684162998000033
            ],
            [
              89.40603664000014,
              23.68413747300019
            ],
            [
              89.403733826,
              23.683701846000076
            ],
            [
              89.40271133900006,
              23.683442743000057
            ],
            [
              89.40216593100007,
              23.6833056050001
            ],
            [
              89.40157128700008,
              23.683156084000075
            ],
            [
              89.39981370700013,
              23.682589482000083
            ],
            [
              89.39956492400006,
              23.682509278
            ],
            [
              89.39901407000013,
              23.682331015000102
            ],
            [
              89.397573121,
              23.681833154
            ],
            [
              89.39594564499998,
              23.681311976000075
            ],
            [
              89.39376036400012,
              23.680463431000135
            ],
            [
              89.39255059200019,
              23.680186867000145
            ],
            [
              89.3922026410001,
              23.680107320000047
            ],
            [
              89.39138551899998,
              23.67992120800011
            ],
            [
              89.3902530630001,
              23.679661597
            ],
            [
              89.38728950500018,
              23.67834933000006
            ],
            [
              89.38692913600016,
              23.678189752000037
            ],
            [
              89.38659699800019,
              23.678041662
            ],
            [
              89.38644285400005,
              23.67797331400004
            ],
            [
              89.38569973300014,
              23.677629399000125
            ],
            [
              89.38360502800009,
              23.677492364000045
            ],
            [
              89.38221088000017,
              23.67697197400014
            ],
            [
              89.38167884900014,
              23.676744752
            ],
            [
              89.38109542400008,
              23.676495578000186
            ],
            [
              89.3803991220002,
              23.676106665000077
            ],
            [
              89.38012084299999,
              23.675848130000077
            ],
            [
              89.38007507000003,
              23.675676335000162
            ],
            [
              89.38007648700005,
              23.675376016000087
            ],
            [
              89.38030669300014,
              23.675040482000043
            ],
            [
              89.38124325200005,
              23.67478003100007
            ],
            [
              89.38135145900003,
              23.674760538000157
            ],
            [
              89.3824081950001,
              23.674570161000133
            ],
            [
              89.38250298400004,
              23.674525350000067
            ],
            [
              89.38366810900004,
              23.673974531000056
            ],
            [
              89.38385604400008,
              23.673632052000016
            ],
            [
              89.3839038220001,
              23.673377079000147
            ],
            [
              89.383859654,
              23.67286206099999
            ],
            [
              89.38367574400007,
              23.672346488000073
            ],
            [
              89.38321265700006,
              23.671829802000104
            ],
            [
              89.38223930500016,
              23.67092495100013
            ],
            [
              89.38126444900013,
              23.670277506000104
            ],
            [
              89.38047603200016,
              23.669673709000165
            ],
            [
              89.37978006500003,
              23.669156083000132
            ],
            [
              89.37940822500019,
              23.66898523600014
            ],
            [
              89.37819979500006,
              23.668551360000095
            ],
            [
              89.37634078500008,
              23.667857431000186
            ],
            [
              89.37604350400005,
              23.66777337600007
            ],
            [
              89.37575747600005,
              23.66769250200008
            ],
            [
              89.37308636500006,
              23.666943328000116
            ],
            [
              89.37155079300004,
              23.666808397000068
            ],
            [
              89.36992011600006,
              23.667016293000188
            ],
            [
              89.36846994400014,
              23.667291481000063
            ],
            [
              89.36814938200007,
              23.667352309000137
            ],
            [
              89.36668652500009,
              23.668124826000167
            ],
            [
              89.36637574800005,
              23.668288941000185
            ],
            [
              89.3659287980002,
              23.668631923000135
            ],
            [
              89.365879484,
              23.666245166000067
            ],
            [
              89.36589024,
              23.6651590780001
            ],
            [
              89.36599292000017,
              23.66394691199997
            ],
            [
              89.36721824500006,
              23.663845786000138
            ],
            [
              89.3678964570002,
              23.664024686
            ],
            [
              89.36815350700016,
              23.664108813000155
            ],
            [
              89.36857415500015,
              23.664246482000067
            ],
            [
              89.36979745500008,
              23.66431242900012
            ],
            [
              89.36995854600019,
              23.66430383200003
            ],
            [
              89.37038719800012,
              23.664280956000084
            ],
            [
              89.37242304900008,
              23.66469566800015
            ],
            [
              89.37369030000008,
              23.664928861000135
            ],
            [
              89.37432457900002,
              23.66494045500002
            ],
            [
              89.37459909400013,
              23.66469543300019
            ],
            [
              89.37500965900006,
              23.664450957000042
            ],
            [
              89.37550869900014,
              23.664419098000167
            ],
            [
              89.37596207700017,
              23.664387053999974
            ],
            [
              89.3764184920002,
              23.66410211400006
            ],
            [
              89.37647426799998,
              23.66394020600012
            ],
            [
              89.37648840500003,
              23.663899168000114
            ],
            [
              89.37660522700008,
              23.663560927000105
            ],
            [
              89.37652056600012,
              23.66293284000011
            ],
            [
              89.37611635500014,
              23.6625495990001
            ],
            [
              89.37566680300006,
              23.662163914000075
            ],
            [
              89.37554072900014,
              23.661158560000047
            ],
            [
              89.37547531400014,
              23.66102003100019
            ],
            [
              89.37535727700003,
              23.660770065000122
            ],
            [
              89.3751411770001,
              23.6603124290001
            ],
            [
              89.37473747900009,
              23.659888539
            ],
            [
              89.3743618470001,
              23.659720790999984
            ],
            [
              89.37415068700005,
              23.65962649300019
            ],
            [
              89.37378736500017,
              23.659557454000094
            ],
            [
              89.37365288100006,
              23.65953189900017
            ],
            [
              89.37356733600018,
              23.65902800000015
            ],
            [
              89.373571788,
              23.658578225000156
            ],
            [
              89.37357974000014,
              23.657774817000075
            ],
            [
              89.3732686730001,
              23.65714129800017
            ],
            [
              89.37268067800017,
              23.65700569100005
            ],
            [
              89.37231892400007,
              23.656913905000124
            ],
            [
              89.3722147950001,
              23.656834589000084
            ],
            [
              89.37186889300006,
              23.656571111000176
            ],
            [
              89.37193501100006,
              23.65606547600015
            ],
            [
              89.37196716700004,
              23.65581956700015
            ],
            [
              89.3720644170001,
              23.65515382800004
            ],
            [
              89.37200228500012,
              23.655074543000126
            ],
            [
              89.37179577700005,
              23.654814027999976
            ],
            [
              89.37143301700007,
              23.654805783000086
            ],
            [
              89.37107297400001,
              23.654549161000034
            ],
            [
              89.37048550600008,
              23.654370644000096
            ],
            [
              89.36989804000018,
              23.654192128000034
            ],
            [
              89.36943730900015,
              23.653832850000185
            ],
            [
              89.36940318800009,
              23.653806242000087
            ],
            [
              89.36886835900015,
              23.652875994000055
            ],
            [
              89.3687409310001,
              23.65203772900003
            ],
            [
              89.36833820000004,
              23.65148511600006
            ],
            [
              89.367983546,
              23.650684308000052
            ],
            [
              89.36776129000009,
              23.650261142000033
            ],
            [
              89.36722111300008,
              23.64987506400007
            ],
            [
              89.36693513200015,
              23.649214214000096
            ],
            [
              89.36691080000008,
              23.64915798600009
            ],
            [
              89.366781162,
              23.64852745200011
            ],
            [
              89.36671097800007,
              23.64785164300008
            ],
            [
              89.36669858100004,
              23.647732270000063
            ],
            [
              89.36661571000019,
              23.646934828000155
            ],
            [
              89.36657743000006,
              23.646825279000097
            ],
            [
              89.36656181500007,
              23.646780591000095
            ],
            [
              89.36643950500007,
              23.646430557000087
            ],
            [
              89.36621624700007,
              23.64609093100006
            ],
            [
              89.36610112700015,
              23.646072397000125
            ],
            [
              89.36567314100012,
              23.64599838700002
            ],
            [
              89.36508155899998,
              23.646237580000047
            ],
            [
              89.36426153000008,
              23.646640676000175
            ],
            [
              89.36330577000007,
              23.647040952000054
            ],
            [
              89.36253351300019,
              23.64719358600007
            ],
            [
              89.36208334500009,
              23.646891409000034
            ],
            [
              89.36172772400005,
              23.64617413400009
            ],
            [
              89.36159515600008,
              23.645837135000193
            ],
            [
              89.36118961900019,
              23.645620947000054
            ],
            [
              89.3608220220001,
              23.64552215599997
            ],
            [
              89.36064847000011,
              23.645316133999984
            ],
            [
              89.36056368600003,
              23.644730943000184
            ],
            [
              89.36060108300018,
              23.64428958400015
            ],
            [
              89.36065264700017,
              23.64368101000008
            ],
            [
              89.36066639300009,
              23.643518775000075
            ],
            [
              89.36055065599999,
              23.643276663999984
            ],
            [
              89.36044467200014,
              23.643054955000025
            ],
            [
              89.36017334000007,
              23.642965773000128
            ],
            [
              89.35994693400016,
              23.642962581000063
            ],
            [
              89.35976923700008,
              23.64258248800013
            ],
            [
              89.35968130800018,
              23.64232922100001
            ],
            [
              89.35946244800004,
              23.641531213000064
            ],
            [
              89.35914884100009,
              23.641188948000092
            ],
            [
              89.35883247500004,
              23.641099575000055
            ],
            [
              89.35828817900011,
              23.641131193000035
            ],
            [
              89.35806248800003,
              23.64104445100014
            ],
            [
              89.35792963000006,
              23.640707447000125
            ],
            [
              89.35793361300011,
              23.640330366000114
            ],
            [
              89.35766523900008,
              23.639949894999972
            ],
            [
              89.35739595400008,
              23.639693619000127
            ],
            [
              89.35717201200004,
              23.63943752700004
            ],
            [
              89.35713035000015,
              23.639060256
            ],
            [
              89.3569972950001,
              23.638763894000192
            ],
            [
              89.35668093600009,
              23.638674518000073
            ],
            [
              89.3564091930001,
              23.63867113500004
            ],
            [
              89.35609007400006,
              23.638832390000175
            ],
            [
              89.35586021500012,
              23.639161114
            ],
            [
              89.35572050800005,
              23.639535374000047
            ],
            [
              89.35549237000015,
              23.63969926900006
            ],
            [
              89.35513067400007,
              23.639607443000102
            ],
            [
              89.35500999400006,
              23.639447383000174
            ],
            [
              89.35490694000003,
              23.639310703000035
            ],
            [
              89.35489752200016,
              23.63923549800012
            ],
            [
              89.35482290800019,
              23.638639703000138
            ],
            [
              89.3548165160002,
              23.63852838100013
            ],
            [
              89.35478451600005,
              23.637971151000045
            ],
            [
              89.35473508000001,
              23.637780724000038
            ],
            [
              89.35456621000009,
              23.63713023700012
            ],
            [
              89.35448096100004,
              23.63658342800005
            ],
            [
              89.354572867,
              23.636459615000035
            ],
            [
              89.35525070600005,
              23.636681467000074
            ],
            [
              89.35606426300012,
              23.63690613900002
            ],
            [
              89.35642738000007,
              23.63683087100003
            ],
            [
              89.35679326400015,
              23.63650270900007
            ],
            [
              89.35681600400011,
              23.636212098999977
            ],
            [
              89.35684554800002,
              23.635834531
            ],
            [
              89.35680633700008,
              23.635206624000034
            ],
            [
              89.35681032100007,
              23.63482954200009
            ],
            [
              89.3570832750001,
              23.63470873600005
            ],
            [
              89.35740207700019,
              23.634547473999987
            ],
            [
              89.35746359900008,
              23.634278251000012
            ],
            [
              89.35749693200012,
              23.63413237900005
            ],
            [
              89.35754625800013,
              23.63375548500011
            ],
            [
              89.3572947020001,
              23.63313347100018
            ],
            [
              89.35710558400007,
              23.63266541700017
            ],
            [
              89.35683203400015,
              23.63268665800007
            ],
            [
              89.35674078500017,
              23.632695364000085
            ],
            [
              89.3563796160002,
              23.632562898000117
            ],
            [
              89.35606398400006,
              23.6323899730001
            ],
            [
              89.3559618700001,
              23.632095999000114
            ],
            [
              89.35593196200011,
              23.632010065000145
            ],
            [
              89.35584274900009,
              23.631754421000096
            ],
            [
              89.35566759900018,
              23.631252513000163
            ],
            [
              89.35562993100007,
              23.630498156000158
            ],
            [
              89.35563778900001,
              23.62970560100007
            ],
            [
              89.35559890100018,
              23.62907543400007
            ],
            [
              89.35564791500013,
              23.62870079400011
            ],
            [
              89.35568145399998,
              23.627936117
            ],
            [
              89.35570653600013,
              23.62736425100013
            ],
            [
              89.35568154800018,
              23.62729264600017
            ],
            [
              89.3554543350001,
              23.62664152100018
            ],
            [
              89.35548882600006,
              23.626350760000037
            ],
            [
              89.35531270200005,
              23.62584421600002
            ],
            [
              89.35520220100005,
              23.62570197399998
            ],
            [
              89.35522664100012,
              23.62551514400019
            ],
            [
              89.3552761730001,
              23.62509760800009
            ],
            [
              89.35510005100014,
              23.62459106400007
            ],
            [
              89.35447354100017,
              23.623784580000176
            ],
            [
              89.35394189200014,
              23.622563005000075
            ],
            [
              89.35363713900006,
              23.621255965000103
            ],
            [
              89.353423168,
              23.620083722000174
            ],
            [
              89.3534241640001,
              23.61998184700019
            ],
            [
              89.35342932400016,
              23.61945374100003
            ],
            [
              89.35343447500014,
              23.618868850000013
            ],
            [
              89.3533551000001,
              23.61823601500015
            ],
            [
              89.35327261700007,
              23.617852032000087
            ],
            [
              89.35322116999998,
              23.61761253500009
            ],
            [
              89.35310710100009,
              23.616699793000066
            ],
            [
              89.35309530300015,
              23.61660716200015
            ],
            [
              89.3529700150001,
              23.616577761000087
            ],
            [
              89.35250752200011,
              23.61646922400007
            ],
            [
              89.35209982800012,
              23.61646300900003
            ],
            [
              89.35192477700014,
              23.61637750700004
            ],
            [
              89.35191858700017,
              23.61632805900001
            ],
            [
              89.35183212600003,
              23.615907693000054
            ],
            [
              89.35151756700003,
              23.61565121600006
            ],
            [
              89.35147961700005,
              23.61561479000011
            ],
            [
              89.35133798900006,
              23.61547885100009
            ],
            [
              89.35111234800013,
              23.615392100000122
            ],
            [
              89.35079676500004,
              23.6152191650001
            ],
            [
              89.3503892870001,
              23.61517004100017
            ],
            [
              89.3496635670001,
              23.615239262000102
            ],
            [
              89.34902902400006,
              23.61526821500007
            ],
            [
              89.34880235800017,
              23.615265006000072
            ],
            [
              89.3484872950001,
              23.615049165000073
            ],
            [
              89.34834743600015,
              23.61472908000019
            ],
            [
              89.34826587800018,
              23.614542426000185
            ],
            [
              89.34787351600005,
              23.612987213
            ],
            [
              89.34786640700008,
              23.612953221000055
            ],
            [
              89.34762339900004,
              23.611791202000063
            ],
            [
              89.3473115540001,
              23.610299987000076
            ],
            [
              89.34722864000014,
              23.609666774000175
            ],
            [
              89.34720736000014,
              23.60956501400011
            ],
            [
              89.34709899700016,
              23.60904682000006
            ],
            [
              89.34684665100008,
              23.607119612000076
            ],
            [
              89.34685456800008,
              23.606324799000163
            ],
            [
              89.34690858500005,
              23.605685716000096
            ],
            [
              89.34700197600006,
              23.60519637600015
            ],
            [
              89.34696013800016,
              23.604862001000072
            ],
            [
              89.34682713900003,
              23.604565632000174
            ],
            [
              89.34653058600014,
              23.604232864000153
            ],
            [
              89.34633428400002,
              23.604012586000067
            ],
            [
              89.34629266200017,
              23.603635309000026
            ],
            [
              89.34629790500014,
              23.60313403600003
            ],
            [
              89.3463959680002,
              23.602382506000026
            ],
            [
              89.34649556700015,
              23.60150678700012
            ],
            [
              89.34645867500012,
              23.60066888000017
            ],
            [
              89.3464200250001,
              23.600000324000064
            ],
            [
              89.3464249610002,
              23.599499049000087
            ],
            [
              89.346420949,
              23.59946675300006
            ],
            [
              89.34638313700009,
              23.599162417000116
            ],
            [
              89.34638510600018,
              23.598857583000097
            ],
            [
              89.34634552700015,
              23.598408056000153
            ],
            [
              89.34625200000016,
              23.598275403000116
            ],
            [
              89.346166686,
              23.598154398000133
            ],
            [
              89.3458509510001,
              23.598022099000104
            ],
            [
              89.34544475900009,
              23.597848772000077
            ],
            [
              89.34476671700008,
              23.597710430000177
            ],
            [
              89.34436156400005,
              23.59745129600003
            ],
            [
              89.34417886800003,
              23.59714431700013
            ],
            [
              89.34400617000017,
              23.59673398000018
            ],
            [
              89.34392076900008,
              23.596230067000135
            ],
            [
              89.34397001600018,
              23.595812527000078
            ],
            [
              89.34388687800003,
              23.595100879000142
            ],
            [
              89.34380220400016,
              23.594513416000154
            ],
            [
              89.34377318200006,
              23.594271123000055
            ],
            [
              89.34367664000007,
              23.5934651340001
            ],
            [
              89.34354591800007,
              23.592961028000104
            ],
            [
              89.34341344800015,
              23.592624014000137
            ],
            [
              89.34332579800014,
              23.5923278300001
            ],
            [
              89.3430578650001,
              23.591947340000104
            ],
            [
              89.34265470100013,
              23.59147820900006
            ],
            [
              89.34225131100015,
              23.591054236000105
            ],
            [
              89.3419836000001,
              23.590630840000074
            ],
            [
              89.34178703000003,
              23.590224761000115
            ],
            [
              89.34171744000014,
              23.590080999000122
            ],
            [
              89.3415408940001,
              23.589617340000018
            ],
            [
              89.34129771100015,
              23.589174780000178
            ],
            [
              89.34121007100015,
              23.589015287000052
            ],
            [
              89.34100702200016,
              23.58864635900005
            ],
            [
              89.34096541900016,
              23.588269076000017
            ],
            [
              89.34101321900005,
              23.588018633
            ],
            [
              89.34110510400012,
              23.58789482700007
            ],
            [
              89.34133295500004,
              23.58777385600007
            ],
            [
              89.34187827400012,
              23.58761584399997
            ],
            [
              89.34251371500005,
              23.587503371000025
            ],
            [
              89.34314988500006,
              23.58730509300011
            ],
            [
              89.34460132999999,
              23.587166702000104
            ],
            [
              89.34532762600008,
              23.587011699000186
            ],
            [
              89.34576535600002,
              23.58680244200019
            ],
            [
              89.34582863100002,
              23.58677219300006
            ],
            [
              89.34596954200003,
              23.58627149200015
            ],
            [
              89.34574663500018,
              23.585891194000112
            ],
            [
              89.34564516900014,
              23.58572214200018
            ],
            [
              89.34556863600011,
              23.58559463299997
            ],
            [
              89.34548046800012,
              23.585341354000093
            ],
            [
              89.34548147599997,
              23.585171160000016
            ],
            [
              89.34539537100005,
              23.58466486800006
            ],
            [
              89.34530822100015,
              23.584330305000037
            ],
            [
              89.34526660400019,
              23.583953027000064
            ],
            [
              89.34526914300011,
              23.583918576000144
            ],
            [
              89.34518286300005,
              23.58341168900006
            ],
            [
              89.34509571400008,
              23.583077125000045
            ],
            [
              89.34506057300007,
              23.582758548000072
            ],
            [
              89.34505409800016,
              23.58269984700013
            ],
            [
              89.34510415500012,
              23.5822394060001
            ],
            [
              89.34506254300004,
              23.581862131000094
            ],
            [
              89.34520271500014,
              23.581447231000027
            ],
            [
              89.34544585800006,
              23.580675734000067
            ],
            [
              89.34539397600003,
              23.580315776000134
            ],
            [
              89.34536636800004,
              23.580139528000075
            ],
            [
              89.34530817900014,
              23.57977058200015
            ],
            [
              89.3452661440001,
              23.579650055
            ],
            [
              89.34518147300014,
              23.579062595000096
            ],
            [
              89.34515386700014,
              23.57888634600016
            ],
            [
              89.34509628300003,
              23.578518035000116
            ],
            [
              89.34491901900009,
              23.578137928000046
            ],
            [
              89.34464937300015,
              23.57792227000016
            ],
            [
              89.34456040100008,
              23.577837965000185
            ],
            [
              89.34446984000016,
              23.577752156000088
            ],
            [
              89.34429350500005,
              23.577247858000135
            ],
            [
              89.34411573700004,
              23.5769083940001
            ],
            [
              89.34380303000006,
              23.576484810000068
            ],
            [
              89.34330854300009,
              23.57609884500016
            ],
            [
              89.34304136600008,
              23.575634807000142
            ],
            [
              89.34295475400017,
              23.575255079000158
            ],
            [
              89.34272815899999,
              23.575251862000187
            ],
            [
              89.34254667900007,
              23.575289484999985
            ],
            [
              89.34214180400005,
              23.57498970100005
            ],
            [
              89.34196455100005,
              23.574609590000136
            ],
            [
              89.34178802600013,
              23.57414593600015
            ],
            [
              89.34152013300007,
              23.573765441000035
            ],
            [
              89.34134310100018,
              23.573342426000124
            ],
            [
              89.34125844900007,
              23.5727549610001
            ],
            [
              89.34112600300011,
              23.572417945000097
            ],
            [
              89.34089941200011,
              23.57241472600009
            ],
            [
              89.34067211000013,
              23.572492795000073
            ],
            [
              89.34035591800011,
              23.572403387000122
            ],
            [
              89.33990428800001,
              23.57227050000006
            ],
            [
              89.33949994800014,
              23.57192781000009
            ],
            [
              89.33927986500015,
              23.571296866000125
            ],
            [
              89.3392299950001,
              23.571070473000134
            ],
            [
              89.33914991700004,
              23.57070695100009
            ],
            [
              89.33888721100016,
              23.570351050000056
            ],
            [
              89.33881184100017,
              23.570071201000076
            ],
            [
              89.33871173500006,
              23.56923507100015
            ],
            [
              89.3386435110001,
              23.56898174900016
            ],
            [
              89.33842192900005,
              23.568158982000057
            ],
            [
              89.33847046600005,
              23.568067051000128
            ],
            [
              89.33917153700008,
              23.566882033000184
            ],
            [
              89.33922013699998,
              23.56680062099997
            ],
            [
              89.33904185100016,
              23.565223709000065
            ],
            [
              89.33920429500012,
              23.563616344000025
            ],
            [
              89.33956550300019,
              23.562949771000035
            ],
            [
              89.34040791000012,
              23.562266886000145
            ],
            [
              89.34115803500015,
              23.561913288000028
            ],
            [
              89.34185566800005,
              23.561584303000075
            ],
            [
              89.34339550900017,
              23.561161772000162
            ],
            [
              89.34460938900003,
              23.560708500000146
            ],
            [
              89.34516892400006,
              23.56062505000017
            ],
            [
              89.34555137600012,
              23.56067757200009
            ],
            [
              89.34754371700018,
              23.560951166000166
            ],
            [
              89.34790482100004,
              23.560932357000127
            ],
            [
              89.34881783399999,
              23.560884247000047
            ],
            [
              89.34954822300011,
              23.560801497000114
            ],
            [
              89.351289258,
              23.56049263600005
            ],
            [
              89.35189497600004,
              23.560481613000093
            ],
            [
              89.35307688300009,
              23.56017265900016
            ],
            [
              89.35380865300004,
              23.560140866999973
            ],
            [
              89.353978213,
              23.56013350100011
            ],
            [
              89.35475542000012,
              23.55999221100012
            ],
            [
              89.35612365800017,
              23.559711103000154
            ],
            [
              89.35655048800015,
              23.559712869000123
            ],
            [
              89.35688454000007,
              23.55971425100006
            ],
            [
              89.35859405100001,
              23.55952259900016
            ],
            [
              89.3589886170002,
              23.561441358000025
            ],
            [
              89.35934264400004,
              23.563780798000153
            ],
            [
              89.35939650900019,
              23.563834370000166
            ],
            [
              89.36221218500009,
              23.56343477000013
            ],
            [
              89.36242727500013,
              23.563404242000104
            ],
            [
              89.36273289500019,
              23.56333549300018
            ],
            [
              89.36478279000005,
              23.562882011000113
            ],
            [
              89.36483754000017,
              23.56286989900019
            ],
            [
              89.36480782600017,
              23.56255364500015
            ],
            [
              89.36470043000014,
              23.562282232000143
            ],
            [
              89.36473808400007,
              23.562192687000106
            ],
            [
              89.36477910600013,
              23.562095133000014
            ],
            [
              89.36518359700011,
              23.561968074000106
            ],
            [
              89.36603864600005,
              23.56181349100018
            ],
            [
              89.36634392000008,
              23.562006676000067
            ],
            [
              89.36651853300003,
              23.56211803499997
            ],
            [
              89.36700073400004,
              23.562004836000142
            ],
            [
              89.36919399700008,
              23.561409985000182
            ],
            [
              89.36924013700019,
              23.56139747100002
            ],
            [
              89.36924051900019,
              23.561317920000135
            ],
            [
              89.36924096000013,
              23.561225859000047
            ],
            [
              89.37037338300013,
              23.56104816700008
            ],
            [
              89.3704552160001,
              23.560772513000018
            ],
            [
              89.37028709300012,
              23.56019827300014
            ],
            [
              89.37033571500007,
              23.560106035000103
            ],
            [
              89.37042748300019,
              23.559941290000097
            ],
            [
              89.37224486200017,
              23.559921538000026
            ],
            [
              89.37386189400002,
              23.559598375000064
            ],
            [
              89.376891957,
              23.55935312500003
            ],
            [
              89.37864825500003,
              23.559102726000162
            ],
            [
              89.37932395200005,
              23.558989012000154
            ],
            [
              89.37973611300015,
              23.558919646000106
            ],
            [
              89.38004702200004,
              23.558893786000112
            ],
            [
              89.3811383330002,
              23.55803779600018
            ],
            [
              89.38196290600013,
              23.557711389000076
            ],
            [
              89.38245181700012,
              23.557729136000034
            ],
            [
              89.38267423400015,
              23.557899379000162
            ],
            [
              89.38286857500015,
              23.558247899000037
            ],
            [
              89.38290264900013,
              23.55850188200003
            ],
            [
              89.38284465800007,
              23.558515476000082
            ],
            [
              89.3828560570002,
              23.55860024400016
            ],
            [
              89.38286110400014,
              23.558699620000027
            ],
            [
              89.38315198400005,
              23.560866304000058
            ],
            [
              89.38317639600012,
              23.560884465000072
            ],
            [
              89.3839346760002,
              23.561447485000087
            ],
            [
              89.38458529000019,
              23.561330382999984
            ],
            [
              89.38629730100018,
              23.56128916500012
            ],
            [
              89.38804973600014,
              23.561246954000126
            ],
            [
              89.38850400500013,
              23.561011641000107
            ],
            [
              89.3885595660002,
              23.56098250300016
            ],
            [
              89.38852789900017,
              23.560924070000056
            ],
            [
              89.38809109700009,
              23.560118061000082
            ],
            [
              89.38800535900009,
              23.55932512600009
            ],
            [
              89.38794851800009,
              23.558177781000097
            ],
            [
              89.38814117400005,
              23.556776251000144
            ],
            [
              89.38818182000006,
              23.55626886800019
            ],
            [
              89.38818439400006,
              23.556236732000173
            ],
            [
              89.38822363800011,
              23.556228498
            ],
            [
              89.38840294600004,
              23.55619088100019
            ],
            [
              89.38842792500009,
              23.556185640000024
            ],
            [
              89.388765492,
              23.556114821000108
            ],
            [
              89.3894426120001,
              23.556085866000103
            ],
            [
              89.39039347200008,
              23.556254440000032
            ],
            [
              89.39076538400013,
              23.556411704000084
            ],
            [
              89.391354574,
              23.556660147000116
            ],
            [
              89.39257513400008,
              23.557441711000138
            ],
            [
              89.39337529500017,
              23.557586687000025
            ],
            [
              89.39355608200009,
              23.5576194410001
            ],
            [
              89.39368454500016,
              23.557642716000146
            ],
            [
              89.39375972900018,
              23.557656338000015
            ],
            [
              89.3954028190002,
              23.558380816000124
            ],
            [
              89.39602389200019,
              23.558423877000052
            ],
            [
              89.39682108800008,
              23.558386324000026
            ],
            [
              89.39754575500007,
              23.55847494200009
            ],
            [
              89.39881731100013,
              23.558963101000074
            ],
            [
              89.39943523300008,
              23.55904991100016
            ],
            [
              89.39949726900005,
              23.55905862600008
            ],
            [
              89.40008997000018,
              23.559141890000035
            ],
            [
              89.40060860100016,
              23.55908969500007
            ],
            [
              89.40158231100008,
              23.558885698000154
            ],
            [
              89.40208039700008,
              23.558672372000103
            ],
            [
              89.40445580800008,
              23.55765497200008
            ],
            [
              89.405670166,
              23.55713483700015
            ],
            [
              89.40607092000016,
              23.556963183000164
            ],
            [
              89.40741846100019,
              23.556385453000132
            ],
            [
              89.40790332800003,
              23.556177573000184
            ],
            [
              89.40843151400003,
              23.555560856
            ],
            [
              89.4092402300002,
              23.555270375000077
            ],
            [
              89.41104174400004,
              23.554949780000072
            ],
            [
              89.41121548100011,
              23.554921083000124
            ],
            [
              89.41306409300012,
              23.55460967600004
            ],
            [
              89.41372740500009,
              23.55396409300016
            ],
            [
              89.41394877500011,
              23.553619436000133
            ],
            [
              89.41429522300018,
              23.552548135000052
            ],
            [
              89.41433470300007,
              23.552328849000048
            ],
            [
              89.41437068200014,
              23.55212900500004
            ],
            [
              89.41450648300008,
              23.551374705000114
            ],
            [
              89.4146216640001,
              23.55080835100017
            ],
            [
              89.41498069500005,
              23.55048904900002
            ],
            [
              89.41502873800005,
              23.550280708000116
            ],
            [
              89.41507746400015,
              23.55006940000004
            ],
            [
              89.41504446400012,
              23.549405980000074
            ],
            [
              89.41503366299997,
              23.549188832000027
            ],
            [
              89.41502376400018,
              23.548989817000177
            ],
            [
              89.41456211800016,
              23.54683157000005
            ],
            [
              89.41465871300005,
              23.54486059000004
            ],
            [
              89.41471537000007,
              23.544466308999972
            ],
            [
              89.41490226700012,
              23.543165655
            ],
            [
              89.41493710600008,
              23.542914617
            ],
            [
              89.41496773000011,
              23.542693953000082
            ],
            [
              89.41574165500015,
              23.541457150000156
            ],
            [
              89.41633321600017,
              23.540748058000077
            ],
            [
              89.41672616400012,
              23.540505656000107
            ],
            [
              89.4164100550002,
              23.54008666200008
            ],
            [
              89.41643638300008,
              23.54006217300008
            ],
            [
              89.41726973300007,
              23.53971734600009
            ],
            [
              89.41807777500014,
              23.53957747800007
            ],
            [
              89.41874539100013,
              23.53946191299997
            ],
            [
              89.42176530900008,
              23.539202138000064
            ],
            [
              89.42484061900018,
              23.538931815000183
            ],
            [
              89.42652450200012,
              23.538782768000033
            ],
            [
              89.43050092600015,
              23.538381305000087
            ],
            [
              89.43307729500009,
              23.538121374000184
            ],
            [
              89.43637674300004,
              23.537628472999984
            ],
            [
              89.44439732300003,
              23.536392809000063
            ],
            [
              89.4444788150002,
              23.53699004100008
            ],
            [
              89.44449148000012,
              23.537056902000018
            ],
            [
              89.44546842800008,
              23.536905147000027
            ],
            [
              89.4463381380001,
              23.53706405700018
            ],
            [
              89.44769937500007,
              23.537333095000065
            ],
            [
              89.44916268400004,
              23.537719905000074
            ],
            [
              89.44939985300005,
              23.538067196000156
            ],
            [
              89.44999280600018,
              23.53893546000006
            ],
            [
              89.45037177699999,
              23.539756504000138
            ],
            [
              89.45121530400007,
              23.5415840550001
            ],
            [
              89.45143319300007,
              23.54182870400018
            ],
            [
              89.4516270090001,
              23.542046166000034
            ],
            [
              89.45229360600013,
              23.542468529000075
            ],
            [
              89.45238459199999,
              23.54250160100014
            ],
            [
              89.45328820200018,
              23.542455671000084
            ],
            [
              89.4542747550002,
              23.54234692300014
            ],
            [
              89.45525147500018,
              23.54193242500014
            ],
            [
              89.45537479800015,
              23.541880089000074
            ],
            [
              89.45572549700012,
              23.54135110200008
            ],
            [
              89.45632302400008,
              23.53898277600007
            ],
            [
              89.45708270900013,
              23.537362176999977
            ],
            [
              89.45743017400002,
              23.536620932
            ],
            [
              89.45774551300013,
              23.53637564800016
            ],
            [
              89.45801719200011,
              23.536164324000083
            ],
            [
              89.45880001600005,
              23.535354814000073
            ],
            [
              89.45916711200005,
              23.534975198000097
            ],
            [
              89.45935737400015,
              23.534847253000066
            ],
            [
              89.4604008840002,
              23.534145519000106
            ],
            [
              89.461725962,
              23.533173684000076
            ],
            [
              89.46305972400006,
              23.532195428000136
            ],
            [
              89.46264745900015,
              23.531734763000145
            ],
            [
              89.46267852600016,
              23.531705775000034
            ],
            [
              89.4639743840001,
              23.53049659600009
            ],
            [
              89.464006014,
              23.529086669000037
            ],
            [
              89.46331124400012,
              23.527841531000036
            ],
            [
              89.46149942000011,
              23.52631128900009
            ],
            [
              89.45672650000006,
              23.52227987700013
            ],
            [
              89.45634090300007,
              23.521977054000047
            ],
            [
              89.45574051500012,
              23.520187549000013
            ],
            [
              89.45509752300006,
              23.51627489500015
            ],
            [
              89.45508923100004,
              23.516224433000048
            ],
            [
              89.45503786500007,
              23.515911858000038
            ],
            [
              89.45518822200017,
              23.515978096000026
            ],
            [
              89.45524308800009,
              23.516002267000147
            ],
            [
              89.45708805400017,
              23.516374599000017
            ],
            [
              89.45861861000014,
              23.516708439000126
            ],
            [
              89.45860850700012,
              23.516743968000128
            ],
            [
              89.45979736200013,
              23.51704758400001
            ],
            [
              89.46080565699998,
              23.51730530500015
            ],
            [
              89.46202237000006,
              23.517804177000187
            ],
            [
              89.462749986,
              23.518298056000106
            ],
            [
              89.46298621200003,
              23.51846582000013
            ],
            [
              89.46361224200012,
              23.51913657500012
            ],
            [
              89.46395909700016,
              23.519508205000136
            ],
            [
              89.4640946950002,
              23.519662548000042
            ],
            [
              89.46551883900008,
              23.521283522000033
            ],
            [
              89.46720182800016,
              23.523914864000176
            ],
            [
              89.4674465130002,
              23.524489247000133
            ],
            [
              89.46748627600005,
              23.524582588000158
            ],
            [
              89.46815543700006,
              23.526153438000108
            ],
            [
              89.46850068100002,
              23.52696388200019
            ],
            [
              89.4690090110002,
              23.52852599400012
            ],
            [
              89.46912086700019,
              23.529869969
            ],
            [
              89.46947671200007,
              23.53113800100016
            ],
            [
              89.46975443800011,
              23.53153998900018
            ],
            [
              89.46987391700014,
              23.53171292500008
            ],
            [
              89.47077100100012,
              23.53237535300019
            ],
            [
              89.47177572300012,
              23.53276491100013
            ],
            [
              89.47251106600015,
              23.532841923000092
            ],
            [
              89.47337878600018,
              23.53265743500009
            ],
            [
              89.47346553100016,
              23.532630633
            ],
            [
              89.4747841520001,
              23.532224105000125
            ],
            [
              89.47824802300005,
              23.531079584
            ],
            [
              89.47879728000015,
              23.530649169000185
            ],
            [
              89.47905718500004,
              23.53044549800012
            ],
            [
              89.47965173900002,
              23.529733914000076
            ],
            [
              89.48036493300009,
              23.528589157000113
            ],
            [
              89.4808012470001,
              23.52822060400007
            ],
            [
              89.48130756300009,
              23.527792917000113
            ],
            [
              89.48136399500015,
              23.527766009
            ],
            [
              89.48144271900009,
              23.52772689699998
            ],
            [
              89.4830209120002,
              23.526942779000137
            ],
            [
              89.48425410300018,
              23.526206196000032
            ],
            [
              89.48483824400012,
              23.52564133400017
            ],
            [
              89.48520714100016,
              23.525635781000176
            ],
            [
              89.48592840300017,
              23.525626875000114
            ],
            [
              89.48597891200018,
              23.525627042000053
            ],
            [
              89.48603362800009,
              23.525647545000083
            ],
            [
              89.48618067300004,
              23.525699968000083
            ],
            [
              89.48633075400011,
              23.52575691700008
            ],
            [
              89.48672938400006,
              23.526058566000074
            ],
            [
              89.48739365400013,
              23.52685336400009
            ],
            [
              89.48859070600008,
              23.52904544600011
            ],
            [
              89.48894968600013,
              23.529550195000013
            ],
            [
              89.48925388800006,
              23.529790710000157
            ],
            [
              89.49088801400006,
              23.531082699000024
            ],
            [
              89.49247451500014,
              23.532336992000126
            ],
            [
              89.492800048,
              23.532628986000134
            ],
            [
              89.49312893700011,
              23.532923987000117
            ],
            [
              89.49326344100007,
              23.53313443100012
            ],
            [
              89.4937040850001,
              23.53382685800011
            ],
            [
              89.49407594000007,
              23.5342548590001
            ],
            [
              89.49466730100005,
              23.534843896999973
            ],
            [
              89.4958542920001,
              23.535629066000013
            ],
            [
              89.4970221960001,
              23.536285451000083
            ],
            [
              89.49780587300006,
              23.53654315199998
            ],
            [
              89.4984121010001,
              23.53648244300001
            ],
            [
              89.49921375000008,
              23.536402160000023
            ],
            [
              89.49954313100005,
              23.53638891300011
            ],
            [
              89.49960081700004,
              23.536386591999985
            ],
            [
              89.49970891200019,
              23.53638224399998
            ],
            [
              89.50010309400011,
              23.53633332300012
            ],
            [
              89.50071753500009,
              23.536301837
            ],
            [
              89.50116079400004,
              23.536298479000095
            ],
            [
              89.50158340600007,
              23.53627115400002
            ],
            [
              89.50179766100007,
              23.53625091300006
            ],
            [
              89.50252612800006,
              23.536182087000043
            ],
            [
              89.50311582600017,
              23.536137440000175
            ],
            [
              89.50344763499999,
              23.536131329000114
            ],
            [
              89.50363362500013,
              23.536128936000182
            ],
            [
              89.50389624899998,
              23.536081975000116
            ],
            [
              89.50404855400006,
              23.536076486000127
            ],
            [
              89.50407274100002,
              23.536085967000076
            ],
            [
              89.50421336800002,
              23.536011209000094
            ],
            [
              89.5045039100001,
              23.535949997000046
            ],
            [
              89.50469857300016,
              23.535881310000093
            ],
            [
              89.50489319100006,
              23.535824572000024
            ],
            [
              89.50511875200016,
              23.535810950000155
            ],
            [
              89.50528952100018,
              23.53578788700014
            ],
            [
              89.50537808900003,
              23.535775925
            ],
            [
              89.50558571100015,
              23.53570727800013
            ],
            [
              89.50592571400017,
              23.535588863000157
            ],
            [
              89.50633930200007,
              23.535427623000146
            ],
            [
              89.5063696040001,
              23.535415809000085
            ],
            [
              89.50682101200016,
              23.535234790000118
            ],
            [
              89.5069017720001,
              23.535202405000177
            ],
            [
              89.50717702600014,
              23.535069442000065
            ],
            [
              89.50746276200016,
              23.534905444
            ],
            [
              89.50788366600017,
              23.534639105999986
            ],
            [
              89.5083278690002,
              23.534380011000167
            ],
            [
              89.50841875700007,
              23.534334890000082
            ],
            [
              89.50852835300009,
              23.534280941000134
            ],
            [
              89.50874300600003,
              23.534062943000038
            ],
            [
              89.50877373100013,
              23.53403741900007
            ],
            [
              89.50882588400015,
              23.533994094000093
            ],
            [
              89.50912131300015,
              23.533748669000147
            ],
            [
              89.50918376400006,
              23.533701018000045
            ],
            [
              89.50950352900014,
              23.53345703000008
            ],
            [
              89.50970617400014,
              23.533302406000075
            ],
            [
              89.50997250900002,
              23.532989422000128
            ],
            [
              89.51017672900008,
              23.53274943100007
            ],
            [
              89.51053184300014,
              23.532221782000192
            ],
            [
              89.51079287600015,
              23.531768689000103
            ],
            [
              89.51088402300013,
              23.53161047700013
            ],
            [
              89.51111636600012,
              23.530986844000154
            ],
            [
              89.51124614200018,
              23.530618724000078
            ],
            [
              89.51133770600012,
              23.530358994999972
            ],
            [
              89.5113544560001,
              23.530081496000037
            ],
            [
              89.5114201200002,
              23.52921943700005
            ],
            [
              89.51149612700016,
              23.52822155700005
            ],
            [
              89.51173849600008,
              23.528304969000033
            ],
            [
              89.51716866600009,
              23.53017370900011
            ],
            [
              89.51821956000003,
              23.530211382000118
            ],
            [
              89.51993309300013,
              23.530272798000055
            ],
            [
              89.52116779100015,
              23.530317039000067
            ],
            [
              89.52297423200014,
              23.530322585000192
            ],
            [
              89.5245043160001,
              23.53032726700002
            ],
            [
              89.52562379300008,
              23.53025842000011
            ],
            [
              89.52593609500013,
              23.530164584000147
            ],
            [
              89.52692113900014,
              23.529868603000068
            ],
            [
              89.52917262800014,
              23.529192062000163
            ],
            [
              89.52923225400014,
              23.529192914000078
            ],
            [
              89.52954134400011,
              23.529197338000074
            ],
            [
              89.52997250900017,
              23.52920351000006
            ],
            [
              89.530410813,
              23.529210182000043
            ],
            [
              89.5321924610002,
              23.529237297000066
            ],
            [
              89.53276691700012,
              23.529386382999974
            ],
            [
              89.53368012900017,
              23.529623388000118
            ],
            [
              89.53429451100004,
              23.52983597700006
            ],
            [
              89.53502304000017,
              23.530088063000107
            ],
            [
              89.53512638800004,
              23.530124501000103
            ],
            [
              89.5363639750002,
              23.531119528000147
            ],
            [
              89.53750602200012,
              23.53226803900003
            ],
            [
              89.53784811900005,
              23.532612068000162
            ],
            [
              89.53808900799999,
              23.532922891000055
            ],
            [
              89.5387953450001,
              23.533834283000147
            ],
            [
              89.53884395600011,
              23.533940560000133
            ],
            [
              89.53928818500003,
              23.534903850999967
            ],
            [
              89.5394503080002,
              23.535821144000124
            ],
            [
              89.53933166900009,
              23.536074365
            ],
            [
              89.53907524400006,
              23.536621679000177
            ],
            [
              89.53820254200019,
              23.53772333000012
            ],
            [
              89.5379881520002,
              23.538018517000125
            ],
            [
              89.53779831500003,
              23.538279896000176
            ],
            [
              89.53753744300013,
              23.538638166000112
            ],
            [
              89.53610809900016,
              23.539304059000074
            ],
            [
              89.53534389700019,
              23.539660072000117
            ],
            [
              89.53374958600017,
              23.540058372000033
            ],
            [
              89.53312800900017,
              23.540213424000115
            ],
            [
              89.53277392700016,
              23.540301748000104
            ],
            [
              89.53212248800014,
              23.540485128
            ],
            [
              89.53181219900017,
              23.540572474000157
            ],
            [
              89.53076827300009,
              23.540866333
            ],
            [
              89.53049597700016,
              23.540942980000068
            ],
            [
              89.52932649300004,
              23.541160210999976
            ],
            [
              89.52792406500015,
              23.541420700000174
            ],
            [
              89.52786401800006,
              23.541431809000073
            ],
            [
              89.52575483300006,
              23.541482408000093
            ],
            [
              89.52554525100015,
              23.54148743500008
            ],
            [
              89.5252742900002,
              23.541493933000083
            ],
            [
              89.52284540600016,
              23.541694251000138
            ],
            [
              89.52131246500005,
              23.541819322000094
            ],
            [
              89.52119164900017,
              23.541829179000104
            ],
            [
              89.51791179200012,
              23.542907479000178
            ],
            [
              89.5137139840001,
              23.544532637000145
            ],
            [
              89.51299084400011,
              23.54481258100003
            ],
            [
              89.51295734600018,
              23.54482537600012
            ],
            [
              89.5125141170002,
              23.54498621700003
            ],
            [
              89.51215787100006,
              23.545116077000102
            ],
            [
              89.51052981600009,
              23.545816252000066
            ],
            [
              89.50930656600008,
              23.546342317000153
            ],
            [
              89.50789000100002,
              23.547337905000063
            ],
            [
              89.50769126300014,
              23.54747758000019
            ],
            [
              89.50634125500017,
              23.54955079400014
            ],
            [
              89.50626029700004,
              23.549730695
            ],
            [
              89.50522484700014,
              23.552031552000017
            ],
            [
              89.50502609600017,
              23.55247318199997
            ],
            [
              89.50396338600012,
              23.554834504000155
            ],
            [
              89.50384992200014,
              23.555086612000025
            ],
            [
              89.5027508550001,
              23.557735653000123
            ],
            [
              89.50271591500007,
              23.557819864000066
            ],
            [
              89.50216525400003,
              23.55914782200017
            ],
            [
              89.50207268400004,
              23.559381469000016
            ],
            [
              89.50145308499998,
              23.560945321000133
            ],
            [
              89.50098112300003,
              23.562136513000098
            ],
            [
              89.50082619200009,
              23.562527542
            ],
            [
              89.50075956600011,
              23.562695695000173
            ],
            [
              89.50066875000005,
              23.563066485000093
            ],
            [
              89.5006564040001,
              23.563116886000103
            ],
            [
              89.50043238300009,
              23.564031467
            ],
            [
              89.50041869500006,
              23.564216698000166
            ],
            [
              89.50031910500013,
              23.56556437600011
            ],
            [
              89.5003391300001,
              23.565929144999984
            ],
            [
              89.50041966000003,
              23.56739605100006
            ],
            [
              89.50045859600004,
              23.567916201000116
            ],
            [
              89.50061263800018,
              23.56997403800011
            ],
            [
              89.50067530300015,
              23.570811180000078
            ],
            [
              89.50088005700019,
              23.573433534000173
            ],
            [
              89.50071112500007,
              23.575510480000048
            ],
            [
              89.500297,
              23.576435924000066
            ],
            [
              89.50022375900005,
              23.57659959200015
            ],
            [
              89.49924079800019,
              23.578978750000147
            ],
            [
              89.49811623100015,
              23.580453027000033
            ],
            [
              89.49803284700016,
              23.580562338999982
            ],
            [
              89.49795861100006,
              23.580643388000055
            ],
            [
              89.497837919,
              23.580829067000025
            ],
            [
              89.49774367700002,
              23.58082334700009
            ],
            [
              89.49669608200014,
              23.581842891000065
            ],
            [
              89.49521792800005,
              23.583300859000076
            ],
            [
              89.49383163300018,
              23.584668180000165
            ],
            [
              89.49278941,
              23.58569611100006
            ],
            [
              89.4923287740001,
              23.586266072000058
            ],
            [
              89.49053941400018,
              23.588480046000086
            ],
            [
              89.49019922100018,
              23.588900954999986
            ],
            [
              89.48964182400016,
              23.589570479000145
            ],
            [
              89.48776189200004,
              23.59182851100013
            ],
            [
              89.48752404400011,
              23.592030331000103
            ],
            [
              89.48720784900013,
              23.592298627000105
            ],
            [
              89.4858925650002,
              23.593418051000185
            ],
            [
              89.48573836000014,
              23.593549291000045
            ],
            [
              89.485631726,
              23.59363926000009
            ],
            [
              89.4844667380001,
              23.594240576000118
            ],
            [
              89.48208911600017,
              23.594697840000094
            ],
            [
              89.48128278700017,
              23.594711559000075
            ],
            [
              89.48042169100017,
              23.594726205000086
            ],
            [
              89.47753959600016,
              23.594775191000053
            ],
            [
              89.47526393900006,
              23.5950001060001
            ],
            [
              89.474128426,
              23.59549858200012
            ],
            [
              89.47399800100015,
              23.59555583700012
            ],
            [
              89.47384360600006,
              23.59571564000015
            ],
            [
              89.47252599500001,
              23.597088623000104
            ],
            [
              89.47251492400011,
              23.597154896
            ],
            [
              89.47237066100013,
              23.59801844700013
            ],
            [
              89.4724687530001,
              23.59876396100003
            ],
            [
              89.47307048500016,
              23.60002377899997
            ],
            [
              89.47331365200012,
              23.600452335000114
            ],
            [
              89.47402432300004,
              23.60170479800007
            ],
            [
              89.47558465200007,
              23.603387861000158
            ],
            [
              89.47591926100012,
              23.603708832000166
            ],
            [
              89.4782422200002,
              23.605937050000136
            ],
            [
              89.4794030970001,
              23.60705054100015
            ],
            [
              89.48162788200005,
              23.609184434000042
            ],
            [
              89.4832872670001,
              23.611209589
            ],
            [
              89.48331305700009,
              23.61124109500014
            ],
            [
              89.48434479600013,
              23.61250163400007
            ],
            [
              89.48558041500013,
              23.614481067000156
            ],
            [
              89.486368987,
              23.615743309000152
            ],
            [
              89.48725891200019,
              23.617168272000185
            ],
            [
              89.48760546900019,
              23.61907905300012
            ],
            [
              89.4876424430002,
              23.62044307800005
            ],
            [
              89.48764967300008,
              23.620709561000183
            ],
            [
              89.48733956400014,
              23.622386321000192
            ],
            [
              89.48637403600014,
              23.624607981000167
            ],
            [
              89.48626845800015,
              23.624850907
            ],
            [
              89.48340880400013,
              23.62761224700006
            ],
            [
              89.479294052,
              23.631585231000145
            ],
            [
              89.4789597620001,
              23.631907989000013
            ],
            [
              89.47859456300017,
              23.632141608999973
            ],
            [
              89.47645570700013,
              23.63351139499997
            ],
            [
              89.47591834400015,
              23.633855529000073
            ],
            [
              89.47556117100015,
              23.633984496000153
            ],
            [
              89.47467129600017,
              23.634305804000064
            ],
            [
              89.47349032000017,
              23.634732211000085
            ],
            [
              89.47298149400012,
              23.634915926000133
            ],
            [
              89.4703951090001,
              23.6354514250001
            ],
            [
              89.46999858400005,
              23.63553352000008
            ],
            [
              89.46936109800009,
              23.635664567000163
            ],
            [
              89.46523656100015,
              23.636515260000124
            ],
            [
              89.45921662500012,
              23.63775667300007
            ],
            [
              89.4570484460001,
              23.63815825900008
            ],
            [
              89.45606084800005,
              23.638341170000047
            ],
            [
              89.45501658199998,
              23.63853456800001
            ],
            [
              89.45164592900011,
              23.638859144000094
            ],
            [
              89.45127322200005,
              23.638893955000185
            ],
            [
              89.44881157900005,
              23.638787845000138
            ],
            [
              89.44773420600018,
              23.6387413920001
            ],
            [
              89.44520537400018,
              23.638872370000115
            ],
            [
              89.44364196000015,
              23.63921903500011
            ],
            [
              89.44249156300009,
              23.639475723000032
            ],
            [
              89.44211809500013,
              23.639559052000095
            ],
            [
              89.43998683700016,
              23.641369139000176
            ],
            [
              89.43936750800015,
              23.64221742700005
            ],
            [
              89.43916797700007,
              23.64249071900008
            ],
            [
              89.43744361500006,
              23.64485322200005
            ],
            [
              89.43713393299998,
              23.646556868000175
            ],
            [
              89.43783253300006,
              23.648487918000058
            ],
            [
              89.43857492000012,
              23.649929299000064
            ],
            [
              89.43898610200006,
              23.650727615
            ],
            [
              89.4407469900001,
              23.652831753000044
            ],
            [
              89.44119096400004,
              23.65324405700005
            ],
            [
              89.441855223,
              23.653860926
            ],
            [
              89.4422555430001,
              23.654840122
            ],
            [
              89.44216088900009,
              23.65559173100013
            ],
            [
              89.44277242300006,
              23.656009419000043
            ],
            [
              89.4422630110002,
              23.657053087000065
            ],
            [
              89.4413926530001,
              23.658214388000147
            ],
            [
              89.44025616700003,
              23.65973073700013
            ],
            [
              89.43986084900001,
              23.660236548000114
            ],
            [
              89.43902746000009,
              23.661302856000077
            ],
            [
              89.43809503500012,
              23.662495853999985
            ],
            [
              89.43743172100011,
              23.663259428000117
            ],
            [
              89.4373227710002,
              23.6633021560001
            ],
            [
              89.43703381900008,
              23.66335911700014
            ],
            [
              89.43654726700015,
              23.663556059000086
            ],
            [
              89.43489720000014,
              23.66456436200008
            ],
            [
              89.43294903800006,
              23.66575477600003
            ],
            [
              89.4327919750001,
              23.66585074800014
            ],
            [
              89.4325292420001,
              23.666011285000025
            ],
            [
              89.43137865200015,
              23.666714319999983
            ],
            [
              89.4308100290001,
              23.666999800000156
            ],
            [
              89.4299818390001,
              23.667415591
            ]
          ]
        ]
      }
    }
  ]
}