{
  "type": "FeatureCollection",
  "features": [
    {
      "type": "Feature",
      "properties": {
        "adm3_name": "Phultala",
        "adm3_name1": null,
        "adm3_name2": null,
        "adm3_name3": null,
        "adm3_pcode": "BD40470069",
        "adm2_name": "Khulna",
        "adm2_name1": null,
        "adm2_name2": null,
        "adm2_name3": null,
        "adm2_pcode": "BD4047",
        "adm1_name": "Khulna",
        "adm1_name1": null,
        "adm1_name2": null,
        "adm1_name3": null,
        "adm1_pcode": "BD40",
        "adm0_name": "Bangladesh",
        "adm0_name1": null,
        "adm0_name2": null,
        "adm0_name3": null,
        "adm0_pcode": "BD",
        "valid_on": "2023-05-21",
        "valid_to": null,
        "area_sqkm": 76.81250969,
        "version": "v03",
        "lang": "en",
        "lang1": null,
        "lang2": null,
        "lang3": null,
        "adm3_ref_name": null,
        "center_lat": 22.94830901,
        "center_lon": 89.45416809
      },
      "geometry": {
        "type": "Polygon",
        "coordinates": [
          [
            [
              89.45595265800017,
              23.011351438000077
            ],
            [
              89.45483584100003,
              23.01170610300005
            ],
            [
              89.45401468200004,
              23.01173195400014
            ],
            [
              89.45332770100015,
              23.011646213000063
            ],
            [
              89.45177420500005,
              23.011452314999985
            ],
            [
              89.45080544400008,
              23.011139354000136
            ],
            [
              89.45078377200008,
              23.011169070000108
            ],
            [
              89.45007681800018,
              23.01070193700008
            ],
            [
              89.45000928900004,
              23.01068621000013
            ],
            [
              89.44973678500003,
              23.01055268900018
            ],
            [
              89.44915626900013,
              23.01026675900016
            ],
            [
              89.44906366400005,
              23.010198452999987
            ],
            [
              89.44788820700006,
              23.009717412999976
            ],
            [
              89.44723771300005,
              23.00936698100014
            ],
            [
              89.44708442000007,
              23.009284400000126
            ],
            [
              89.44634172600007,
              23.00906670200004
            ],
            [
              89.44602537100008,
              23.009015645000034
            ],
            [
              89.44497939200016,
              23.008846828000173
            ],
            [
              89.44451376100005,
              23.008674319000022
            ],
            [
              89.44336496500006,
              23.008531881000124
            ],
            [
              89.4430754080002,
              23.0084959780001
            ],
            [
              89.44249045200007,
              23.008545696000112
            ],
            [
              89.4414847810001,
              23.008502675000045
            ],
            [
              89.44123831200005,
              23.00849213000015
            ],
            [
              89.43985755400018,
              23.00848724800005
            ],
            [
              89.4393776340001,
              23.008546526000032
            ],
            [
              89.43907468000009,
              23.008389565000073
            ],
            [
              89.43880709300004,
              23.008250927000176
            ],
            [
              89.43808372900008,
              23.00781928700013
            ],
            [
              89.43769050100002,
              23.00726912900012
            ],
            [
              89.43717085500003,
              23.005438073000107
            ],
            [
              89.4369846570001,
              23.004824968000094
            ],
            [
              89.43691064299998,
              23.004581259000076
            ],
            [
              89.43662914700013,
              23.004253134000066
            ],
            [
              89.43638595300013,
              23.00396965400006
            ],
            [
              89.43599249000016,
              23.003480466000042
            ],
            [
              89.43533456000006,
              23.00323422600013
            ],
            [
              89.43480805500013,
              23.00298845200001
            ],
            [
              89.43449330800007,
              23.00277491200012
            ],
            [
              89.43408528200007,
              23.002498083000035
            ],
            [
              89.43401306800013,
              23.00234911300015
            ],
            [
              89.43383525700011,
              23.0019823020001
            ],
            [
              89.43375846700013,
              23.001823946000115
            ],
            [
              89.43356413500004,
              23.000969619000045
            ],
            [
              89.43353303800006,
              23.000894986
            ],
            [
              89.43323813100005,
              23.00017579600018
            ],
            [
              89.43278055900004,
              22.99919857900005
            ],
            [
              89.43258553200019,
              22.998585886000114
            ],
            [
              89.43245533900011,
              22.998219578000146
            ],
            [
              89.43153471100015,
              22.997728488
            ],
            [
              89.43117732800016,
              22.99757667299997
            ],
            [
              89.43091162300016,
              22.997463803000073
            ],
            [
              89.43081417000013,
              22.99742240500018
            ],
            [
              89.42949354000012,
              22.997233359000177
            ],
            [
              89.42903374899998,
              22.996865861000174
            ],
            [
              89.42890454300016,
              22.996194682000123
            ],
            [
              89.42890555600013,
              22.995953893000035
            ],
            [
              89.42890831500011,
              22.995511721000184
            ],
            [
              89.42897630900006,
              22.994790290000083
            ],
            [
              89.42924287500006,
              22.994120542000132
            ],
            [
              89.42937496600007,
              22.993669356000055
            ],
            [
              89.42939203200007,
              22.99361110800004
            ],
            [
              89.4295104590002,
              22.993206897000107
            ],
            [
              89.42954967900005,
              22.992958963000035
            ],
            [
              89.42961595400016,
              22.992539992000047
            ],
            [
              89.42964577200013,
              22.992351493
            ],
            [
              89.42944157699998,
              22.99099012099998
            ],
            [
              89.4294736220001,
              22.990709516000152
            ],
            [
              89.42950641300001,
              22.990422378000176
            ],
            [
              89.42956770900014,
              22.989657783999974
            ],
            [
              89.42956319900014,
              22.989617698000018
            ],
            [
              89.4295179360002,
              22.989215446000173
            ],
            [
              89.42952287700018,
              22.98916791200014
            ],
            [
              89.42953606700019,
              22.989041021000048
            ],
            [
              89.42955112600009,
              22.988896137000097
            ],
            [
              89.42959864200014,
              22.988438973000143
            ],
            [
              89.42960232300015,
              22.988393555000073
            ],
            [
              89.429714349,
              22.987011337000126
            ],
            [
              89.42970937600006,
              22.986658787000067
            ],
            [
              89.42968506600016,
              22.98630019300009
            ],
            [
              89.42947551400005,
              22.985486823000087
            ],
            [
              89.42938139700016,
              22.984847147000096
            ],
            [
              89.4292739980001,
              22.984297049000077
            ],
            [
              89.42906457600014,
              22.98345380400002
            ],
            [
              89.42902058300018,
              22.98317281500016
            ],
            [
              89.42902791400013,
              22.982963712000185
            ],
            [
              89.42906116000006,
              22.982730803000152
            ],
            [
              89.42913952900005,
              22.982510006000098
            ],
            [
              89.42920461500012,
              22.982378788000062
            ],
            [
              89.42927065400016,
              22.982020518000127
            ],
            [
              89.42929114300017,
              22.98175171200006
            ],
            [
              89.42929860100008,
              22.981512734000034
            ],
            [
              89.42939022600012,
              22.981208333000154
            ],
            [
              89.42951354000019,
              22.981041473000175
            ],
            [
              89.42968270500006,
              22.98071345000011
            ],
            [
              89.42980579800019,
              22.98039374400014
            ],
            [
              89.42966429600006,
              22.979649297000094
            ],
            [
              89.42965738200019,
              22.979602241000123
            ],
            [
              89.4296133040001,
              22.9793022340001
            ],
            [
              89.42960112400016,
              22.979219339000053
            ],
            [
              89.42953622800013,
              22.978777644
            ],
            [
              89.42938851000014,
              22.977772238000114
            ],
            [
              89.42933407100014,
              22.977676835000125
            ],
            [
              89.42915496500007,
              22.97729975800013
            ],
            [
              89.42905369800013,
              22.976827358000094
            ],
            [
              89.42888318600006,
              22.976283724000098
            ],
            [
              89.42881407400006,
              22.975548456000183
            ],
            [
              89.42885729200009,
              22.975014744000077
            ],
            [
              89.42887373700012,
              22.974811660000114
            ],
            [
              89.42881799600019,
              22.97425577300004
            ],
            [
              89.4286803010001,
              22.973239506000084
            ],
            [
              89.42857881200013,
              22.97282088100019
            ],
            [
              89.42851543900014,
              22.972545798000056
            ],
            [
              89.42834942400015,
              22.972126940000066
            ],
            [
              89.42812515800006,
              22.97174969800011
            ],
            [
              89.42788806400017,
              22.971354485000177
            ],
            [
              89.42774120899998,
              22.97098349700002
            ],
            [
              89.4275695500001,
              22.970373414999983
            ],
            [
              89.42761073100002,
              22.969788002000143
            ],
            [
              89.4277546020001,
              22.969244257000184
            ],
            [
              89.42782711700016,
              22.968970190000164
            ],
            [
              89.42806310900016,
              22.96809269800002
            ],
            [
              89.42825594300012,
              22.96710855500004
            ],
            [
              89.42828071800017,
              22.96698210900007
            ],
            [
              89.42840502600012,
              22.96657624900007
            ],
            [
              89.42856157000011,
              22.966176480000115
            ],
            [
              89.42863483200011,
              22.96563300700018
            ],
            [
              89.42852920700017,
              22.96466465499998
            ],
            [
              89.42834722500004,
              22.96438647200017
            ],
            [
              89.42831763300006,
              22.964341236000166
            ],
            [
              89.42828914100005,
              22.964345679000076
            ],
            [
              89.42663282600006,
              22.958374759000037
            ],
            [
              89.42614528100012,
              22.958201766
            ],
            [
              89.4249492130001,
              22.957894823000117
            ],
            [
              89.42418800600007,
              22.95769107300015
            ],
            [
              89.42342680200017,
              22.95748732000004
            ],
            [
              89.4225584940001,
              22.95687893800016
            ],
            [
              89.4206021080002,
              22.956167216999972
            ],
            [
              89.41943029300018,
              22.955729468000072
            ],
            [
              89.41897207300008,
              22.95555829000017
            ],
            [
              89.41668754400013,
              22.955247295000106
            ],
            [
              89.41560384500008,
              22.95490842800001
            ],
            [
              89.414660437,
              22.954613422000136
            ],
            [
              89.41462667500008,
              22.954602865000027
            ],
            [
              89.41440445100017,
              22.954534296000134
            ],
            [
              89.41135966600001,
              22.953816182000082
            ],
            [
              89.4110521520002,
              22.95370542300003
            ],
            [
              89.40994690700012,
              22.953307334000044
            ],
            [
              89.40875266800015,
              22.95259830100008
            ],
            [
              89.40799326500013,
              22.951992505000078
            ],
            [
              89.40766944900014,
              22.951386075000187
            ],
            [
              89.40691182000006,
              22.950376045999974
            ],
            [
              89.40582643700009,
              22.949667399000077
            ],
            [
              89.4055476310001,
              22.949506393000092
            ],
            [
              89.40534982300005,
              22.94939216100005
            ],
            [
              89.40422445100006,
              22.948742267000114
            ],
            [
              89.40379955400016,
              22.946306234000076
            ],
            [
              89.40342288200009,
              22.94494892
            ],
            [
              89.4003361020001,
              22.94298804500005
            ],
            [
              89.39968662100011,
              22.942799166000157
            ],
            [
              89.39874226100011,
              22.942766911000035
            ],
            [
              89.3975497880001,
              22.94281975000007
            ],
            [
              89.39644527300015,
              22.942806821000147
            ],
            [
              89.39638776400011,
              22.94280641
            ],
            [
              89.39616013800008,
              22.942868174000182
            ],
            [
              89.39602031000004,
              22.94289073200008
            ],
            [
              89.39469062600017,
              22.943105235000132
            ],
            [
              89.39467982200017,
              22.942633101000183
            ],
            [
              89.39463143300014,
              22.941327950000073
            ],
            [
              89.39465905800006,
              22.940338574000123
            ],
            [
              89.39459830400017,
              22.940073047000112
            ],
            [
              89.39444365000014,
              22.939962469000022
            ],
            [
              89.39414090600019,
              22.939958216000093
            ],
            [
              89.39358415500004,
              22.93981268700003
            ],
            [
              89.39322919500012,
              22.93955320500004
            ],
            [
              89.39298268200008,
              22.939279796999983
            ],
            [
              89.39299099600004,
              22.938853644000176
            ],
            [
              89.39299302500012,
              22.938749615000177
            ],
            [
              89.39301511600007,
              22.938371702000097
            ],
            [
              89.39327002900012,
              22.937348565000093
            ],
            [
              89.39333041700019,
              22.937106182000036
            ],
            [
              89.39352146500016,
              22.936856922000175
            ],
            [
              89.39382357600005,
              22.936462752000068
            ],
            [
              89.39400509000012,
              22.93635864000015
            ],
            [
              89.39454379700004,
              22.936049646000185
            ],
            [
              89.39465144200011,
              22.935987902000022
            ],
            [
              89.3954015720002,
              22.935584452000057
            ],
            [
              89.3956615260002,
              22.935209510000107
            ],
            [
              89.39576516500017,
              22.935060025999974
            ],
            [
              89.39579258800006,
              22.934863402000076
            ],
            [
              89.39581847000005,
              22.93467782000016
            ],
            [
              89.39572070900005,
              22.93395802800012
            ],
            [
              89.39546376800018,
              22.933837654000115
            ],
            [
              89.3940702820002,
              22.933509406000155
            ],
            [
              89.39379126900008,
              22.933456808000017
            ],
            [
              89.39370213300003,
              22.933440004999966
            ],
            [
              89.39312042400013,
              22.933330343000137
            ],
            [
              89.39174713500006,
              22.933071446000156
            ],
            [
              89.38982079400012,
              22.932958375000112
            ],
            [
              89.38977121700003,
              22.93295546500002
            ],
            [
              89.38854148900003,
              22.932950732999984
            ],
            [
              89.38779481000017,
              22.93294785400002
            ],
            [
              89.38703785600006,
              22.93295338300004
            ],
            [
              89.38695199400007,
              22.932941067000115
            ],
            [
              89.38695715600016,
              22.93285451000014
            ],
            [
              89.38696786900005,
              22.932674854000027
            ],
            [
              89.38701962200014,
              22.93180700700003
            ],
            [
              89.3873482090001,
              22.926296516000036
            ],
            [
              89.38737679000008,
              22.925817200000154
            ],
            [
              89.38738843900006,
              22.925621807000027
            ],
            [
              89.38728462900013,
              22.924512583000137
            ],
            [
              89.38729323100017,
              22.922599844000047
            ],
            [
              89.38697334600005,
              22.921087812000167
            ],
            [
              89.38675848500014,
              22.920481757
            ],
            [
              89.38622314300005,
              22.918566916000145
            ],
            [
              89.38525327800005,
              22.91644714300014
            ],
            [
              89.38558235800008,
              22.915845453000088
            ],
            [
              89.38667009200003,
              22.91594902100013
            ],
            [
              89.38708500100017,
              22.916336765000096
            ],
            [
              89.38732040000019,
              22.916556752000076
            ],
            [
              89.38800297799997,
              22.916980776000173
            ],
            [
              89.38829709100008,
              22.91716348000017
            ],
            [
              89.38916770700018,
              22.91716683300018
            ],
            [
              89.38960002400017,
              22.917878828000028
            ],
            [
              89.3905624790001,
              22.919181248000143
            ],
            [
              89.39060325700012,
              22.919204449
            ],
            [
              89.391441633,
              22.919693559000166
            ],
            [
              89.39198378300011,
              22.920099870000115
            ],
            [
              89.3921282180001,
              22.92029250700017
            ],
            [
              89.39274113600015,
              22.921109968000053
            ],
            [
              89.39352005000012,
              22.92192688400013
            ],
            [
              89.393607745,
              22.922018857000182
            ],
            [
              89.3941467780001,
              22.923129737000068
            ],
            [
              89.39545156600008,
              22.923437323000144
            ],
            [
              89.39697320700014,
              22.92384508400005
            ],
            [
              89.3971039810001,
              22.923933921000184
            ],
            [
              89.39721119400019,
              22.924006753000185
            ],
            [
              89.39816668200018,
              22.924655824000126
            ],
            [
              89.39914348200017,
              22.925262488999977
            ],
            [
              89.39957896800018,
              22.92526413400003
            ],
            [
              89.40034318900007,
              22.924664058000133
            ],
            [
              89.4007835500002,
              22.923556897000083
            ],
            [
              89.40176343800005,
              22.92346122700019
            ],
            [
              89.40252662400013,
              22.923161487000073
            ],
            [
              89.40350974000012,
              22.922257347000027
            ],
            [
              89.40352466500002,
              22.922189654000192
            ],
            [
              89.40373204000008,
              22.92125098300005
            ],
            [
              89.40373257300018,
              22.92112929600006
            ],
            [
              89.40373776000018,
              22.919943449000073
            ],
            [
              89.40439227400014,
              22.919541667000033
            ],
            [
              89.40504487900006,
              22.91964573700011
            ],
            [
              89.40537432800005,
              22.918942381000022
            ],
            [
              89.40593425200018,
              22.91825692700013
            ],
            [
              89.40603088800003,
              22.91813862600003
            ],
            [
              89.40690414300008,
              22.917536665000057
            ],
            [
              89.40788355199999,
              22.91754031800008
            ],
            [
              89.40907966700013,
              22.917745762000038
            ],
            [
              89.4097322680002,
              22.917849814000135
            ],
            [
              89.41068766800004,
              22.917558469000085
            ],
            [
              89.41071268100006,
              22.91755084099998
            ],
            [
              89.41072515900004,
              22.917450907000045
            ],
            [
              89.41082569200006,
              22.916645682000137
            ],
            [
              89.411370074,
              22.91654607600009
            ],
            [
              89.41256661600005,
              22.91665213000016
            ],
            [
              89.41354601800009,
              22.91665574900003
            ],
            [
              89.41474299800018,
              22.916660163000188
            ],
            [
              89.4149036550001,
              22.916660755000066
            ],
            [
              89.41670180400007,
              22.916667369000095
            ],
            [
              89.41811623400008,
              22.91677417800014
            ],
            [
              89.41985459400018,
              22.91738350700018
            ],
            [
              89.42016587300009,
              22.91756530600003
            ],
            [
              89.42072307300003,
              22.917890279000176
            ],
            [
              89.42252452900004,
              22.917618719000075
            ],
            [
              89.42268318200007,
              22.917594801000064
            ],
            [
              89.42522493899997,
              22.91768080300011
            ],
            [
              89.426056147,
              22.917708649000076
            ],
            [
              89.4283382640001,
              22.918523096000058
            ],
            [
              89.43007669400004,
              22.919132309000076
            ],
            [
              89.43235928500019,
              22.919845075000126
            ],
            [
              89.4331191440001,
              22.920252028000107
            ],
            [
              89.43398852900015,
              22.92055774
            ],
            [
              89.43551864,
              22.92086941500014
            ],
            [
              89.43672919700009,
              22.921514320000085
            ],
            [
              89.43703105200012,
              22.92167512499998
            ],
            [
              89.43868157800006,
              22.92196777500004
            ],
            [
              89.438771106,
              22.921983900000043
            ],
            [
              89.43964258400018,
              22.92178598800001
            ],
            [
              89.43988053000015,
              22.921766783000123
            ],
            [
              89.44323491600005,
              22.92149600800019
            ],
            [
              89.44399718600005,
              22.921397057000092
            ],
            [
              89.44497293100005,
              22.922308309000186
            ],
            [
              89.44584604900018,
              22.921706131000064
            ],
            [
              89.44662733000007,
              22.921577873000103
            ],
            [
              89.44704389300017,
              22.921509316000027
            ],
            [
              89.44845688200013,
              22.921916211000052
            ],
            [
              89.44878234400005,
              22.922219953000138
            ],
            [
              89.45008614200009,
              22.922728075000066
            ],
            [
              89.450955991,
              22.922932074000187
            ],
            [
              89.4531296520002,
              22.923646428000097
            ],
            [
              89.45519575900016,
              22.92405550900014
            ],
            [
              89.45769666000007,
              22.92456767300007
            ],
            [
              89.45835014200014,
              22.9244682800001
            ],
            [
              89.45835253900009,
              22.923865315
            ],
            [
              89.45911481500008,
              22.923766291
            ],
            [
              89.46009507300016,
              22.923568636000084
            ],
            [
              89.46062262400005,
              22.92353254200009
            ],
            [
              89.46151011500018,
              22.923471817000177
            ],
            [
              89.46259837100018,
              22.92347550400018
            ],
            [
              89.46264533500016,
              22.923389847000124
            ],
            [
              89.46270795800012,
              22.923274885000012
            ],
            [
              89.46259148400003,
              22.923057692999976
            ],
            [
              89.46249195400014,
              22.922872175000123
            ],
            [
              89.46227596000006,
              22.922467204999975
            ],
            [
              89.4614072920001,
              22.921960658000103
            ],
            [
              89.45913000700011,
              22.919938501
            ],
            [
              89.45858854200014,
              22.91923206299998
            ],
            [
              89.45837616400013,
              22.917921515000103
            ],
            [
              89.45837935900016,
              22.917117569000027
            ],
            [
              89.4594759540002,
              22.915005260000157
            ],
            [
              89.46241812400012,
              22.91400803800002
            ],
            [
              89.46286406800004,
              22.913824567000063
            ],
            [
              89.46775888600001,
              22.91181061100002
            ],
            [
              89.47151712400012,
              22.90919743500018
            ],
            [
              89.4717961090002,
              22.909003444
            ],
            [
              89.4789503770001,
              22.903854606000152
            ],
            [
              89.47894730300004,
              22.903893888000027
            ],
            [
              89.47923739300006,
              22.904211005000093
            ],
            [
              89.4795278790001,
              22.904345198999977
            ],
            [
              89.48006004100006,
              22.904708274000086
            ],
            [
              89.48021241600014,
              22.904708772000163
            ],
            [
              89.48030258900008,
              22.904709067000056
            ],
            [
              89.48088574200011,
              22.904485140000133
            ],
            [
              89.48132238700009,
              22.904486567000163
            ],
            [
              89.48180696500003,
              22.904623646
            ],
            [
              89.48219464700014,
              22.90476040800013
            ],
            [
              89.4829704030002,
              22.904851010000186
            ],
            [
              89.48360624900005,
              22.90463176200018
            ],
            [
              89.48403932100018,
              22.904450246000067
            ],
            [
              89.48447766500004,
              22.904002259000038
            ],
            [
              89.48544801800011,
              22.90396024
            ],
            [
              89.48690413200012,
              22.90374137400005
            ],
            [
              89.48787495800019,
              22.903654173000177
            ],
            [
              89.48879618300009,
              22.903792639000073
            ],
            [
              89.48942695400018,
              22.9037043350001
            ],
            [
              89.48971892900005,
              22.903524605000143
            ],
            [
              89.48971993400005,
              22.90325586800003
            ],
            [
              89.48972094900006,
              22.902984873000037
            ],
            [
              89.48991537400008,
              22.90289742100009
            ],
            [
              89.49025481299998,
              22.902898512000093
            ],
            [
              89.49039979399998,
              22.903077382000163
            ],
            [
              89.49044723100013,
              22.903348532000052
            ],
            [
              89.49088253200017,
              22.903709004
            ],
            [
              89.49092963900006,
              22.90406822900019
            ],
            [
              89.49097707800018,
              22.904339378000145
            ],
            [
              89.49117084600005,
              22.90442807400018
            ],
            [
              89.49170452400011,
              22.904474948000143
            ],
            [
              89.49175431200018,
              22.904116033000037
            ],
            [
              89.49180482600008,
              22.90400063400017
            ],
            [
              89.49185204100019,
              22.90389277200012
            ],
            [
              89.4918535560002,
              22.90348627800006
            ],
            [
              89.49209760600013,
              22.903082818000087
            ],
            [
              89.49238907000012,
              22.90303858400017
            ],
            [
              89.4926317820001,
              22.90299419200005
            ],
            [
              89.49301950400007,
              22.903040594000117
            ],
            [
              89.49326188000003,
              22.90308653400001
            ],
            [
              89.49350525200009,
              22.902863738000065
            ],
            [
              89.49350626000017,
              22.902592739000113
            ],
            [
              89.49389494600018,
              22.902460737000013
            ],
            [
              89.49422831000004,
              22.90250613900008
            ],
            [
              89.49452551500002,
              22.90250791200009
            ],
            [
              89.49454345800018,
              22.902425749000145
            ],
            [
              89.49455767200016,
              22.902360659000124
            ],
            [
              89.49457479700004,
              22.902282236000076
            ],
            [
              89.49462424200016,
              22.902013651000175
            ],
            [
              89.49515908200016,
              22.901744350000172
            ],
            [
              89.49588770100013,
              22.901477924000176
            ],
            [
              89.49599981600011,
              22.901360139000076
            ],
            [
              89.4962284610001,
              22.90111993000005
            ],
            [
              89.49622946400007,
              22.900848935000056
            ],
            [
              89.49632848900018,
              22.900354673000038
            ],
            [
              89.49657152000015,
              22.900222203000112
            ],
            [
              89.49696472400018,
              22.900548194000123
            ],
            [
              89.49724770900002,
              22.90103282600012
            ],
            [
              89.49734344800004,
              22.90134703500007
            ],
            [
              89.49700235300014,
              22.901795364000122
            ],
            [
              89.49700086700005,
              22.902199599000085
            ],
            [
              89.4972888750001,
              22.903008991000092
            ],
            [
              89.49767302100008,
              22.90368271500006
            ],
            [
              89.49767205700016,
              22.90437083000006
            ],
            [
              89.49767193600007,
              22.904403594000087
            ],
            [
              89.49752396600007,
              22.90503319900006
            ],
            [
              89.49766862600012,
              22.905302396000025
            ],
            [
              89.49810527500011,
              22.905303774000174
            ],
            [
              89.49839627100005,
              22.905304696000087
            ],
            [
              89.49883076900011,
              22.905890972000066
            ],
            [
              89.49883720200017,
              22.90592874600003
            ],
            [
              89.49906820100006,
              22.907285109000043
            ],
            [
              89.49915371700018,
              22.907647686000132
            ],
            [
              89.4991636150001,
              22.907689651000112
            ],
            [
              89.49930937599999,
              22.907928105000167
            ],
            [
              89.4994874480002,
              22.90821941600018
            ],
            [
              89.49950978600009,
              22.908255959000087
            ],
            [
              89.49954950900008,
              22.908320941000113
            ],
            [
              89.50012951100007,
              22.908952840000097
            ],
            [
              89.50032312800005,
              22.909086692000187
            ],
            [
              89.50061380100004,
              22.909177939000188
            ],
            [
              89.50064808200011,
              22.909189458000128
            ],
            [
              89.50129219100018,
              22.909405902000117
            ],
            [
              89.5024087290002,
              22.909228738000024
            ],
            [
              89.50289433600017,
              22.909094757000048
            ],
            [
              89.50302469400009,
              22.909135662000153
            ],
            [
              89.50311961500006,
              22.909165446000088
            ],
            [
              89.50333050300009,
              22.90923162000007
            ],
            [
              89.50371757200003,
              22.90954673700014
            ],
            [
              89.50400775800006,
              22.909773477000044
            ],
            [
              89.50429696700013,
              22.910268952000138
            ],
            [
              89.50492855700014,
              22.91004508800006
            ],
            [
              89.50517111500017,
              22.910045845000013
            ],
            [
              89.50546146700003,
              22.910227417000158
            ],
            [
              89.50560814000016,
              22.91045144600014
            ],
            [
              89.5060720260002,
              22.910457004000023
            ],
            [
              89.50644729400011,
              22.910135508999986
            ],
            [
              89.50663763900019,
              22.909856141000148
            ],
            [
              89.5067356260002,
              22.909712326999966
            ],
            [
              89.50690044800012,
              22.909470416000147
            ],
            [
              89.50709375800017,
              22.909186694000084
            ],
            [
              89.50712167700004,
              22.909145714999966
            ],
            [
              89.50735483500017,
              22.908499317000178
            ],
            [
              89.50750589200015,
              22.908081355000036
            ],
            [
              89.50759791200011,
              22.908122477000063
            ],
            [
              89.50823113400014,
              22.908206207000035
            ],
            [
              89.5094098470002,
              22.908307703000105
            ],
            [
              89.5096403460002,
              22.908333385000105
            ],
            [
              89.5102586430001,
              22.908402276
            ],
            [
              89.51045878700012,
              22.908424575000026
            ],
            [
              89.51160651700008,
              22.90852797900004
            ],
            [
              89.512256429,
              22.908584072000167
            ],
            [
              89.51282171600013,
              22.908632856999986
            ],
            [
              89.51349318600012,
              22.908694524000055
            ],
            [
              89.51414571600009,
              22.90875444700015
            ],
            [
              89.51425990300004,
              22.90876543700017
            ],
            [
              89.51493104500014,
              22.908830022000075
            ],
            [
              89.51543593899999,
              22.908878605000098
            ],
            [
              89.51622701100007,
              22.90895472500017
            ],
            [
              89.51632297500004,
              22.90896395800013
            ],
            [
              89.51646485900005,
              22.908977611000125
            ],
            [
              89.51661424800005,
              22.908991985000057
            ],
            [
              89.51670310200012,
              22.909000534000143
            ],
            [
              89.5168423720001,
              22.90901393400003
            ],
            [
              89.51716506500009,
              22.90903315500009
            ],
            [
              89.51741081700015,
              22.909043943000086
            ],
            [
              89.51770548600012,
              22.909077382000135
            ],
            [
              89.51804458700019,
              22.909100408000086
            ],
            [
              89.51838504300014,
              22.909130122000022
            ],
            [
              89.51871770800005,
              22.90917415100006
            ],
            [
              89.51874414000008,
              22.909195103000172
            ],
            [
              89.51951270600006,
              22.90926223600013
            ],
            [
              89.51938395700017,
              22.909947202000126
            ],
            [
              89.51910761000016,
              22.91124642500006
            ],
            [
              89.51864659900008,
              22.913413764000097
            ],
            [
              89.51829933500017,
              22.91467060400015
            ],
            [
              89.51814180600019,
              22.915241013000184
            ],
            [
              89.51792095700011,
              22.916040689000113
            ],
            [
              89.51771269200003,
              22.916794793000122
            ],
            [
              89.51749729000011,
              22.917574729000023
            ],
            [
              89.51736893800017,
              22.918039464000174
            ],
            [
              89.51733630500001,
              22.91812032100006
            ],
            [
              89.51670032600009,
              22.919696084000122
            ],
            [
              89.51630391500004,
              22.920678249000105
            ],
            [
              89.5154830400001,
              22.922712036000064
            ],
            [
              89.51490019599999,
              22.924156043000096
            ],
            [
              89.51482352500017,
              22.924345994000078
            ],
            [
              89.51418110500009,
              22.927250494000077
            ],
            [
              89.514157566,
              22.927356563000046
            ],
            [
              89.51425366400014,
              22.92767076700011
            ],
            [
              89.51459253100006,
              22.927850210000145
            ],
            [
              89.5146212030001,
              22.927924134000023
            ],
            [
              89.51483854300017,
              22.928484477000097
            ],
            [
              89.51470848000014,
              22.92845212200001
            ],
            [
              89.51401849800004,
              22.92845000900013
            ],
            [
              89.51399211300009,
              22.92845962900003
            ],
            [
              89.51325071100001,
              22.928729950000104
            ],
            [
              89.51308673900013,
              22.92884152099998
            ],
            [
              89.51148302300015,
              22.929932723000036
            ],
            [
              89.51010761500004,
              22.930817735000062
            ],
            [
              89.50796332400017,
              22.93219743900005
            ],
            [
              89.50764071500004,
              22.932405011000128
            ],
            [
              89.506530715,
              22.933207604000017
            ],
            [
              89.50546115100019,
              22.933980942000062
            ],
            [
              89.50533366700012,
              22.93407311700014
            ],
            [
              89.50516829500009,
              22.934192686000188
            ],
            [
              89.50413925200013,
              22.93493651900019
            ],
            [
              89.50333601900019,
              22.935517117000074
            ],
            [
              89.5017658340002,
              22.936721043000034
            ],
            [
              89.5015410100001,
              22.93689342199997
            ],
            [
              89.50111392200012,
              22.937220880000098
            ],
            [
              89.50004182400005,
              22.93804287000006
            ],
            [
              89.49993660500013,
              22.938123525000094
            ],
            [
              89.4998475320001,
              22.938191803000052
            ],
            [
              89.49899449800006,
              22.938845683000125
            ],
            [
              89.49805861700014,
              22.93956305500018
            ],
            [
              89.49801391000011,
              22.93959732400009
            ],
            [
              89.49780018600018,
              22.939761147000013
            ],
            [
              89.49715997500005,
              22.940253735000113
            ],
            [
              89.49671769300005,
              22.940594030000113
            ],
            [
              89.4953901780001,
              22.941615410000054
            ],
            [
              89.49403226900012,
              22.94266014900012
            ],
            [
              89.49326673200005,
              22.943331033
            ],
            [
              89.49127978600018,
              22.94507226200011
            ],
            [
              89.49080151000004,
              22.945490778000078
            ],
            [
              89.49029556500017,
              22.945942910000042
            ],
            [
              89.48949315600015,
              22.94665996100008
            ],
            [
              89.48858845500013,
              22.94746840900001
            ],
            [
              89.48852483700006,
              22.94752525700011
            ],
            [
              89.48803160400018,
              22.94796600899997
            ],
            [
              89.48788743800014,
              22.948115595000104
            ],
            [
              89.48594861500004,
              22.950127255000098
            ],
            [
              89.48510736400016,
              22.951001080000026
            ],
            [
              89.48502965200015,
              22.951081801000043
            ],
            [
              89.48480233100008,
              22.95138027000013
            ],
            [
              89.48459351600007,
              22.95165443899998
            ],
            [
              89.48416148300015,
              22.952221683
            ],
            [
              89.48395072000005,
              22.952498771000023
            ],
            [
              89.48320451500018,
              22.953641472000186
            ],
            [
              89.4830250870001,
              22.95391623400019
            ],
            [
              89.48279072100007,
              22.954452714000126
            ],
            [
              89.48256107500009,
              22.95497838700004
            ],
            [
              89.48240531800008,
              22.95561698
            ],
            [
              89.48240234600019,
              22.956398345000082
            ],
            [
              89.4824068920002,
              22.95645587100006
            ],
            [
              89.48241147300013,
              22.956513856000186
            ],
            [
              89.48247534300009,
              22.95732223400006
            ],
            [
              89.48274237800007,
              22.957988799000077
            ],
            [
              89.48282069200013,
              22.95818428399997
            ],
            [
              89.48293100600006,
              22.95845964600005
            ],
            [
              89.48309245700017,
              22.95984917500016
            ],
            [
              89.48315386399997,
              22.960377679000032
            ],
            [
              89.48315228500013,
              22.960793233000118
            ],
            [
              89.48314873400011,
              22.96172813400011
            ],
            [
              89.48306547600015,
              22.96235169600004
            ],
            [
              89.48291183400005,
              22.963502388
            ],
            [
              89.4824700900001,
              22.965399430000105
            ],
            [
              89.48242119700006,
              22.965609393000022
            ],
            [
              89.4823663950001,
              22.965844733000097
            ],
            [
              89.48138991700017,
              22.968746657000054
            ],
            [
              89.48131365900008,
              22.968973278000078
            ],
            [
              89.481125308,
              22.969533006000177
            ],
            [
              89.48036855700019,
              22.971520733999967
            ],
            [
              89.47996764100009,
              22.97257377700015
            ],
            [
              89.479826286,
              22.972945052000057
            ],
            [
              89.47934348500013,
              22.97421314600018
            ],
            [
              89.47932675500016,
              22.974256081000078
            ],
            [
              89.47925296400018,
              22.974445455000136
            ],
            [
              89.4789609520002,
              22.975197631000185
            ],
            [
              89.47853309800013,
              22.976299693000044
            ],
            [
              89.47810414400016,
              22.97740457000009
            ],
            [
              89.47803847100016,
              22.97755498700019
            ],
            [
              89.47760839300008,
              22.978540036000084
            ],
            [
              89.47733026600008,
              22.97917704600019
            ],
            [
              89.47715517500006,
              22.979438431000062
            ],
            [
              89.47656580400007,
              22.980319484000063
            ],
            [
              89.47609602500017,
              22.98102026200013
            ],
            [
              89.47605743000008,
              22.981081787000164
            ],
            [
              89.4753297040001,
              22.98224184200012
            ],
            [
              89.47462996200011,
              22.983357267000144
            ],
            [
              89.47375271400017,
              22.984712651
            ],
            [
              89.47339396000018,
              22.985266931000012
            ],
            [
              89.47293223800017,
              22.985980289999986
            ],
            [
              89.47251874100016,
              22.986525903000086
            ],
            [
              89.47237570100003,
              22.986714644000187
            ],
            [
              89.47115902500008,
              22.988318494
            ],
            [
              89.4710672880002,
              22.988422817000014
            ],
            [
              89.46978484900006,
              22.989881162000188
            ],
            [
              89.46963733000001,
              22.990048966000188
            ],
            [
              89.4695413720001,
              22.99015811800018
            ],
            [
              89.46934989200003,
              22.990325754000025
            ],
            [
              89.467925031,
              22.991573167000126
            ],
            [
              89.46751250500017,
              22.991847047000192
            ],
            [
              89.46654081300005,
              22.992492155000093
            ],
            [
              89.46530403600013,
              22.993564740000124
            ],
            [
              89.46500195900012,
              22.99414897800017
            ],
            [
              89.46461376000002,
              22.994899771000178
            ],
            [
              89.4642502910001,
              22.995897270000057
            ],
            [
              89.46399325000004,
              22.996602684000152
            ],
            [
              89.46314029800016,
              22.99894164600005
            ],
            [
              89.46281589900008,
              23.000124951000146
            ],
            [
              89.46261229400017,
              23.00086762600006
            ],
            [
              89.46236218000007,
              23.001779938000027
            ],
            [
              89.4620261290001,
              23.00330638900016
            ],
            [
              89.46164372400017,
              23.005043346000036
            ],
            [
              89.46142470600017,
              23.006038147000027
            ],
            [
              89.4609580500001,
              23.007599298000173
            ],
            [
              89.46081174300014,
              23.00819724700017
            ],
            [
              89.46080212800013,
              23.008237860000065
            ],
            [
              89.46018577000012,
              23.008944866000093
            ],
            [
              89.45941599700012,
              23.00958133400019
            ],
            [
              89.45879625300017,
              23.010151942000164
            ],
            [
              89.45864623400013,
              23.01029006600004
            ],
            [
              89.45856023200008,
              23.01032708499997
            ],
            [
              89.45835702400018,
              23.010556625000163
            ],
            [
              89.45661418700013,
              23.011132760000123
            ],
            [
              89.45595265800017,
              23.011351438000077
            ]
          ]
        ]
      }
    }
  ]
}