{
  "type": "FeatureCollection",
  "features": [
    {
      "type": "Feature",
      "properties": {
        "adm3_name": "Dacope",
        "adm3_name1": null,
        "adm3_name2": null,
        "adm3_name3": null,
        "adm3_pcode": "BD40470017",
        "adm2_name": "Khulna",
        "adm2_name1": null,
        "adm2_name2": null,
        "adm2_name3": null,
        "adm2_pcode": "BD4047",
        "adm1_name": "Khulna",
        "adm1_name1": null,
        "adm1_name2": null,
        "adm1_name3": null,
        "adm1_pcode": "BD40",
        "adm0_name": "Bangladesh",
        "adm0_name1": null,
        "adm0_name2": null,
        "adm0_name3": null,
        "adm0_pcode": "BD",
        "valid_on": "2023-05-21",
        "valid_to": null,
        "area_sqkm": 1103.68960334,
        "version": "v03",
        "lang": "en",
        "lang1": null,
        "lang2": null,
        "lang3": null,
        "adm3_ref_name": null,
        "center_lat": 22.24203107,
        "center_lon": 89.52637642
      },
      "geometry": {
        "type": "Polygon",
        "coordinates": [
          [
            [
              89.49544836600012,
              22.64365711300013
            ],
            [
              89.49537419900008,
              22.643704424000077
            ],
            [
              89.49368331699998,
              22.64478300800016
            ],
            [
              89.49137695900015,
              22.64571971800018
            ],
            [
              89.49045629500017,
              22.645996888000013
            ],
            [
              89.4869131210001,
              22.647063516000173
            ],
            [
              89.48683385600003,
              22.647087377000105
            ],
            [
              89.48337766300011,
              22.64855427500015
            ],
            [
              89.4824241230001,
              22.64895896300004
            ],
            [
              89.4817372170001,
              22.649446991000104
            ],
            [
              89.48154127200013,
              22.649586202000023
            ],
            [
              89.48148105000013,
              22.649586006000163
            ],
            [
              89.48127028300019,
              22.6495853240001
            ],
            [
              89.48086466100006,
              22.649394307000023
            ],
            [
              89.48032386600016,
              22.649078638000105
            ],
            [
              89.47822937800004,
              22.64775067400018
            ],
            [
              89.47805837100003,
              22.647555971000145
            ],
            [
              89.47710121700004,
              22.646466177000036
            ],
            [
              89.47607109100005,
              22.645293273000163
            ],
            [
              89.47587270700018,
              22.64403470000002
            ],
            [
              89.47533266300007,
              22.643529311000066
            ],
            [
              89.47470950500002,
              22.64352727100004
            ],
            [
              89.47397807800019,
              22.643524873000047
            ],
            [
              89.47214623600013,
              22.64433639000015
            ],
            [
              89.47138004500005,
              22.64461789800015
            ],
            [
              89.47094090200005,
              22.644779243000073
            ],
            [
              89.47011145500011,
              22.645083983000063
            ],
            [
              89.46862315200013,
              22.645079057000032
            ],
            [
              89.46679278600004,
              22.645072979000076
            ],
            [
              89.46542872600014,
              22.645117786000128
            ],
            [
              89.46398374700004,
              22.645165238000118
            ],
            [
              89.46327016100014,
              22.645187695000118
            ],
            [
              89.45974710400009,
              22.645489775999977
            ],
            [
              89.45839348700008,
              22.645234528
            ],
            [
              89.45744645100007,
              22.64491515000003
            ],
            [
              89.45697403400015,
              22.644475422000085
            ],
            [
              89.45684315600016,
              22.643341269000132
            ],
            [
              89.45678546800019,
              22.640764249000085
            ],
            [
              89.45679115000013,
              22.63931889700001
            ],
            [
              89.45672604900011,
              22.638627608000093
            ],
            [
              89.45632371300007,
              22.63761900200018
            ],
            [
              89.45630108600005,
              22.637264358000095
            ],
            [
              89.4562145490001,
              22.636611389
            ],
            [
              89.45635007100009,
              22.636175978000153
            ],
            [
              89.45656213200016,
              22.635146869000152
            ],
            [
              89.45726086000008,
              22.63386195200013
            ],
            [
              89.45743756200011,
              22.633617751000088
            ],
            [
              89.45892849400019,
              22.631557248999968
            ],
            [
              89.45899145099997,
              22.631486282000083
            ],
            [
              89.45926989100013,
              22.631172411000136
            ],
            [
              89.4595616950001,
              22.63084347200015
            ],
            [
              89.46041127700005,
              22.62915027700012
            ],
            [
              89.46123908100014,
              22.62749991300018
            ],
            [
              89.46043891000011,
              22.625245079000138
            ],
            [
              89.46041582700008,
              22.625180032000173
            ],
            [
              89.45829888500009,
              22.62369531900015
            ],
            [
              89.45709609100004,
              22.622851717000174
            ],
            [
              89.45159218200018,
              22.619197554000095
            ],
            [
              89.45149558400016,
              22.61913341700017
            ],
            [
              89.45147164900004,
              22.619117527000128
            ],
            [
              89.4485189780001,
              22.617156151000188
            ],
            [
              89.44701598500018,
              22.615398462000144
            ],
            [
              89.44626769500007,
              22.61452332900012
            ],
            [
              89.44421947200016,
              22.61212783400009
            ],
            [
              89.44410120100002,
              22.61198950700009
            ],
            [
              89.44024904600008,
              22.604250146000027
            ],
            [
              89.43970039200019,
              22.60383946000013
            ],
            [
              89.43915788600003,
              22.60343354300005
            ],
            [
              89.43748366800008,
              22.602180822000037
            ],
            [
              89.43621982500002,
              22.601900117000184
            ],
            [
              89.4327726160002,
              22.60113441800013
            ],
            [
              89.43066398500008,
              22.599616089
            ],
            [
              89.42917773100004,
              22.59854485000011
            ],
            [
              89.42669203300005,
              22.59596142100014
            ],
            [
              89.42503317200004,
              22.594668205000062
            ],
            [
              89.42380829500019,
              22.59420829400011
            ],
            [
              89.42298649300005,
              22.59389972100007
            ],
            [
              89.42087945900016,
              22.593108536999978
            ],
            [
              89.4208346900001,
              22.593054177000113
            ],
            [
              89.41812001400018,
              22.58974936700008
            ],
            [
              89.41537400599998,
              22.58506921500009
            ],
            [
              89.41509106500013,
              22.58458696400004
            ],
            [
              89.40955754600014,
              22.581477239000037
            ],
            [
              89.40920155300006,
              22.581371432000083
            ],
            [
              89.40429517300004,
              22.57991307500015
            ],
            [
              89.40181250600006,
              22.576812110000162
            ],
            [
              89.40080663000015,
              22.574211208000065
            ],
            [
              89.40071553900015,
              22.57397599500007
            ],
            [
              89.40224396000002,
              22.571864261000144
            ],
            [
              89.40294723600016,
              22.570892555
            ],
            [
              89.40570408000013,
              22.567690722
            ],
            [
              89.40585141700018,
              22.567519598000104
            ],
            [
              89.4087721410001,
              22.564127204000044
            ],
            [
              89.40935713100015,
              22.563447716000155
            ],
            [
              89.41290909600013,
              22.55997659500008
            ],
            [
              89.41452589700009,
              22.558396507999987
            ],
            [
              89.4185452820002,
              22.554467918000057
            ],
            [
              89.42300208400019,
              22.549590003000105
            ],
            [
              89.42384459900018,
              22.547018437000133
            ],
            [
              89.42361067100018,
              22.545606093000174
            ],
            [
              89.423045118,
              22.54219388900009
            ],
            [
              89.42303313000008,
              22.542121556000097
            ],
            [
              89.42294902300017,
              22.542018223000127
            ],
            [
              89.41959189300019,
              22.537893547000124
            ],
            [
              89.41919979599999,
              22.537411784000142
            ],
            [
              89.41861971300006,
              22.53669903600013
            ],
            [
              89.41656993900011,
              22.534429973000044
            ],
            [
              89.41558427200016,
              22.53333882100003
            ],
            [
              89.41282392400007,
              22.530496727000013
            ],
            [
              89.4125833270001,
              22.53007351600013
            ],
            [
              89.41172541800012,
              22.528564429000028
            ],
            [
              89.41062263100008,
              22.52662454
            ],
            [
              89.41026513100013,
              22.525188029000105
            ],
            [
              89.40987015700017,
              22.52360090700006
            ],
            [
              89.4095324170001,
              22.522243744000093
            ],
            [
              89.4095381080001,
              22.52090452800013
            ],
            [
              89.40954988000004,
              22.518133498
            ],
            [
              89.41060833000006,
              22.51630398599997
            ],
            [
              89.41108924600002,
              22.51547271400011
            ],
            [
              89.41154957600014,
              22.514677013000096
            ],
            [
              89.4128041740002,
              22.512508330000173
            ],
            [
              89.41355899000013,
              22.51120352600003
            ],
            [
              89.41397184300007,
              22.510491219000187
            ],
            [
              89.4140174760002,
              22.510412488000156
            ],
            [
              89.41493100300005,
              22.508982122000077
            ],
            [
              89.41594736700011,
              22.50739069500014
            ],
            [
              89.41680770300007,
              22.506043543000033
            ],
            [
              89.4169865840002,
              22.50562638499997
            ],
            [
              89.41993083500017,
              22.498760690000097
            ],
            [
              89.42044645300001,
              22.497558243000185
            ],
            [
              89.42059330300009,
              22.494562605999988
            ],
            [
              89.42095679100015,
              22.48714698300006
            ],
            [
              89.42105232400019,
              22.48519781100009
            ],
            [
              89.42100441800011,
              22.484625133000122
            ],
            [
              89.42074460300017,
              22.481519155
            ],
            [
              89.42036504300006,
              22.47698144399999
            ],
            [
              89.42033986000018,
              22.476683242000036
            ],
            [
              89.42093634400015,
              22.47074554800008
            ],
            [
              89.42129236500006,
              22.467201264000096
            ],
            [
              89.42170419500019,
              22.46310449400005
            ],
            [
              89.4217934610001,
              22.462216459000047
            ],
            [
              89.42208112400004,
              22.459354663000056
            ],
            [
              89.42219167400009,
              22.458254827000133
            ],
            [
              89.42220325300008,
              22.458139635000066
            ],
            [
              89.42392527200019,
              22.45307354
            ],
            [
              89.42446132100002,
              22.451496428999974
            ],
            [
              89.42526391000013,
              22.449135056000102
            ],
            [
              89.42652549500013,
              22.445423050999977
            ],
            [
              89.42761456000011,
              22.442218482000158
            ],
            [
              89.42849689899998,
              22.439622085000167
            ],
            [
              89.42941350600006,
              22.432247002000054
            ],
            [
              89.42978663700012,
              22.42924452500006
            ],
            [
              89.43083356200015,
              22.42081944000006
            ],
            [
              89.43121751500001,
              22.417729304000034
            ],
            [
              89.43187974400001,
              22.41623654500006
            ],
            [
              89.43835566300004,
              22.40428939200018
            ],
            [
              89.44061907000014,
              22.400112326000055
            ],
            [
              89.44467758800005,
              22.39146739400013
            ],
            [
              89.445152845,
              22.384463286000027
            ],
            [
              89.44341218200015,
              22.37744930200006
            ],
            [
              89.43813850900017,
              22.367950059
            ],
            [
              89.43244550800011,
              22.357922952000024
            ],
            [
              89.432888602,
              22.353504691000126
            ],
            [
              89.43869363900006,
              22.343637343000125
            ],
            [
              89.44803990900016,
              22.334195159000103
            ],
            [
              89.46495396000012,
              22.315716528000166
            ],
            [
              89.47299056500009,
              22.30091135000015
            ],
            [
              89.48192094300003,
              22.283637783000074
            ],
            [
              89.48860256200015,
              22.274184559000048
            ],
            [
              89.48861456800012,
              22.27129823000007
            ],
            [
              89.48421516300016,
              22.264689494000038
            ],
            [
              89.47843883000013,
              22.25147235700007
            ],
            [
              89.47325441700008,
              22.239923710000085
            ],
            [
              89.47152659000005,
              22.23002809900015
            ],
            [
              89.47159095800004,
              22.21519440500009
            ],
            [
              89.47340397100004,
              22.205312500000048
            ],
            [
              89.48726702100004,
              22.17075163200002
            ],
            [
              89.504676894,
              22.132082809000053
            ],
            [
              89.51318297900013,
              22.106155397000123
            ],
            [
              89.52386678300019,
              22.087650888000155
            ],
            [
              89.52878367200015,
              22.073659777000103
            ],
            [
              89.52793948200008,
              22.06335827400011
            ],
            [
              89.52136938100011,
              22.048091584000133
            ],
            [
              89.51478962200008,
              22.035708795000062
            ],
            [
              89.50733090700015,
              22.022500977999982
            ],
            [
              89.50559525200015,
              22.01466752600004
            ],
            [
              89.50561859100003,
              22.00889919000008
            ],
            [
              89.50698226300005,
              21.99942855200004
            ],
            [
              89.51631775900012,
              21.984630990000085
            ],
            [
              89.52248823100018,
              21.96107387300009
            ],
            [
              89.52535367000019,
              21.93275707400005
            ],
            [
              89.52545283300014,
              21.907217025000136
            ],
            [
              89.52116479500006,
              21.87507355400004
            ],
            [
              89.51509599200006,
              21.847453193000092
            ],
            [
              89.51124049700013,
              21.818608168000083
            ],
            [
              89.51221340000012,
              21.795959196000126
            ],
            [
              89.51194973500003,
              21.75147667699997
            ],
            [
              89.51198765500015,
              21.750629795000066
            ],
            [
              89.5131943340001,
              21.723732778000112
            ],
            [
              89.49749935900007,
              21.692468997000162
            ],
            [
              89.49746832500017,
              21.692446317000076
            ],
            [
              89.50834374000004,
              21.679254415000116
            ],
            [
              89.54168851800011,
              21.663505230000055
            ],
            [
              89.61667868900008,
              21.664467769000055
            ],
            [
              89.63747009000008,
              21.663762322000025
            ],
            [
              89.63646918800004,
              21.66603238700003
            ],
            [
              89.63276182600009,
              21.673703804000127
            ],
            [
              89.62872328600008,
              21.67949288700015
            ],
            [
              89.62552542900005,
              21.68434189400017
            ],
            [
              89.62199295500017,
              21.688722522000035
            ],
            [
              89.61576434900013,
              21.69811113100019
            ],
            [
              89.61441423400004,
              21.701398905000076
            ],
            [
              89.61306196500016,
              21.70546816300015
            ],
            [
              89.6133876930001,
              21.709073785000044
            ],
            [
              89.61388154200006,
              21.712521689000027
            ],
            [
              89.61504113400008,
              21.71536806600011
            ],
            [
              89.61560795600008,
              21.716733627
            ],
            [
              89.61769106500003,
              21.721038971999974
            ],
            [
              89.62146069300019,
              21.734574869000028
            ],
            [
              89.62226609700019,
              21.74587460900011
            ],
            [
              89.6224139040001,
              21.74794615500008
            ],
            [
              89.61894731100006,
              21.753982420000114
            ],
            [
              89.61242702500004,
              21.760090534000085
            ],
            [
              89.60813892800007,
              21.76452323400008
            ],
            [
              89.60338571900019,
              21.76883725200014
            ],
            [
              89.5996807370002,
              21.772406051000075
            ],
            [
              89.582775713,
              21.786004305000063
            ],
            [
              89.56770763200018,
              21.800034725000103
            ],
            [
              89.55539698700005,
              21.81418860400015
            ],
            [
              89.54905266800012,
              21.82985765100011
            ],
            [
              89.54981655400013,
              21.84577408399997
            ],
            [
              89.55329366500013,
              21.857860447000178
            ],
            [
              89.557779493,
              21.870234026
            ],
            [
              89.56621203000009,
              21.88433447200015
            ],
            [
              89.57533406200008,
              21.907655965
            ],
            [
              89.56366925999998,
              21.921692120000102
            ],
            [
              89.55081773300009,
              21.93592968700011
            ],
            [
              89.5459830150001,
              21.94583846500018
            ],
            [
              89.54344857600006,
              21.955012668000165
            ],
            [
              89.54326655100004,
              21.968028477000132
            ],
            [
              89.54549607000001,
              21.977724048000084
            ],
            [
              89.5494796640001,
              21.990918452000017
            ],
            [
              89.55420612200004,
              22.01153424100005
            ],
            [
              89.56206699100005,
              22.037100051000095
            ],
            [
              89.57521179000008,
              22.069276556999966
            ],
            [
              89.58570456600012,
              22.091487209000036
            ],
            [
              89.59002191700006,
              22.110614652000038
            ],
            [
              89.58976143100017,
              22.125249516000167
            ],
            [
              89.58618005800002,
              22.138459848000025
            ],
            [
              89.57237864600012,
              22.159679533000087
            ],
            [
              89.5512966330001,
              22.186379860000102
            ],
            [
              89.54704366700008,
              22.19750946100004
            ],
            [
              89.5472250680001,
              22.205983990000163
            ],
            [
              89.55851896100012,
              22.2163365130001
            ],
            [
              89.57479763900017,
              22.22772900299998
            ],
            [
              89.59161969800016,
              22.237434122000025
            ],
            [
              89.59178359100014,
              22.25141259500009
            ],
            [
              89.58710669400017,
              22.26227334000015
            ],
            [
              89.58706894800002,
              22.274311185000045
            ],
            [
              89.594526842,
              22.289597592000177
            ],
            [
              89.60574903700012,
              22.302618514000187
            ],
            [
              89.61960589000012,
              22.32276597000009
            ],
            [
              89.62577487400017,
              22.333067869000104
            ],
            [
              89.62777513000015,
              22.340324565000117
            ],
            [
              89.626995637,
              22.349171623000075
            ],
            [
              89.62597752800008,
              22.360728325000082
            ],
            [
              89.62591429700007,
              22.36105870900002
            ],
            [
              89.62512184000013,
              22.365199211000117
            ],
            [
              89.62489692500009,
              22.366374322000127
            ],
            [
              89.62358526400004,
              22.373226913000167
            ],
            [
              89.62259022400013,
              22.37842488700005
            ],
            [
              89.62145070300005,
              22.38215586299998
            ],
            [
              89.61993906700002,
              22.387104872000123
            ],
            [
              89.61846978900013,
              22.39191443900006
            ],
            [
              89.61727236300004,
              22.395833852000067
            ],
            [
              89.61608158700011,
              22.399731269000085
            ],
            [
              89.61542556800009,
              22.401878321000083
            ],
            [
              89.61492963600006,
              22.402784768
            ],
            [
              89.613416465,
              22.405550404000053
            ],
            [
              89.61180996300016,
              22.40848648200017
            ],
            [
              89.61059472700015,
              22.410707380000076
            ],
            [
              89.60805320000009,
              22.41535186600015
            ],
            [
              89.60661214100014,
              22.417985157000146
            ],
            [
              89.60472488900012,
              22.421433615000183
            ],
            [
              89.60140367700012,
              22.427993129000072
            ],
            [
              89.59935588200005,
              22.43203828000003
            ],
            [
              89.59897929300007,
              22.432782153000176
            ],
            [
              89.59889575400018,
              22.432947164999973
            ],
            [
              89.59515829100013,
              22.44032923400016
            ],
            [
              89.59509753800018,
              22.44065910000012
            ],
            [
              89.59469150700005,
              22.442863644000056
            ],
            [
              89.59452712500013,
              22.443756134000182
            ],
            [
              89.59414861000016,
              22.44581118500014
            ],
            [
              89.59369285700018,
              22.448285500000168
            ],
            [
              89.59368764800001,
              22.448313779000102
            ],
            [
              89.59322889200007,
              22.45080471800003
            ],
            [
              89.5928062960001,
              22.453099225000074
            ],
            [
              89.5923940080001,
              22.45533769100001
            ],
            [
              89.59190178900013,
              22.45800989900016
            ],
            [
              89.59187176600005,
              22.458172891000117
            ],
            [
              89.59165112200009,
              22.459370709000098
            ],
            [
              89.59145680900008,
              22.46042556300017
            ],
            [
              89.59139823100003,
              22.460743560000083
            ],
            [
              89.59115331900006,
              22.46207306600013
            ],
            [
              89.59099168300014,
              22.46295049800011
            ],
            [
              89.59081439500005,
              22.463912879000077
            ],
            [
              89.59061652000014,
              22.464986997000096
            ],
            [
              89.59036222200007,
              22.466367263999985
            ],
            [
              89.59035073700005,
              22.466429597000115
            ],
            [
              89.58995593300011,
              22.468574139999987
            ],
            [
              89.58862560600005,
              22.47741042400014
            ],
            [
              89.5879887960001,
              22.481639804000167
            ],
            [
              89.58690375200007,
              22.48884550600019
            ],
            [
              89.58682514600014,
              22.489367485000116
            ],
            [
              89.5865608960001,
              22.491122219000033
            ],
            [
              89.58595577200015,
              22.495140314000025
            ],
            [
              89.58589166500008,
              22.495565977000183
            ],
            [
              89.58501546000014,
              22.499325937000037
            ],
            [
              89.58439146900014,
              22.50200345999997
            ],
            [
              89.58267606300012,
              22.509363648000033
            ],
            [
              89.58204186100005,
              22.51182127900006
            ],
            [
              89.58183912100014,
              22.51260690500004
            ],
            [
              89.58099749300015,
              22.515868162000174
            ],
            [
              89.58043772600007,
              22.517397536000033
            ],
            [
              89.58029477600019,
              22.51778809000001
            ],
            [
              89.58005673200017,
              22.51843844800004
            ],
            [
              89.57993702400006,
              22.518765520000102
            ],
            [
              89.57937989600015,
              22.52028770400011
            ],
            [
              89.57919695300018,
              22.520787536000057
            ],
            [
              89.5781161490001,
              22.52374038400012
            ],
            [
              89.5775365130001,
              22.52551725400008
            ],
            [
              89.57717159500015,
              22.526635883000154
            ],
            [
              89.57716067800004,
              22.526669349000088
            ],
            [
              89.57694232000006,
              22.5273383280001
            ],
            [
              89.576756063,
              22.52790895300018
            ],
            [
              89.57616191500006,
              22.529729183000143
            ],
            [
              89.57595403900012,
              22.530253269000127
            ],
            [
              89.57529528300012,
              22.531914055000072
            ],
            [
              89.5745592940001,
              22.533769506
            ],
            [
              89.574530526,
              22.533842030000187
            ],
            [
              89.57439669400014,
              22.534178188000112
            ],
            [
              89.57435002400018,
              22.534285689
            ],
            [
              89.57392462700005,
              22.535265558000162
            ],
            [
              89.57315078500017,
              22.53704800400004
            ],
            [
              89.57253980300004,
              22.538455285000055
            ],
            [
              89.57104985300003,
              22.543245999000135
            ],
            [
              89.57042164300015,
              22.545204442000056
            ],
            [
              89.56953837000015,
              22.54795794900008
            ],
            [
              89.56890871500019,
              22.54992075700011
            ],
            [
              89.56880456600015,
              22.55032810200015
            ],
            [
              89.56862596500002,
              22.55102663500014
            ],
            [
              89.56750876600006,
              22.55539823900017
            ],
            [
              89.56601978900005,
              22.5597620530001
            ],
            [
              89.56572544600016,
              22.56049366200017
            ],
            [
              89.5650903610001,
              22.56207218500009
            ],
            [
              89.56258775300012,
              22.566261574000066
            ],
            [
              89.56180760400014,
              22.567239773000097
            ],
            [
              89.55838790500007,
              22.57152739100013
            ],
            [
              89.55768099000011,
              22.5724136770001
            ],
            [
              89.5565237020001,
              22.57385362600013
            ],
            [
              89.55384667500005,
              22.577185957999973
            ],
            [
              89.55369965100016,
              22.57736896600005
            ],
            [
              89.5495321250001,
              22.582838549000087
            ],
            [
              89.54942833300004,
              22.582967857000085
            ],
            [
              89.54712467500002,
              22.585837750000167
            ],
            [
              89.54486538600008,
              22.58803107400007
            ],
            [
              89.5443228110002,
              22.588543086000186
            ],
            [
              89.54219056099998,
              22.590555170000016
            ],
            [
              89.54120001900009,
              22.591539302000115
            ],
            [
              89.5397085780001,
              22.59302105300003
            ],
            [
              89.53666208400006,
              22.595349760999966
            ],
            [
              89.53360449300015,
              22.599137319000192
            ],
            [
              89.53264437900009,
              22.600839636000103
            ],
            [
              89.53146454900019,
              22.602930869000033
            ],
            [
              89.53135450600001,
              22.60312591500019
            ],
            [
              89.53129577800013,
              22.603229630000158
            ],
            [
              89.53117551800017,
              22.604803399000048
            ],
            [
              89.53123015300014,
              22.606566047000058
            ],
            [
              89.53127881500006,
              22.608135941000114
            ],
            [
              89.53123964200012,
              22.60815435000012
            ],
            [
              89.52838163600006,
              22.609505023000054
            ],
            [
              89.52685708000007,
              22.61055070800012
            ],
            [
              89.52649197900013,
              22.61103293000008
            ],
            [
              89.52568070300015,
              22.612105221000093
            ],
            [
              89.52537851100004,
              22.612272637000046
            ],
            [
              89.52454122000012,
              22.61337942299997
            ],
            [
              89.52406090900007,
              22.615202802000113
            ],
            [
              89.52392690900018,
              22.61661734000012
            ],
            [
              89.52371939300008,
              22.61880787700005
            ],
            [
              89.52370971200008,
              22.618910074000098
            ],
            [
              89.52369306700018,
              22.618975521000095
            ],
            [
              89.52281726500001,
              22.62242829100012
            ],
            [
              89.52213225100019,
              22.624689182000054
            ],
            [
              89.52151994300016,
              22.62544166800012
            ],
            [
              89.51995780900006,
              22.62675816799998
            ],
            [
              89.51965168300012,
              22.62698742500004
            ],
            [
              89.5187574580001,
              22.627657098000157
            ],
            [
              89.51669879900004,
              22.629198758000143
            ],
            [
              89.51419637000004,
              22.631087224000055
            ],
            [
              89.51296393500013,
              22.632017251000036
            ],
            [
              89.51223292800012,
              22.632367538000153
            ],
            [
              89.51213126500016,
              22.632416252999974
            ],
            [
              89.509221916,
              22.63381031200015
            ],
            [
              89.50787575700014,
              22.634454348000133
            ],
            [
              89.50359549700016,
              22.636366964000104
            ],
            [
              89.50312732200007,
              22.636576157000093
            ],
            [
              89.50119249700009,
              22.637764847000028
            ],
            [
              89.501124855,
              22.63780639100014
            ],
            [
              89.50007298100002,
              22.63845243000003
            ],
            [
              89.499053043,
              22.63951973100012
            ],
            [
              89.49694378800001,
              22.642153200000166
            ],
            [
              89.49544836600012,
              22.64365711300013
            ]
          ]
        ]
      }
    }
  ]
}